{"type":"FeatureCollection", "features": [
{"type":"Feature","geometry":{"type":"Polygon","coordinates":[[[18.8582,52.9027],[18.914,53.2709],[18.8626,53.7397],[18.8433,53.7889],[18.8427,53.7973],[18.8209,53.881],[18.8234,53.9521],[18.731,54.3047],[18.6766,54.5337],[18.431,54.9806],[18.1107,55.3364],[18.0753,55.4216],[17.7518,55.8521],[17.3046,56.2434],[16.7473,56.5837],[16.7041,56.6067],[16.4707,56.7186],[16.4382,56.7307],[16.3087,56.8013],[15.6306,57.0589],[14.8856,57.2443],[14.0964,57.352],[13.2869,57.3786],[13.2361,57.3777],[12.6206,57.343],[12.4898,57.3235],[12.3366,57.3118],[11.8752,57.2311],[11.5343,57.3403],[10.7643,57.4938],[10.7209,57.5001],[10.2404,57.5543],[10.0013,57.5617],[9.7001,57.6276],[8.8969,57.716],[8.8612,57.7181],[8.4808,57.7315],[7.6647,57.7003],[6.8704,57.5882],[6.1221,57.3986],[5.4425,57.1372],[4.8523,56.8121],[4.3693,56.433],[4.0083,56.0115],[3.9369,55.8849],[3.8948,55.82],[3.8087,55.6311],[3.4764,55.4423],[3.0083,55.0636],[2.658,54.6423],[2.4363,54.1913],[2.3498,53.7243],[2.3889,53.3667],[2.2616,53.2589],[1.9154,52.8407],[1.6916,52.3916],[1.5971,51.9253],[1.6347,51.4559],[1.6472,51.422],[1.6408,51.4045],[1.6041,50.935],[1.6072,50.9151],[1.6372,50.6825],[1.7939,50.223],[1.8475,50.1398],[1.8898,50.0418],[1.9348,49.9817],[1.9831,49.6049],[2.1688,49.1502],[2.2455,49.0429],[2.2526,49.0264],[2.3155,48.9398],[2.3266,48.885],[2.5437,48.4366],[2.846,48.0584],[2.5435,47.6867],[2.3181,47.2427],[2.2747,47.0599],[2.2292,46.9441],[2.2231,46.8981],[2.1145,46.57],[2.0797,46.1002],[2.0879,46.054],[2.0857,46.0147],[2.1768,45.5486],[2.383,45.1005],[2.698,44.6841],[3.1122,44.312],[3.6131,43.9956],[4.1854,43.7445],[4.8117,43.5662],[4.9708,43.5422],[5.0006,43.5353],[5.219,43.4981],[5.2846,43.4924],[5.7434,43.3371],[6.3912,43.2086],[7.061,43.1606],[7.104,43.1604],[7.7759,43.1909],[7.9727,43.2245],[8.5523,43.1416],[9.225,43.1289],[9.263,43.1305],[9.7033,43.1668],[10.3532,43.2889],[10.963,43.4879],[11.3291,43.6674],[11.4854,43.6967],[12.099,43.8966],[12.2093,43.9505],[12.2366,43.9437],[12.9084,43.8631],[12.9933,43.8632],[13.0529,43.8471],[13.7199,43.754],[13.7342,43.7529],[13.8337,43.7336],[14.5101,43.6868],[15.188,43.7221],[15.8467,43.8383],[15.9007,43.8514],[16.2583,43.9652],[16.3157,43.9645],[16.9904,44.0385],[17.6362,44.192],[18.2334,44.4204],[18.764,44.7168],[19.0757,44.9641],[19.5382,45.2899],[19.9243,45.6791],[19.9386,45.6954],[20.0947,45.9233],[20.115,45.9495],[20.4734,46.2671],[20.793,46.685],[21.0001,47.1341],[21.0364,47.3253],[21.1213,47.5378],[21.1826,48.0063],[21.1217,48.4748],[20.9837,48.8209],[20.9828,48.8251],[20.9622,49.0309],[20.9326,49.1107],[20.9162,49.2066],[20.9081,49.2422],[20.7752,49.5692],[20.4902,49.9999],[20.0965,50.3914],[19.6061,50.7316],[19.2915,50.8848],[19.3013,50.9137],[19.328,51.3835],[19.3285,51.4332],[19.3097,51.5815],[19.1651,52.0427],[19.1183,52.157],[19.0754,52.5038],[18.9689,52.7604],[18.9469,52.841],[18.9356,52.8756],[18.8971,52.784],[18.8565,52.8981],[18.8582,52.9027]]]},"properties":{"name":"DACH + 300 km"}}
]}