{"type":"FeatureCollection","features":[{"type":"Feature","properties":{"name":"World without border zone"},"geometry":{"type":"Polygon","coordinates":[[[-180,-85],[180,-85],[180,85],[-180,85],[-180,-85]],[[18.8582,52.9027],[18.8565,52.8981],[18.8971,52.784],[18.9356,52.8756],[18.9469,52.841],[18.9689,52.7604],[19.0754,52.5038],[19.1183,52.157],[19.1651,52.0427],[19.3097,51.5815],[19.3285,51.4332],[19.328,51.3835],[19.3013,50.9137],[19.2915,50.8848],[19.6061,50.7316],[20.0965,50.3914],[20.4902,49.9999],[20.7752,49.5692],[20.9081,49.2422],[20.9162,49.2066],[20.9326,49.1107],[20.9622,49.0309],[20.9828,48.8251],[20.9837,48.8209],[21.1217,48.4748],[21.1826,48.0063],[21.1213,47.5378],[21.0364,47.3253],[21.0001,47.1341],[20.793,46.685],[20.4734,46.2671],[20.115,45.9495],[20.0947,45.9233],[19.9386,45.6954],[19.9243,45.6791],[19.5382,45.2899],[19.0757,44.9641],[18.764,44.7168],[18.2334,44.4204],[17.6362,44.192],[16.9904,44.0385],[16.3157,43.9645],[16.2583,43.9652],[15.9007,43.8514],[15.8467,43.8383],[15.188,43.7221],[14.5101,43.6868],[13.8337,43.7336],[13.7342,43.7529],[13.7199,43.754],[13.0529,43.8471],[12.9933,43.8632],[12.9084,43.8631],[12.2366,43.9437],[12.2093,43.9505],[12.099,43.8966],[11.4854,43.6967],[11.3291,43.6674],[10.963,43.4879],[10.3532,43.2889],[9.7033,43.1668],[9.263,43.1305],[9.225,43.1289],[8.5523,43.1416],[7.9727,43.2245],[7.7759,43.1909],[7.104,43.1604],[7.061,43.1606],[6.3912,43.2086],[5.7434,43.3371],[5.2846,43.4924],[5.219,43.4981],[5.0006,43.5353],[4.9708,43.5422],[4.8117,43.5662],[4.1854,43.7445],[3.6131,43.9956],[3.1122,44.312],[2.698,44.6841],[2.383,45.1005],[2.1768,45.5486],[2.0857,46.0147],[2.0879,46.054],[2.0797,46.1002],[2.1145,46.57],[2.2231,46.8981],[2.2292,46.9441],[2.2747,47.0599],[2.3181,47.2427],[2.5435,47.6867],[2.846,48.0584],[2.5437,48.4366],[2.3266,48.885],[2.3155,48.9398],[2.2526,49.0264],[2.2455,49.0429],[2.1688,49.1502],[1.9831,49.6049],[1.9348,49.9817],[1.8898,50.0418],[1.8475,50.1398],[1.7939,50.223],[1.6372,50.6825],[1.6072,50.9151],[1.6041,50.935],[1.6408,51.4045],[1.6472,51.422],[1.6347,51.4559],[1.5971,51.9253],[1.6916,52.3916],[1.9154,52.8407],[2.2616,53.2589],[2.3889,53.3667],[2.3498,53.7243],[2.4363,54.1913],[2.658,54.6423],[3.0083,55.0636],[3.4764,55.4423],[3.8087,55.6311],[3.8948,55.82],[3.9369,55.8849],[4.0083,56.0115],[4.3693,56.433],[4.8523,56.8121],[5.4425,57.1372],[6.1221,57.3986],[6.8704,57.5882],[7.6647,57.7003],[8.4808,57.7315],[8.8612,57.7181],[8.8969,57.716],[9.7001,57.6276],[10.0013,57.5617],[10.2404,57.5543],[10.7209,57.5001],[10.7643,57.4938],[11.5343,57.3403],[11.8752,57.2311],[12.3366,57.3118],[12.4898,57.3235],[12.6206,57.343],[13.2361,57.3777],[13.2869,57.3786],[14.0964,57.352],[14.8856,57.2443],[15.6306,57.0589],[16.3087,56.8013],[16.4382,56.7307],[16.4707,56.7186],[16.7041,56.6067],[16.7473,56.5837],[17.3046,56.2434],[17.7518,55.8521],[18.0753,55.4216],[18.1107,55.3364],[18.431,54.9806],[18.6766,54.5337],[18.731,54.3047],[18.8234,53.9521],[18.8209,53.881],[18.8427,53.7973],[18.8433,53.7889],[18.8626,53.7397],[18.914,53.2709],[18.8582,52.9027]]]}}]}