{"type":"FeatureCollection", "features": [
{"type":"Feature","geometry":{"type":"MultiPolygon","coordinates":[[[[14.4124,53.3296],[14.3903,53.3537],[14.3953,53.3694],[14.3733,53.409],[14.3713,53.4564],[14.358,53.4573],[14.3507,53.496],[14.3269,53.5038],[14.3026,53.5534],[14.314,53.5652],[14.317,53.6181],[14.2839,53.6344],[14.2837,53.6825],[14.2668,53.6987],[14.2735,53.7444],[14.2836,53.7723],[14.2704,53.79],[14.1785,53.8068],[14.0731,53.8116],[13.9869,53.8122],[13.9203,53.8257],[13.8896,53.8272],[13.8513,53.8451],[13.8225,53.8477],[13.8186,53.8592],[13.8337,53.879],[13.8472,53.878],[13.8648,53.9005],[13.9033,53.911],[13.9141,53.9219],[13.8942,53.9427],[13.8698,53.9524],[13.8338,53.9844],[13.7955,53.9958],[13.7604,54.0154],[13.7614,54.0357],[13.7854,54.0509],[13.7738,54.0598],[13.8088,54.1005],[13.7516,54.1348],[13.6974,54.1489],[13.6958,54.1718],[13.6235,54.1397],[13.576,54.1318],[13.5292,54.1311],[13.477,54.1188],[13.4894,54.0839],[13.4685,54.0871],[13.4392,54.1123],[13.44,54.123],[13.379,54.1771],[13.347,54.1653],[13.3063,54.2043],[13.2838,54.2363],[13.2283,54.2397],[13.1666,54.2789],[13.2398,54.2663],[13.2682,54.2537],[13.2874,54.2592],[13.3152,54.2419],[13.3993,54.2268],[13.4247,54.2386],[13.4016,54.2657],[13.4196,54.3028],[13.4619,54.3164],[13.4669,54.3264],[13.5071,54.3442],[13.5508,54.3397],[13.5753,54.353],[13.6051,54.3426],[13.6748,54.351],[13.6722,54.3303],[13.7034,54.3205],[13.6566,54.304],[13.6551,54.2885],[13.7154,54.2941],[13.7475,54.3452],[13.7212,54.3591],[13.7068,54.3778],[13.6729,54.4012],[13.6134,54.4034],[13.5781,54.4391],[13.5701,54.4599],[13.5976,54.4764],[13.6094,54.4989],[13.6694,54.5211],[13.6816,54.5426],[13.6798,54.5625],[13.6349,54.5855],[13.5883,54.5844],[13.4604,54.5706],[13.4073,54.5874],[13.3837,54.612],[13.3772,54.6356],[13.3911,54.6513],[13.4285,54.6602],[13.4291,54.6849],[13.3783,54.684],[13.3361,54.6754],[13.2876,54.6738],[13.2506,54.6605],[13.2182,54.6358],[13.2257,54.6123],[13.1958,54.5826],[13.1673,54.5737],[13.1759,54.5609],[13.2379,54.5942],[13.2271,54.6252],[13.2639,54.6432],[13.2875,54.6253],[13.2571,54.5901],[13.2432,54.5615],[13.2778,54.5644],[13.3324,54.5819],[13.3276,54.5934],[13.3711,54.6143],[13.3964,54.5726],[13.4248,54.5689],[13.4461,54.5516],[13.5022,54.5483],[13.5127,54.5208],[13.5033,54.4793],[13.5481,54.4749],[13.5574,54.4401],[13.5413,54.4193],[13.4763,54.4246],[13.5065,54.4384],[13.4484,54.4744],[13.4417,54.4873],[13.4126,54.4938],[13.4146,54.5199],[13.388,54.54],[13.3507,54.5473],[13.355,54.581],[13.2972,54.5524],[13.2291,54.5538],[13.1744,54.5457],[13.1583,54.5377],[13.1621,54.5142],[13.2005,54.5038],[13.2314,54.5109],[13.2357,54.4622],[13.1706,54.4537],[13.1494,54.4281],[13.1917,54.4235],[13.2119,54.4299],[13.2381,54.3863],[13.2347,54.3695],[13.1299,54.3721],[13.1152,54.3441],[13.0798,54.353],[13.0938,54.3658],[13.0729,54.3831],[13.0485,54.3801],[13.0257,54.3965],[13.028,54.4369],[12.8977,54.4017],[12.8834,54.3696],[12.8463,54.3511],[12.8091,54.358],[12.785,54.3795],[12.7689,54.3716],[12.7195,54.3731],[12.7075,54.4119],[12.6714,54.391],[12.5988,54.3618],[12.5547,54.3725],[12.5343,54.3652],[12.5357,54.3384],[12.4731,54.3296],[12.4787,54.3039],[12.4294,54.2936],[12.427,54.374],[12.4956,54.3824],[12.5177,54.3727],[12.5759,54.4022],[12.6381,54.4255],[12.6532,54.4105],[12.6932,54.4323],[12.721,54.4324],[12.7405,54.4151],[12.8124,54.4173],[12.8319,54.4231],[12.875,54.4137],[12.927,54.428],[12.921,54.4451],[12.8194,54.4401],[12.6766,54.4422],[12.5609,54.4547],[12.5102,54.4825],[12.4691,54.4235],[12.4363,54.3917],[12.4059,54.3769],[12.3409,54.3006],[12.3065,54.2822],[12.2234,54.2543],[12.1749,54.2291],[12.1513,54.2039],[12.1069,54.1783],[12.0114,54.1783],[11.888,54.151],[11.8498,54.145],[11.7976,54.1468],[11.7614,54.1545],[11.6829,54.1533],[11.6084,54.107],[11.5525,54.0927],[11.5345,54.074],[11.537,54.0573],[11.6147,54.1016],[11.6262,54.0902],[11.6104,54.0681],[11.5826,54.0637],[11.5772,54.0361],[11.5098,54.0119],[11.4798,53.9616],[11.4778,53.9345],[11.4369,53.9111],[11.4036,53.9215],[11.4068,53.9352],[11.365,53.9351],[11.3395,53.956],[11.3148,53.9421],[11.2732,53.9313],[11.2456,53.9428],[11.2459,53.9732],[11.2072,53.9884],[11.18,54.0152],[11.1445,54.0096],[11.0985,54.014],[11.0422,54.0066],[10.9846,53.9886],[10.9335,53.9649],[10.9037,53.9568],[10.8683,53.9918],[10.7873,53.9974],[10.7518,54.0371],[10.7613,54.0597],[10.8147,54.093],[10.8659,54.0848],[10.8911,54.0944],[10.9551,54.1411],[11.0469,54.1765],[11.0938,54.1991],[11.0819,54.2518],[11.0838,54.2793],[11.0719,54.3423],[11.0892,54.3576],[11.1256,54.3736],[11.1279,54.3905],[11.091,54.3919],[11.0734,54.3766],[11.0237,54.3677],[11.0188,54.3764],[10.9495,54.3848],[10.8718,54.3583],[10.8292,54.33],[10.7895,54.3121],[10.7587,54.306],[10.707,54.305],[10.6846,54.3103],[10.6388,54.3478],[10.5996,54.3637],[10.5399,54.3798],[10.4737,54.3925],[10.388,54.4265],[10.3399,54.4348],[10.3021,54.4332],[10.2929,54.422],[10.2261,54.4139],[10.2089,54.4],[10.196,54.366],[10.1541,54.3689],[10.1923,54.3902],[10.1888,54.4111],[10.1718,54.4269],[10.1904,54.4571],[10.134,54.4843],[10.021,54.4754],[9.9975,54.4686],[9.9243,54.4623],[9.9184,54.4541],[9.8661,54.4481],[9.8625,54.4697],[9.9647,54.5025],[9.9983,54.5217],[10.0273,54.5531],[10.0261,54.5977],[10.0336,54.6207],[10.036,54.6884],[9.989,54.7183],[9.9769,54.7568],[9.9572,54.7799],[9.9131,54.7955],[9.8997,54.7728],[9.8746,54.7524],[9.8328,54.7607],[9.7922,54.7976],[9.7399,54.8233],[9.6046,54.8546],[9.628,54.8798],[9.5844,54.8861],[9.4976,54.8411],[9.4287,54.8271],[9.4111,54.8423],[9.3827,54.8392],[9.3725,54.8222],[9.3421,54.8036],[9.2699,54.8122],[9.2501,54.8097],[9.2358,54.8311],[9.2401,54.85],[9.1433,54.873],[9.0482,54.8719],[9.0148,54.8864],[8.9479,54.9026],[8.892,54.9049],[8.8487,54.8973],[8.8113,54.9059],[8.7763,54.8955],[8.728,54.8927],[8.6804,54.9105],[8.638,54.9113],[8.6377,54.8976],[8.6103,54.8884],[8.5115,54.8842],[8.4865,54.8767],[8.4274,54.8774],[8.3806,54.892],[8.3621,54.9102],[8.3617,54.9578],[8.3528,54.9679],[8.3955,55.0041],[8.44,55.0159],[8.4188,55.0352],[8.3831,55.0373],[8.2979,54.9107],[8.2878,54.8767],[8.2794,54.7514],[8.301,54.7638],[8.2921,54.786],[8.3006,54.818],[8.2961,54.8424],[8.3332,54.8728],[8.3643,54.8759],[8.3779,54.8586],[8.4144,54.8472],[8.4546,54.8574],[8.5102,54.8814],[8.6034,54.8857],[8.6126,54.8785],[8.6078,54.8411],[8.6442,54.8191],[8.6592,54.7954],[8.6847,54.7928],[8.7017,54.7737],[8.6974,54.7604],[8.7411,54.7164],[8.7528,54.6813],[8.7804,54.6661],[8.832,54.6526],[8.8465,54.6255],[8.8858,54.6089],[8.893,54.5968],[8.8686,54.5618],[8.8715,54.5283],[8.8064,54.4983],[8.8193,54.4865],[8.807,54.4702],[8.8418,54.4606],[8.8934,54.4606],[8.916,54.4706],[8.9454,54.5124],[8.9836,54.5241],[9.0105,54.4931],[9.0024,54.4637],[8.959,54.4539],[8.9476,54.4389],[8.9114,54.4177],[8.8558,54.4025],[8.8097,54.4095],[8.7416,54.3988],[8.6726,54.3997],[8.6528,54.3895],[8.6578,54.3743],[8.691,54.3731],[8.6915,54.3556],[8.644,54.3379],[8.6032,54.3407],[8.6083,54.3088],[8.6511,54.2868],[8.6891,54.2786],[8.7367,54.2935],[8.7917,54.2819],[8.8214,54.2913],[8.8418,54.2785],[8.8439,54.2566],[8.8312,54.2367],[8.8337,54.2145],[8.8197,54.2066],[8.8074,54.1756],[8.8271,54.1436],[8.8579,54.1192],[8.893,54.1332],[8.9292,54.1293],[8.9477,54.093],[8.9851,54.061],[8.972,54.038],[8.8814,54.0461],[8.8408,54.0357],[8.8326,54.0239],[8.8744,53.9826],[8.9149,53.9249],[8.9703,53.8922],[9.0199,53.8899],[9.0524,53.8812],[9.1426,53.8775],[9.1998,53.8801],[9.25,53.8751],[9.2751,53.8573],[9.1937,53.8658],[9.1018,53.8635],[9.0547,53.853],[9.0185,53.8348],[8.9785,53.84],[8.9062,53.8288],[8.7989,53.8326],[8.7471,53.849],[8.7023,53.8787],[8.6693,53.8917],[8.6149,53.8821],[8.542,53.8071],[8.5285,53.7677],[8.4834,53.6948],[8.484,53.6559],[8.5204,53.6062],[8.4832,53.6005],[8.5036,53.5724],[8.536,53.5513],[8.4621,53.5529],[8.3845,53.5739],[8.349,53.6062],[8.3267,53.6146],[8.2911,53.6129],[8.243,53.5824],[8.2308,53.5208],[8.2656,53.5185],[8.3001,53.5259],[8.3169,53.5146],[8.3146,53.4565],[8.2963,53.4416],[8.2805,53.4134],[8.2456,53.3983],[8.2108,53.4015],[8.1522,53.448],[8.0977,53.4461],[8.0623,53.4825],[8.0623,53.5057],[8.0955,53.5022],[8.1543,53.5136],[8.171,53.5405],[8.1156,53.6146],[8.086,53.6423],[8.0447,53.6414],[8.0319,53.6577],[8.0234,53.6914],[8.0087,53.7121],[7.9133,53.7178],[7.7878,53.7094],[7.7647,53.7018],[7.7038,53.7035],[7.5882,53.6802],[7.5271,53.6715],[7.4795,53.6833],[7.3765,53.6825],[7.358,53.6868],[7.2963,53.6801],[7.2431,53.6685],[7.1562,53.6302],[7.1452,53.611],[7.1124,53.5948],[7.0873,53.5711],[7.1329,53.5345],[7.0933,53.5217],[7.0768,53.5327],[7.029,53.532],[7.0487,53.5081],[7.0256,53.4768],[7.0103,53.4241],[7.0127,53.4064],[7,53.3589],[7.02,53.339],[7.0605,53.3346],[7.1706,53.3355],[7.2595,53.3294],[7.2451,53.3183],[7.1911,53.3176],[7.2174,53.1977],[7.1789,53.1381],[7.2028,53.1133],[7.1993,53.081],[7.2128,53.011],[7.1816,52.9413],[7.1047,52.8642],[7.072,52.8109],[7.0556,52.6434],[7.0419,52.6327],[6.9758,52.6463],[6.9385,52.6379],[6.8731,52.6531],[6.8188,52.6477],[6.7774,52.6516],[6.742,52.6453],[6.7143,52.6268],[6.7271,52.6151],[6.7187,52.5887],[6.7667,52.5635],[6.7262,52.5632],[6.7161,52.5486],[6.6809,52.5533],[6.7054,52.5203],[6.6977,52.4864],[6.7746,52.4596],[6.8543,52.4596],[6.8619,52.4514],[6.9417,52.4355],[6.9918,52.4675],[7.0109,52.4291],[7.0358,52.4025],[7.0588,52.3993],[7.0722,52.3734],[7.0722,52.3523],[7.0267,52.2922],[7.0275,52.2776],[7.061,52.2348],[7.0192,52.225],[6.9851,52.2253],[6.9513,52.181],[6.9121,52.1772],[6.882,52.156],[6.8734,52.1302],[6.8554,52.1204],[6.7606,52.1187],[6.7512,52.0855],[6.7356,52.0747],[6.6947,52.0698],[6.6877,52.0399],[6.7147,52.0399],[6.7526,52.0287],[6.8266,51.9935],[6.8285,51.9641],[6.7986,51.9588],[6.7889,51.9297],[6.7217,51.8962],[6.6745,51.9159],[6.5856,51.8939],[6.5561,51.8818],[6.4624,51.856],[6.4511,51.8653],[6.3908,51.8739],[6.4092,51.8523],[6.3895,51.8333],[6.37,51.8336],[6.3468,51.8507],[6.3066,51.8492],[6.2989,51.8679],[6.2154,51.8678],[6.1858,51.8927],[6.1572,51.9052],[6.1255,51.8983],[6.1445,51.8699],[6.1668,51.861],[6.1664,51.8408],[6.0934,51.8509],[6.0553,51.8523],[5.9937,51.8308],[5.9629,51.8368],[5.945,51.8237],[5.9782,51.7972],[5.9905,51.7662],[5.952,51.7491],[5.9551,51.7381],[5.9925,51.7386],[6.0291,51.7257],[6.0264,51.7093],[6.0369,51.6728],[6.088,51.6598],[6.1095,51.6468],[6.0912,51.6059],[6.1213,51.5928],[6.157,51.5667],[6.177,51.5387],[6.2121,51.5134],[6.2234,51.4749],[6.2052,51.3995],[6.2261,51.3605],[6.1686,51.3329],[6.1541,51.3074],[6.1245,51.2746],[6.0727,51.2426],[6.068,51.2205],[6.0733,51.183],[6.1001,51.17],[6.1388,51.1733],[6.1754,51.1585],[6.0919,51.135],[6.0375,51.097],[6.0099,51.091],[5.9699,51.0606],[5.969,51.0467],[5.9381,51.0351],[5.9132,51.0667],[5.878,51.0375],[5.8792,51.0176],[5.9055,51.0022],[5.8972,50.9749],[5.9552,50.9884],[5.9682,50.9795],[6.0264,50.9833],[6.0156,50.9627],[6.0182,50.9344],[6.0925,50.9178],[6.0753,50.8934],[6.0882,50.8724],[6.074,50.8468],[6.0421,50.8513],[6.016,50.8388],[6.0251,50.8142],[6.0035,50.8013],[5.9749,50.798],[6.0278,50.7737],[6.0214,50.7531],[6.0332,50.731],[6.0732,50.721],[6.1193,50.7197],[6.1232,50.7071],[6.1624,50.6714],[6.1971,50.6567],[6.1877,50.6411],[6.2669,50.6415],[6.274,50.6282],[6.2412,50.5871],[6.2368,50.5662],[6.2258,50.5545],[6.212,50.5538],[6.197,50.531],[6.2307,50.4975],[6.2699,50.5045],[6.3091,50.5014],[6.3416,50.4835],[6.3402,50.4626],[6.3776,50.4394],[6.3699,50.4089],[6.3422,50.38],[6.3983,50.3457],[6.405,50.3233],[6.3705,50.3128],[6.3273,50.3245],[6.2859,50.2941],[6.2921,50.2788],[6.2158,50.257],[6.1975,50.2381],[6.1757,50.2354],[6.1903,50.1876],[6.1834,50.1782],[6.1398,50.1693],[6.1547,50.1419],[6.1388,50.135],[6.135,50.1133],[6.1124,50.0605],[6.1459,50.0227],[6.1453,49.9984],[6.1691,49.9836],[6.1778,49.954],[6.2116,49.9502],[6.2273,49.9366],[6.2336,49.9004],[6.2621,49.8809],[6.311,49.8699],[6.3422,49.8491],[6.3642,49.8508],[6.3974,49.8223],[6.432,49.8106],[6.4709,49.8226],[6.5164,49.8053],[6.5005,49.7521],[6.5065,49.7164],[6.4804,49.6968],[6.4591,49.6908],[6.4282,49.6669],[6.4408,49.6559],[6.4214,49.6201],[6.3749,49.5919],[6.359,49.5703],[6.3814,49.5584],[6.357,49.5313],[6.3675,49.5027],[6.3671,49.4695],[6.3934,49.4641],[6.4291,49.4762],[6.4646,49.4664],[6.5508,49.4254],[6.5408,49.4013],[6.5867,49.3852],[6.5657,49.3477],[6.5891,49.3221],[6.6601,49.2837],[6.6856,49.2434],[6.6958,49.2153],[6.7197,49.2211],[6.7314,49.206],[6.7112,49.1883],[6.7386,49.1637],[6.7827,49.1682],[6.8341,49.1511],[6.859,49.1746],[6.8522,49.2],[6.8589,49.2228],[6.8934,49.2092],[6.9187,49.2227],[6.9596,49.2031],[6.9752,49.2094],[6.9995,49.1945],[7.035,49.1914],[7.0277,49.1701],[7.055,49.1121],[7.1041,49.1384],[7.1594,49.1205],[7.1963,49.1217],[7.2451,49.1301],[7.2984,49.1173],[7.3299,49.1448],[7.3627,49.1432],[7.3666,49.1723],[7.4359,49.1797],[7.4598,49.1628],[7.494,49.1694],[7.4976,49.1346],[7.5287,49.0971],[7.5636,49.0802],[7.601,49.0832],[7.6293,49.0736],[7.6312,49.0549],[7.6734,49.0451],[7.7314,49.0555],[7.7693,49.0476],[7.7944,49.0657],[7.8668,49.0329],[7.8891,49.049],[7.9131,49.0401],[7.9328,49.0581],[7.9644,49.0429],[7.9748,49.0268],[7.9963,49.0291],[8.0639,49.0055],[8.0877,48.9898],[8.1399,48.9785],[8.2151,48.9752],[8.1466,48.9023],[8.1304,48.8805],[8.1038,48.8201],[8.087,48.802],[8.0258,48.7822],[8.0143,48.761],[7.972,48.7581],[7.9633,48.7215],[7.89,48.6626],[7.8397,48.6413],[7.8303,48.6199],[7.8003,48.584],[7.8068,48.5202],[7.7951,48.5018],[7.7682,48.4897],[7.765,48.4566],[7.7332,48.3972],[7.7319,48.3764],[7.7452,48.3351],[7.7371,48.3196],[7.6936,48.3017],[7.6657,48.2205],[7.6441,48.2073],[7.6295,48.1837],[7.6006,48.1577],[7.5988,48.1356],[7.577,48.1191],[7.5692,48.0801],[7.5717,48.0304],[7.6102,47.9987],[7.6209,47.969],[7.5806,47.9242],[7.5828,47.9014],[7.5556,47.8688],[7.5629,47.8427],[7.5299,47.7813],[7.5481,47.7395],[7.5399,47.7184],[7.5145,47.7027],[7.5211,47.6638],[7.5674,47.6317],[7.5915,47.6042],[7.5847,47.5755],[7.5055,47.5444],[7.531,47.5291],[7.5079,47.5108],[7.5111,47.497],[7.472,47.4804],[7.435,47.4981],[7.4294,47.483],[7.4563,47.4728],[7.4206,47.4456],[7.3856,47.4319],[7.3387,47.4412],[7.2869,47.4352],[7.255,47.4244],[7.229,47.4399],[7.2056,47.4356],[7.1699,47.4438],[7.1909,47.4885],[7.1674,47.4894],[7.1392,47.5018],[7.0721,47.4924],[7.0249,47.5043],[6.986,47.4933],[6.9864,47.4763],[7.0022,47.4542],[6.9403,47.4333],[6.9384,47.4061],[6.9172,47.4053],[6.9121,47.3862],[6.8836,47.3729],[6.8794,47.3578],[6.9241,47.3552],[6.9944,47.3632],[7.0122,47.3725],[7.0499,47.3614],[7.057,47.3344],[7.01,47.3245],[7.0098,47.3028],[6.941,47.2867],[6.9557,47.244],[6.9408,47.2315],[6.8807,47.2006],[6.8744,47.1859],[6.8407,47.1708],[6.8499,47.1564],[6.8061,47.1307],[6.7468,47.11],[6.7446,47.0927],[6.7151,47.0884],[6.7001,47.0697],[6.7115,47.048],[6.6965,47.0373],[6.6592,47.0273],[6.6336,46.9982],[6.5962,46.9924],[6.5719,46.982],[6.5048,46.9657],[6.4965,46.9741],[6.4603,46.9438],[6.4327,46.9287],[6.4646,46.8904],[6.46,46.8513],[6.4432,46.8327],[6.4348,46.8015],[6.4584,46.7888],[6.4382,46.7618],[6.3952,46.7485],[6.3412,46.7101],[6.282,46.6907],[6.2673,46.6762],[6.1965,46.6287],[6.1265,46.5899],[6.1105,46.5764],[6.1567,46.5453],[6.1126,46.5096],[6.0969,46.4813],[6.0728,46.4654],[6.0856,46.4408],[6.0639,46.4164],[6.0976,46.409],[6.1699,46.3661],[6.1379,46.3387],[6.1203,46.312],[6.1209,46.297],[6.1024,46.2849],[6.1245,46.2513],[6.1015,46.2377],[6.0844,46.247],[6.0337,46.2385],[5.9637,46.197],[5.9922,46.1865],[5.964,46.1436],[5.9941,46.1446],[6.0337,46.137],[6.0523,46.1513],[6.0918,46.152],[6.0985,46.1438],[6.1364,46.1416],[6.1888,46.1664],[6.1862,46.1783],[6.2327,46.206],[6.277,46.2155],[6.3103,46.244],[6.2898,46.26],[6.2668,46.2477],[6.2383,46.2817],[6.253,46.2905],[6.2196,46.3119],[6.253,46.3604],[6.3352,46.4037],[6.4256,46.4158],[6.5191,46.4564],[6.6819,46.4543],[6.8211,46.4272],[6.8019,46.3858],[6.8037,46.3765],[6.7714,46.3611],[6.7865,46.3321],[6.8254,46.312],[6.8281,46.3025],[6.8644,46.2831],[6.852,46.2521],[6.8398,46.2482],[6.8033,46.2033],[6.8126,46.1814],[6.7946,46.1658],[6.7965,46.1387],[6.8139,46.1315],[6.897,46.119],[6.8848,46.093],[6.8917,46.0851],[6.8728,46.0519],[6.8913,46.0427],[6.9246,46.0652],[6.9501,46.0516],[6.9855,46.0042],[7.0107,45.9972],[7.0349,45.9561],[7.0445,45.9225],[7.0642,45.9001],[7.1185,45.8594],[7.1535,45.8793],[7.1903,45.8588],[7.2164,45.8888],[7.2769,45.9007],[7.2858,45.9162],[7.3443,45.9152],[7.3824,45.8965],[7.4018,45.9115],[7.4318,45.9183],[7.4446,45.9317],[7.4747,45.9358],[7.4773,45.9521],[7.5161,45.9624],[7.5384,45.9549],[7.5501,45.9866],[7.5786,45.986],[7.5835,45.9723],[7.6104,45.9693],[7.6683,45.9738],[7.6783,45.9588],[7.7099,45.9481],[7.7073,45.9349],[7.7347,45.9241],[7.7478,45.941],[7.7693,45.9371],[7.7991,45.9175],[7.8218,45.927],[7.8663,45.9196],[7.8818,45.964],[7.9087,45.9969],[7.9891,45.9959],[8.0352,46.0438],[8.0239,46.063],[8.0348,46.1008],[8.1099,46.1132],[8.1154,46.1304],[8.1463,46.1378],[8.1533,46.1911],[8.1389,46.2261],[8.1153,46.236],[8.1102,46.2495],[8.0804,46.2606],[8.1374,46.3017],[8.1789,46.2974],[8.2116,46.3093],[8.2229,46.3306],[8.25,46.3408],[8.3129,46.3771],[8.3173,46.394],[8.289,46.4083],[8.3067,46.4244],[8.3245,46.4254],[8.3669,46.4519],[8.4461,46.4637],[8.4659,46.4444],[8.4569,46.4232],[8.4683,46.4117],[8.4623,46.3889],[8.4694,46.3609],[8.4654,46.3339],[8.4277,46.2983],[8.4559,46.2638],[8.4687,46.2329],[8.5324,46.2183],[8.5405,46.1978],[8.6123,46.1225],[8.646,46.1238],[8.6577,46.1127],[8.714,46.0972],[8.7423,46.1223],[8.7561,46.1047],[8.783,46.0942],[8.8153,46.0973],[8.8521,46.0756],[8.8546,46.0616],[8.8304,46.0474],[8.8272,46.0323],[8.8059,46.0219],[8.7872,45.9913],[8.8139,45.9904],[8.8986,45.9463],[8.8933,45.9312],[8.9241,45.9056],[8.937,45.8673],[8.9142,45.8422],[8.9488,45.8434],[8.9929,45.8231],[9.0309,45.8247],[9.0554,45.8718],[9.0778,45.8851],[9.0766,45.9114],[9.0425,45.9274],[9.0199,45.9291],[9.014,45.9606],[8.994,45.9666],[9.0285,45.9936],[9.0225,46.0169],[9.0091,46.0268],[9.0172,46.0497],[9.0502,46.0624],[9.0771,46.0641],[9.0892,46.0901],[9.0724,46.118],[9.121,46.1345],[9.1345,46.1533],[9.1612,46.1707],[9.194,46.1784],[9.2022,46.2084],[9.2348,46.2333],[9.2484,46.2338],[9.2516,46.2663],[9.2849,46.2971],[9.2999,46.3436],[9.277,46.3721],[9.2843,46.3862],[9.2754,46.4195],[9.2482,46.4332],[9.247,46.4468],[9.2782,46.4617],[9.2818,46.496],[9.3111,46.5041],[9.3734,46.5039],[9.3685,46.4941],[9.3905,46.4733],[9.4241,46.4761],[9.4342,46.4979],[9.4627,46.4971],[9.4656,46.4695],[9.4546,46.4189],[9.4665,46.397],[9.4633,46.3743],[9.4964,46.3643],[9.5115,46.3366],[9.5367,46.31],[9.5795,46.2951],[9.635,46.2861],[9.6689,46.296],[9.7145,46.2929],[9.7244,46.3099],[9.723,46.3408],[9.7434,46.3515],[9.7699,46.3357],[9.8287,46.356],[9.8655,46.3647],[9.9068,46.3809],[9.93,46.3716],[9.9528,46.3793],[9.9645,46.3638],[9.996,46.3422],[9.98,46.3231],[10.0008,46.3016],[9.9959,46.2849],[10.0555,46.2658],[10.0607,46.2483],[10.0464,46.2293],[10.0709,46.2171],[10.1035,46.2286],[10.1459,46.2305],[10.1749,46.2546],[10.1566,46.2893],[10.1166,46.3141],[10.1056,46.3316],[10.1079,46.3506],[10.1291,46.3609],[10.1274,46.3774],[10.164,46.3907],[10.1611,46.4154],[10.1309,46.4316],[10.1007,46.4213],[10.0588,46.4301],[10.0392,46.447],[10.0525,46.4604],[10.0433,46.478],[10.0614,46.5457],[10.0957,46.5774],[10.1024,46.6107],[10.1276,46.6051],[10.188,46.6256],[10.2153,46.6169],[10.2241,46.6291],[10.2591,46.6102],[10.2424,46.5928],[10.2465,46.5746],[10.2868,46.5704],[10.2961,46.55],[10.3519,46.5559],[10.3979,46.544],[10.4146,46.5511],[10.4528,46.5307],[10.4723,46.5435],[10.4747,46.5667],[10.4875,46.5895],[10.4887,46.6151],[10.4435,46.6394],[10.4023,46.6368],[10.392,46.6552],[10.3935,46.6893],[10.4188,46.7191],[10.4001,46.7329],[10.4355,46.7527],[10.4395,46.7751],[10.4227,46.7882],[10.4476,46.8008],[10.4566,46.8302],[10.479,46.8596],[10.4991,46.848],[10.5528,46.8506],[10.6542,46.8673],[10.6908,46.8682],[10.6945,46.8527],[10.7224,46.8384],[10.7556,46.8335],[10.7639,46.824],[10.7307,46.7888],[10.755,46.7856],[10.7963,46.7918],[10.8144,46.7756],[10.841,46.7823],[10.8689,46.7663],[10.8907,46.7648],[10.9441,46.7759],[10.9935,46.7675],[11.0338,46.7851],[11.0396,46.8055],[11.0837,46.8228],[11.0718,46.8538],[11.0969,46.8841],[11.098,46.9145],[11.1153,46.9319],[11.1555,46.9346],[11.1648,46.9663],[11.2421,46.9702],[11.3208,46.9929],[11.3591,46.9911],[11.3827,46.9711],[11.402,46.9655],[11.4408,46.9757],[11.4792,47.0115],[11.5025,47.0102],[11.539,46.9846],[11.6103,47.0115],[11.6652,46.9923],[11.7119,46.9937],[11.7282,46.9729],[11.7661,46.974],[11.7814,46.9895],[11.8367,46.9935],[11.8455,47.0022],[11.9336,47.0381],[11.9477,47.034],[11.9799,47.0506],[12.0218,47.0478],[12.0446,47.0619],[12.0772,47.0594],[12.1036,47.0788],[12.1195,47.0737],[12.1865,47.0927],[12.2275,47.0826],[12.2413,47.0697],[12.2171,47.0592],[12.2053,47.0274],[12.1649,47.0194],[12.148,47.0254],[12.1217,47.0066],[12.1387,46.9825],[12.1385,46.957],[12.1692,46.9378],[12.1533,46.9176],[12.1909,46.9066],[12.216,46.8745],[12.2365,46.8892],[12.2667,46.8879],[12.3065,46.8337],[12.2835,46.8154],[12.3098,46.7854],[12.3597,46.7738],[12.3697,46.7409],[12.3846,46.7168],[12.4432,46.6889],[12.4743,46.6872],[12.4818,46.6775],[12.5166,46.679],[12.5707,46.6519],[12.6316,46.6618],[12.6912,46.6574],[12.7165,46.6496],[12.732,46.6347],[12.7632,46.6484],[12.7945,46.6434],[12.8196,46.6286],[12.8343,46.6103],[12.8887,46.6071],[12.9337,46.6104],[12.9878,46.5999],[13.0221,46.6026],[13.0473,46.5957],[13.093,46.6008],[13.1798,46.5782],[13.218,46.5709],[13.2405,46.5521],[13.2532,46.5609],[13.2982,46.5607],[13.3206,46.5533],[13.3454,46.5704],[13.3729,46.5797],[13.4105,46.5725],[13.4082,46.5619],[13.4467,46.5569],[13.505,46.5667],[13.5156,46.549],[13.562,46.5522],[13.6287,46.5417],[13.6738,46.5235],[13.7266,46.5235],[13.7952,46.5057],[13.832,46.5191],[13.856,46.5142],[13.8827,46.5232],[13.9128,46.5215],[13.9437,46.5119],[14.0073,46.4817],[14.0515,46.4936],[14.1223,46.477],[14.1358,46.4514],[14.1554,46.436],[14.1773,46.4343],[14.2201,46.4436],[14.238,46.4326],[14.284,46.4439],[14.309,46.431],[14.3829,46.4395],[14.4105,46.4467],[14.4435,46.4234],[14.493,46.4133],[14.5226,46.4276],[14.5577,46.3855],[14.587,46.3926],[14.5873,46.4301],[14.6756,46.451],[14.6841,46.4683],[14.7101,46.4812],[14.7115,46.493],[14.7386,46.5035],[14.7864,46.4998],[14.8195,46.5097],[14.8354,46.5636],[14.8674,46.6037],[14.8875,46.6131],[14.9235,46.6114],[14.9566,46.6331],[14.9717,46.6247],[14.9803,46.6018],[15.0171,46.6412],[15.042,46.6521],[15.0833,46.6455],[15.1084,46.6601],[15.1321,46.651],[15.1463,46.6602],[15.1832,46.6565],[15.1983,46.6461],[15.2369,46.6397],[15.2783,46.644],[15.295,46.6529],[15.3953,46.6523],[15.4151,46.6559],[15.4578,46.6393],[15.4631,46.6156],[15.5212,46.6219],[15.5545,46.6518],[15.5482,46.6696],[15.5961,46.6904],[15.6209,46.6802],[15.651,46.7061],[15.6773,46.7071],[15.7226,46.6962],[15.7695,46.6994],[15.8017,46.7155],[15.8407,46.7227],[15.8715,46.7214],[15.9127,46.7104],[15.948,46.6895],[15.9994,46.6809],[16.0119,46.6652],[16.0391,46.6565],[16.0436,46.6862],[16.0224,46.7112],[15.9944,46.7315],[15.9858,46.7524],[15.9992,46.8098],[15.9864,46.8277],[16.0284,46.8415],[16.0594,46.839],[16.093,46.8649],[16.134,46.876],[16.1641,46.9052],[16.1803,46.907],[16.201,46.9422],[16.2252,46.9406],[16.2775,46.963],[16.2769,46.9845],[16.3045,46.9986],[16.351,47.0108],[16.374,46.9988],[16.4137,47.0051],[16.428,46.9936],[16.4526,47.0047],[16.4804,46.9942],[16.4937,47.0105],[16.4458,47.039],[16.5217,47.0566],[16.472,47.0786],[16.4658,47.0993],[16.5019,47.1106],[16.501,47.1238],[16.5305,47.1276],[16.5179,47.1497],[16.4554,47.1427],[16.4655,47.1686],[16.4519,47.1887],[16.4304,47.1851],[16.418,47.2057],[16.4362,47.216],[16.4429,47.249],[16.4794,47.2635],[16.4906,47.2807],[16.4657,47.3343],[16.4349,47.3532],[16.4578,47.3668],[16.4466,47.4076],[16.5181,47.411],[16.5769,47.4068],[16.5891,47.4232],[16.6216,47.4312],[16.6287,47.4425],[16.6632,47.4561],[16.6717,47.4747],[16.6535,47.5007],[16.691,47.5108],[16.7067,47.5233],[16.6533,47.6233],[16.631,47.6285],[16.5945,47.6183],[16.5737,47.6203],[16.5156,47.6466],[16.441,47.6571],[16.4488,47.6921],[16.4759,47.6817],[16.501,47.7052],[16.5423,47.7126],[16.5377,47.7371],[16.5492,47.752],[16.6355,47.7595],[16.6572,47.7421],[16.7222,47.7358],[16.7227,47.723],[16.7502,47.6819],[16.8296,47.6832],[16.8403,47.705],[16.8701,47.7218],[16.8729,47.6905],[16.9138,47.6881],[17.0417,47.7048],[17.0943,47.7087],[17.0715,47.7286],[17.0651,47.7783],[17.0522,47.7944],[17.0731,47.8086],[17.0482,47.8288],[17.0528,47.8383],[17.0112,47.8588],[17.0791,47.878],[17.1055,47.8997],[17.114,47.9278],[17.0922,47.9348],[17.1183,47.9614],[17.0959,47.9713],[17.1621,48.0071],[17.1451,48.0207],[17.1113,48.0317],[17.0911,48.0203],[17.0687,48.0319],[17.0891,48.0461],[17.0695,48.0559],[17.0759,48.0864],[17.094,48.1001],[17.0635,48.1235],[17.0585,48.1442],[17.029,48.1415],[16.9775,48.1723],[16.9777,48.1899],[16.9631,48.2213],[16.9474,48.2364],[16.9584,48.2643],[16.9273,48.2718],[16.8959,48.3107],[16.9101,48.3265],[16.8453,48.351],[16.8424,48.3722],[16.8649,48.4199],[16.8515,48.45],[16.8913,48.4769],[16.8974,48.4971],[16.9152,48.5014],[16.9226,48.5206],[16.9552,48.5435],[16.937,48.5719],[16.9414,48.6177],[16.92,48.6232],[16.9243,48.6708],[16.9134,48.7064],[16.8876,48.7168],[16.8236,48.7109],[16.7771,48.7125],[16.7486,48.7327],[16.726,48.7386],[16.6899,48.7298],[16.6759,48.7721],[16.665,48.7816],[16.5949,48.7832],[16.5665,48.7941],[16.542,48.8149],[16.5262,48.8013],[16.4632,48.8052],[16.45,48.8],[16.4363,48.7662],[16.4115,48.7439],[16.3677,48.7286],[16.2791,48.7421],[16.2643,48.7376],[16.1552,48.7494],[16.1039,48.746],[15.9956,48.7799],[15.9508,48.8058],[15.9479,48.8231],[15.9254,48.8252],[15.8988,48.849],[15.8655,48.853],[15.8288,48.8716],[15.7807,48.8755],[15.7548,48.8528],[15.6909,48.8563],[15.6569,48.882],[15.6208,48.8962],[15.5791,48.8965],[15.5145,48.9147],[15.5032,48.9366],[15.4696,48.9524],[15.4259,48.9522],[15.3681,48.9825],[15.3334,48.9855],[15.3229,48.9768],[15.2922,48.9849],[15.2702,48.9589],[15.2256,48.9608],[15.1914,48.9439],[15.1565,48.9468],[15.1709,48.9629],[15.1574,48.9939],[15.1379,48.9983],[15.0659,49.0002],[15.0216,49.0212],[15.0041,49.0121],[14.9795,48.9811],[14.9776,48.9565],[14.9876,48.9365],[14.9926,48.8979],[14.974,48.8753],[14.9708,48.8245],[14.9543,48.7904],[14.9812,48.7798],[14.9569,48.7587],[14.933,48.7672],[14.8891,48.7707],[14.8823,48.7807],[14.8097,48.7794],[14.8125,48.7621],[14.7954,48.7304],[14.7751,48.7123],[14.7418,48.7019],[14.7134,48.6507],[14.7232,48.639],[14.7151,48.618],[14.7222,48.603],[14.6839,48.5833],[14.6645,48.5826],[14.6548,48.6049],[14.6317,48.6038],[14.6188,48.6225],[14.5545,48.6064],[14.5466,48.6143],[14.5043,48.618],[14.4696,48.6468],[14.4535,48.6325],[14.4324,48.5897],[14.3872,48.5933],[14.3946,48.5793],[14.3437,48.5554],[14.2798,48.5749],[14.1827,48.5945],[14.0732,48.6005],[14.0431,48.6135],[14.0115,48.6403],[14.0251,48.6533],[14.0545,48.6536],[14.0604,48.6745],[14.0398,48.6768],[14.0042,48.7092],[13.9567,48.7151],[13.8964,48.7577],[13.877,48.7673],[13.8132,48.774],[13.8153,48.7969],[13.7931,48.8302],[13.7656,48.8374],[13.7506,48.8668],[13.7168,48.8782],[13.6716,48.8801],[13.6552,48.8935],[13.638,48.9257],[13.5907,48.9528],[13.5855,48.9685],[13.5071,48.9691],[13.4956,48.9413],[13.4595,48.9626],[13.4029,48.9873],[13.4093,49.0031],[13.3972,49.051],[13.3759,49.0584],[13.3447,49.0885],[13.2892,49.1186],[13.2364,49.1136],[13.2057,49.1221],[13.1703,49.144],[13.1769,49.1642],[13.1293,49.1969],[13.1141,49.2184],[13.0861,49.2294],[13.0808,49.2474],[13.0339,49.2639],[13.0257,49.2789],[13.0291,49.3044],[13.0039,49.3123],[12.95,49.3429],[12.8802,49.3505],[12.8025,49.3416],[12.7581,49.3752],[12.7576,49.3948],[12.7087,49.4247],[12.6559,49.4346],[12.658,49.4505],[12.6397,49.5006],[12.6443,49.523],[12.5885,49.5385],[12.5711,49.5698],[12.5771,49.5863],[12.546,49.6213],[12.5282,49.6182],[12.5175,49.6445],[12.5299,49.6663],[12.5216,49.6868],[12.4429,49.7037],[12.4257,49.7305],[12.4128,49.7325],[12.4047,49.7628],[12.4683,49.7867],[12.4642,49.8102],[12.473,49.8336],[12.498,49.8376],[12.5219,49.8817],[12.5497,49.9011],[12.5385,49.9248],[12.4784,49.9357],[12.4705,49.949],[12.4939,49.9698],[12.4607,49.9949],[12.4019,50.0052],[12.3675,50.0174],[12.3109,50.0555],[12.2793,50.0552],[12.2666,50.0784],[12.2288,50.1023],[12.1996,50.1117],[12.1952,50.143],[12.216,50.1682],[12.2013,50.1888],[12.1576,50.2272],[12.1089,50.2379],[12.0975,50.2624],[12.1399,50.2777],[12.1224,50.2916],[12.1247,50.3154],[12.1845,50.3223],[12.1983,50.3074],[12.2015,50.2728],[12.247,50.2683],[12.2396,50.2462],[12.2939,50.2213],[12.2774,50.1917],[12.3193,50.1719],[12.3382,50.1925],[12.3231,50.2075],[12.3327,50.2343],[12.3709,50.2853],[12.3943,50.2896],[12.4034,50.324],[12.4372,50.3276],[12.4418,50.3412],[12.4694,50.355],[12.5121,50.3973],[12.6002,50.4058],[12.6169,50.4156],[12.7076,50.4078],[12.7346,50.4322],[12.8194,50.4598],[12.9364,50.4116],[12.9835,50.4197],[13.0199,50.4467],[13.0225,50.4869],[13.056,50.5013],[13.1015,50.5029],[13.1327,50.5183],[13.1541,50.5085],[13.1947,50.5153],[13.2291,50.5497],[13.2236,50.5583],[13.2484,50.5921],[13.2788,50.593],[13.2909,50.575],[13.3237,50.5817],[13.3194,50.6022],[13.3667,50.6184],[13.3755,50.6502],[13.4054,50.6346],[13.4124,50.6184],[13.4648,50.6019],[13.497,50.6314],[13.5242,50.6393],[13.5128,50.6537],[13.5444,50.6775],[13.5276,50.699],[13.5563,50.7146],[13.6023,50.7101],[13.625,50.7229],[13.6643,50.7319],[13.7065,50.7169],[13.7282,50.7337],[13.8073,50.7333],[13.8271,50.7242],[13.8552,50.7271],[13.9028,50.7529],[13.8875,50.7705],[13.904,50.794],[13.9392,50.79],[13.9538,50.8073],[13.9903,50.82],[14.0229,50.8092],[14.0784,50.8124],[14.0895,50.8259],[14.1329,50.834],[14.1615,50.8475],[14.2233,50.8592],[14.2363,50.8826],[14.2675,50.8953],[14.3049,50.884],[14.3876,50.8991],[14.4021,50.9241],[14.3873,50.9418],[14.3117,50.9538],[14.3297,50.9822],[14.2858,50.977],[14.2629,50.9854],[14.2652,51.0082],[14.2922,51.0465],[14.3169,51.0554],[14.3366,51.039],[14.362,51.0454],[14.3848,51.027],[14.4218,51.0196],[14.4538,51.0359],[14.5787,51.0003],[14.5992,50.9871],[14.5961,50.9628],[14.5607,50.9254],[14.5832,50.9143],[14.6502,50.9315],[14.6529,50.9055],[14.6362,50.8975],[14.6189,50.8577],[14.7087,50.8409],[14.7223,50.8221],[14.745,50.8295],[14.7664,50.8194],[14.8018,50.8249],[14.825,50.8696],[14.8196,50.8851],[14.8681,50.9179],[14.9031,50.9717],[14.938,51.0115],[14.9538,51.0467],[14.9793,51.0771],[14.9808,51.1088],[14.9949,51.1239],[14.9933,51.1628],[15.0088,51.1823],[15.0076,51.2045],[15.0376,51.2442],[15.0335,51.2939],[14.9778,51.3417],[14.9837,51.3736],[14.9647,51.3868],[14.9587,51.4098],[14.9742,51.4417],[14.947,51.4721],[14.8516,51.4896],[14.796,51.5179],[14.7358,51.526],[14.7294,51.5497],[14.7112,51.5627],[14.7304,51.5842],[14.7649,51.607],[14.7533,51.628],[14.7576,51.6615],[14.7468,51.6762],[14.6681,51.7258],[14.6562,51.7413],[14.664,51.7573],[14.6451,51.7958],[14.605,51.805],[14.5902,51.8382],[14.6943,51.902],[14.7072,51.9359],[14.7212,51.9512],[14.7047,51.9766],[14.7141,52.0037],[14.7413,52.0234],[14.7452,52.0538],[14.7591,52.0657],[14.7413,52.0852],[14.7004,52.0981],[14.6816,52.1167],[14.6796,52.1449],[14.7031,52.1643],[14.6885,52.1989],[14.7084,52.2118],[14.7158,52.2359],[14.6922,52.256],[14.5965,52.2729],[14.5748,52.2956],[14.5762,52.3215],[14.561,52.3286],[14.5521,52.374],[14.5344,52.395],[14.5442,52.426],[14.5792,52.4418],[14.6088,52.4639],[14.6345,52.4923],[14.6127,52.5104],[14.6039,52.5313],[14.6157,52.5542],[14.6391,52.573],[14.6137,52.5866],[14.5962,52.6107],[14.5097,52.6416],[14.4355,52.68],[14.424,52.6962],[14.351,52.7515],[14.2788,52.7745],[14.2064,52.8193],[14.1433,52.8239],[14.1229,52.8377],[14.1577,52.8748],[14.1389,52.9518],[14.1437,52.9614],[14.2069,52.9875],[14.2356,52.9932],[14.338,53.0466],[14.3662,53.0794],[14.3877,53.143],[14.3663,53.172],[14.3773,53.2018],[14.4052,53.2102],[14.4085,53.2232],[14.4503,53.2606],[14.4212,53.2761],[14.4068,53.3087],[14.4124,53.3296]]],[[[11.473,54.0245],[11.4423,54.0202],[11.3768,53.9964],[11.3766,53.9787],[11.456,53.9575],[11.489,53.999],[11.4942,54.0217],[11.473,54.0245]]],[[[13.7976,54.174],[13.7493,54.1585],[13.7587,54.1343],[13.813,54.0988],[13.7906,54.0487],[13.7643,54.03],[13.8013,54.0187],[13.8209,54.0375],[13.8589,54.0481],[13.866,54.033],[13.8534,54.0044],[13.8987,54.0121],[13.9241,54.0358],[13.9172,54.0605],[13.9689,54.0594],[13.9977,54.0415],[14.0044,54.0107],[14.0327,54.0171],[14.0489,53.9807],[14.0339,53.9409],[13.9952,53.9628],[13.9635,53.957],[13.965,53.9898],[13.9122,53.9913],[13.8977,53.9626],[13.9227,53.9506],[13.9383,53.9138],[13.9215,53.888],[13.8934,53.8772],[13.8341,53.871],[13.8218,53.857],[13.8633,53.8427],[13.9178,53.8452],[13.9288,53.8621],[13.991,53.8485],[14.0197,53.8693],[14.1981,53.8711],[14.2154,53.8812],[14.2077,53.9159],[14.2263,53.9286],[14.1818,53.9484],[14.1422,53.9769],[14.05,54.0294],[14.0162,54.0539],[13.8992,54.0887],[13.8578,54.1108],[13.8333,54.1319],[13.8125,54.1694],[13.7976,54.174]]],[[[13.1836,54.494],[13.1435,54.478],[13.1204,54.4444],[13.1817,54.4561],[13.1874,54.4656],[13.2269,54.4739],[13.1836,54.494]]],[[[13.1468,54.6034],[13.1188,54.6031],[13.098,54.5906],[13.0984,54.5586],[13.0856,54.538],[13.1168,54.5377],[13.1101,54.5727],[13.1468,54.6034]]],[[[6.7904,53.6109],[6.7601,53.6177],[6.6475,53.6047],[6.657,53.5837],[6.6974,53.5654],[6.741,53.5711],[6.725,53.5845],[6.7904,53.6109]]],[[[7.0758,53.687],[6.9776,53.6814],[6.8869,53.6641],[7.0516,53.6791],[7.0758,53.687]]],[[[7.347,53.7242],[7.3195,53.727],[7.1872,53.7228],[7.1434,53.7112],[7.142,53.7006],[7.1938,53.6991],[7.2702,53.7037],[7.3253,53.7126],[7.347,53.7242]]],[[[7.43,53.7242],[7.3939,53.7361],[7.3901,53.7202],[7.43,53.7242]]],[[[7.5743,53.7592],[7.4909,53.7566],[7.4693,53.7461],[7.4606,53.7248],[7.5054,53.7237],[7.5116,53.7433],[7.5691,53.7481],[7.6256,53.7472],[7.6232,53.7577],[7.5743,53.7592]]],[[[7.7266,53.7818],[7.6834,53.7764],[7.6663,53.7634],[7.7379,53.7606],[7.8135,53.7749],[7.8134,53.7815],[7.7266,53.7818]]],[[[6.2379,50.5779],[6.1744,50.5575],[6.1967,50.5362],[6.2096,50.5551],[6.2247,50.5567],[6.2379,50.5779]]],[[[11.0862,54.5306],[11.0642,54.5351],[11.0312,54.5118],[11.0103,54.4826],[11.0089,54.4417],[11.0632,54.4528],[11.0951,54.4455],[11.0951,54.4095],[11.121,54.4021],[11.173,54.4015],[11.1869,54.4088],[11.255,54.4113],[11.3127,54.4023],[11.2981,54.4308],[11.2526,54.4718],[11.2327,54.5069],[11.1968,54.5091],[11.1655,54.5225],[11.0862,54.5306]]],[[[8.705,54.5576],[8.6417,54.5456],[8.5878,54.5289],[8.5922,54.5087],[8.6207,54.49],[8.6758,54.4973],[8.6968,54.5175],[8.705,54.5576]]],[[[8.3424,54.6936],[8.3141,54.6876],[8.2941,54.6662],[8.3655,54.6093],[8.3972,54.6141],[8.3611,54.6498],[8.3424,54.6936]]],[[[8.5659,54.7519],[8.5342,54.7559],[8.4273,54.7462],[8.395,54.714],[8.4028,54.7002],[8.4522,54.6927],[8.4849,54.6803],[8.5665,54.68],[8.5787,54.6926],[8.5887,54.741],[8.5659,54.7519]]]]},"properties":{"name":"DACH"}}
]}