{"type":"FeatureCollection", "features": [
{"type":"Feature","geometry":{"type":"Polygon","coordinates":[[[15.99729,46.83575],[16.0284,46.84148],[16.05945,46.83901],[16.093,46.86493],[16.13403,46.87596],[16.16408,46.90524],[16.1803,46.907],[16.20099,46.94215],[16.22518,46.94059],[16.24815,46.94944],[16.25642,46.96457],[16.27753,46.963],[16.2769,46.98448],[16.30447,46.99864],[16.35095,47.01076],[16.37397,46.99876],[16.41374,47.0051],[16.42801,46.99358],[16.45263,47.00465],[16.48035,46.99417],[16.4937,47.01049],[16.46476,47.03261],[16.44583,47.03897],[16.52171,47.05655],[16.52161,47.06191],[16.47198,47.07857],[16.46575,47.09932],[16.50186,47.11058],[16.50101,47.12378],[16.53047,47.12761],[16.51792,47.14971],[16.45543,47.14268],[16.46548,47.16857],[16.45188,47.18867],[16.43041,47.18506],[16.41803,47.20572],[16.4362,47.216],[16.44291,47.24899],[16.47944,47.26351],[16.49058,47.28067],[16.46569,47.33425],[16.43487,47.35323],[16.4578,47.36679],[16.44661,47.40762],[16.4865,47.4093],[16.49773,47.38944],[16.51807,47.411],[16.57692,47.40676],[16.58907,47.42318],[16.62155,47.43115],[16.62872,47.44251],[16.66321,47.4561],[16.67167,47.47466],[16.65353,47.50074],[16.691,47.51083],[16.7067,47.52333],[16.65327,47.62333],[16.631,47.62854],[16.59446,47.61827],[16.57371,47.62028],[16.51562,47.64657],[16.44102,47.65713],[16.44877,47.69211],[16.47589,47.68169],[16.50104,47.70517],[16.5423,47.7126],[16.55342,47.72296],[16.53765,47.73708],[16.54917,47.75199],[16.63547,47.75949],[16.65722,47.7421],[16.72216,47.73577],[16.72273,47.72304],[16.75024,47.68186],[16.82955,47.68316],[16.84029,47.70501],[16.87006,47.72177],[16.87286,47.69053],[16.91378,47.68811],[17.04168,47.70479],[17.09434,47.70867],[17.07153,47.72863],[17.06506,47.77825],[17.05223,47.79442],[17.07307,47.80864],[17.04818,47.82878],[17.05281,47.83834],[17.01121,47.85879],[17.07907,47.87798],[17.10545,47.8997],[17.11397,47.9278],[17.09218,47.93484],[17.11827,47.96135],[17.09595,47.97132],[17.16207,48.00711],[17.14514,48.02066],[17.11134,48.03169],[17.09114,48.02025],[17.0687,48.03189],[17.08907,48.04614],[17.06953,48.05586],[17.07585,48.08638],[17.094,48.10011],[17.06803,48.11915],[17.0427,48.10213],[17.03728,48.08477],[16.99811,48.05282],[16.9879,48.02956],[16.95049,48.04781],[16.92074,48.05154],[16.91798,48.06809],[16.87504,48.07279],[16.8172,48.031],[16.76113,48.01413],[16.71367,48.01321],[16.70204,48.00526],[16.70053,47.96676],[16.65286,47.95619],[16.63458,47.94613],[16.63357,47.92993],[16.57973,47.88791],[16.55748,47.90281],[16.52472,47.93508],[16.48696,47.94268],[16.43827,47.92801],[16.4174,47.8909],[16.40148,47.87643],[16.3569,47.86659],[16.3892,47.84302],[16.34924,47.81608],[16.32444,47.78867],[16.31015,47.80777],[16.27988,47.81094],[16.2698,47.79539],[16.3048,47.78533],[16.29228,47.72915],[16.30587,47.69765],[16.35307,47.67169],[16.37371,47.64307],[16.33131,47.58286],[16.31423,47.56556],[16.31056,47.54623],[16.33888,47.52644],[16.34083,47.51659],[16.30363,47.46746],[16.25774,47.45177],[16.22512,47.42777],[16.17289,47.42282],[16.12753,47.41322],[16.10234,47.41519],[16.10386,47.39585],[16.07283,47.40455],[16.065,47.38537],[16.03121,47.37971],[16.02544,47.3637],[16.06058,47.31579],[16.06441,47.28689],[16.08679,47.25103],[16.08672,47.21146],[16.11479,47.16178],[16.11617,47.13372],[16.09375,47.10938],[16.08759,47.07459],[16.12216,47.0451],[16.12607,47.01908],[16.14784,47.0011],[16.1228,46.99103],[16.09625,46.954],[16.09626,46.93483],[16.0713,46.93588],[16.06227,46.91337],[16.03758,46.90336],[16.01431,46.88435],[16.00713,46.8456],[15.99729,46.83575]]]},"properties":{"id":"AT-1","name":"Burgenland"}}
]}