{"type":"FeatureCollection", "features": [
{"type":"Feature","geometry":{"type":"Polygon","coordinates":[[[13.78543,46.94429],[13.77518,46.95308],[13.7725,46.97753],[13.74603,46.99435],[13.70682,46.99633],[13.69442,47.00657],[13.6941,47.04066],[13.64974,47.03963],[13.63839,47.05596],[13.61642,47.05961],[13.58282,47.05263],[13.52229,47.06897],[13.45857,47.08079],[13.4283,47.08184],[13.40351,47.06997],[13.36363,47.09927],[13.30063,47.08823],[13.27802,47.09562],[13.25051,47.08798],[13.24008,47.072],[13.24882,47.05104],[13.18531,47.04421],[13.12765,47.02752],[13.08101,47.02728],[13.07369,47.01388],[13.02053,47.03065],[13.0219,47.0398],[12.9655,47.03947],[12.94386,47.05971],[12.93819,47.07665],[12.87153,47.08675],[12.8374,47.08328],[12.82092,47.09815],[12.78223,47.09348],[12.77341,47.10143],[12.73948,47.10081],[12.73153,47.13149],[12.70455,47.12199],[12.67295,47.1212],[12.65745,47.10001],[12.70021,47.07355],[12.7152,47.04519],[12.74305,47.04223],[12.75551,47.02534],[12.72526,46.99626],[12.7452,46.96099],[12.7602,46.95708],[12.78357,46.93236],[12.83769,46.91296],[12.84179,46.86144],[12.88711,46.84296],[12.89851,46.82495],[12.9536,46.8015],[12.96467,46.78595],[12.93206,46.76449],[12.90002,46.77729],[12.87937,46.7639],[12.84185,46.74978],[12.80224,46.75712],[12.72041,46.74182],[12.70598,46.70578],[12.69327,46.70171],[12.69123,46.65741],[12.71652,46.64964],[12.73199,46.63473],[12.7632,46.64839],[12.79455,46.64336],[12.81959,46.62861],[12.83429,46.61032],[12.88869,46.60707],[12.93366,46.61036],[12.98781,46.59987],[13.02213,46.60265],[13.04726,46.59572],[13.09297,46.60081],[13.14698,46.58751],[13.16926,46.58932],[13.17979,46.57821],[13.21801,46.57091],[13.24045,46.55211],[13.25323,46.56085],[13.29822,46.5607],[13.32064,46.55334],[13.3454,46.57041],[13.37292,46.57968],[13.41054,46.57246],[13.40819,46.5619],[13.44674,46.55691],[13.50495,46.56671],[13.51562,46.54903],[13.562,46.55224],[13.62866,46.54173],[13.67379,46.52353],[13.72655,46.52353],[13.79518,46.50573],[13.83203,46.51906],[13.85602,46.51425],[13.88272,46.52316],[13.9128,46.52151],[13.9437,46.51186],[14.00726,46.48174],[14.05152,46.49357],[14.1223,46.47698],[14.13579,46.45135],[14.15542,46.43604],[14.17726,46.43432],[14.22011,46.4436],[14.23798,46.43258],[14.284,46.44386],[14.30895,46.43099],[14.38293,46.43949],[14.4105,46.44674],[14.44345,46.42342],[14.49304,46.41328],[14.52259,46.42761],[14.55765,46.38551],[14.57898,46.37738],[14.58697,46.3926],[14.58726,46.4301],[14.67564,46.45103],[14.68406,46.46825],[14.71009,46.48121],[14.71145,46.49301],[14.73855,46.50346],[14.78635,46.49984],[14.81949,46.50974],[14.83539,46.56358],[14.86744,46.60367],[14.88751,46.61311],[14.92353,46.61136],[14.95657,46.63309],[14.97168,46.62465],[14.98028,46.60176],[15.01708,46.64119],[15.04195,46.65213],[15.06606,46.65269],[15.03137,46.67837],[15.03678,46.72863],[15.02764,46.77271],[14.97718,46.78517],[14.9913,46.82281],[15.01431,46.83359],[15.00904,46.88],[15.02841,46.90699],[15.0183,46.92288],[14.99324,46.93898],[14.96754,46.98261],[14.95025,46.9934],[14.90491,47.00071],[14.87415,47.02294],[14.85713,47.02569],[14.83145,47.04999],[14.80857,47.03937],[14.77293,47.04006],[14.71689,47.01858],[14.66574,47.01873],[14.62566,47.01253],[14.61614,46.99837],[14.58765,47.01193],[14.52804,47.00962],[14.49302,47.02537],[14.46355,47.01056],[14.45754,46.99636],[14.42668,46.99716],[14.38675,46.98042],[14.3776,46.9947],[14.38365,47.01441],[14.3666,47.02508],[14.32936,47.03022],[14.29064,47.02616],[14.22528,47.03591],[14.21731,47.06211],[14.19178,47.07155],[14.16329,47.05283],[14.13417,47.06276],[14.12656,47.04579],[14.10262,47.03855],[14.04979,47.00443],[14.01541,47.00231],[14.00688,46.97097],[13.96625,46.9638],[13.95193,46.94274],[13.93521,46.94605],[13.87979,46.91865],[13.84897,46.90971],[13.81612,46.91894],[13.78543,46.94429]]]},"properties":{"id":"AT-2","name":"Kärnten"}}
]}