{"type":"FeatureCollection", "features": [
{"type":"Feature","geometry":{"type":"Polygon","coordinates":[[[17.06803,48.11915],[17.05848,48.14424],[17.02904,48.14153],[16.97751,48.17225],[16.97772,48.18985],[16.96306,48.22131],[16.9474,48.23637],[16.95835,48.26431],[16.92727,48.27177],[16.89594,48.31072],[16.91006,48.32645],[16.84533,48.351],[16.84243,48.37221],[16.8649,48.41986],[16.8515,48.44999],[16.89128,48.47688],[16.8974,48.49709],[16.91521,48.50144],[16.92257,48.52064],[16.95518,48.54352],[16.93695,48.57194],[16.9349,48.60116],[16.94141,48.61773],[16.91999,48.62322],[16.92434,48.67077],[16.91337,48.70639],[16.88758,48.71678],[16.82357,48.71088],[16.77708,48.71249],[16.74858,48.73267],[16.72604,48.73859],[16.68991,48.72983],[16.67594,48.77209],[16.66503,48.78157],[16.59486,48.78323],[16.56645,48.79412],[16.542,48.81485],[16.52623,48.80129],[16.46316,48.80521],[16.44996,48.79995],[16.43626,48.76619],[16.41155,48.74385],[16.3677,48.72861],[16.27913,48.74208],[16.26429,48.73757],[16.15519,48.74936],[16.14015,48.74332],[16.10389,48.74599],[15.99556,48.77992],[15.95082,48.80583],[15.94791,48.8231],[15.92536,48.82515],[15.89884,48.84895],[15.86552,48.85295],[15.82876,48.87164],[15.7807,48.87548],[15.75483,48.85277],[15.71511,48.85858],[15.69085,48.85627],[15.65687,48.88204],[15.62075,48.89621],[15.57914,48.89647],[15.51453,48.91473],[15.50315,48.93658],[15.46963,48.95243],[15.42588,48.95222],[15.3681,48.9825],[15.33335,48.98545],[15.32285,48.97675],[15.29215,48.98494],[15.27019,48.9589],[15.22555,48.96077],[15.19139,48.94391],[15.15648,48.94676],[15.17089,48.96288],[15.15738,48.99392],[15.1379,48.99828],[15.06593,49.00022],[15.02163,49.02117],[15.00411,49.01213],[14.9795,48.98108],[14.97757,48.95646],[14.9876,48.93655],[14.99263,48.89794],[14.97401,48.87528],[14.9708,48.82452],[14.95927,48.81455],[14.95432,48.7904],[14.9812,48.77977],[14.95685,48.7587],[14.93295,48.76717],[14.88914,48.77069],[14.88234,48.78072],[14.8097,48.77942],[14.81254,48.76207],[14.7954,48.73043],[14.77507,48.71225],[14.74182,48.70193],[14.71336,48.6507],[14.72317,48.63904],[14.71511,48.61805],[14.72215,48.60298],[14.69202,48.5849],[14.71397,48.57862],[14.7255,48.56274],[14.76395,48.56444],[14.80891,48.55658],[14.85028,48.53618],[14.89721,48.52383],[14.91547,48.50095],[14.8675,48.48045],[14.87627,48.45649],[14.89948,48.45114],[14.91375,48.43421],[14.93997,48.42375],[14.9655,48.38843],[14.94471,48.32421],[14.98747,48.31987],[14.99319,48.25713],[14.97182,48.24745],[14.95819,48.22702],[14.91594,48.23343],[14.8825,48.23315],[14.8583,48.22606],[14.85871,48.21359],[14.83333,48.19065],[14.74388,48.17549],[14.71626,48.17922],[14.69232,48.15765],[14.64678,48.17446],[14.61244,48.19631],[14.58819,48.2221],[14.52213,48.23818],[14.49054,48.22244],[14.48099,48.19819],[14.48485,48.17515],[14.46836,48.1496],[14.47862,48.13465],[14.46861,48.12305],[14.49199,48.10958],[14.46908,48.10026],[14.45526,48.0803],[14.45702,48.04354],[14.49303,48.0114],[14.49409,47.99858],[14.55494,47.98252],[14.58644,47.96796],[14.60878,47.94979],[14.64823,47.94402],[14.68467,47.93029],[14.73012,47.92488],[14.76061,47.90101],[14.77291,47.88354],[14.75901,47.86851],[14.71094,47.85116],[14.72375,47.8327],[14.7123,47.81591],[14.73241,47.79961],[14.71282,47.79059],[14.74234,47.75366],[14.73701,47.74545],[14.768,47.72681],[14.81927,47.74471],[14.84094,47.73446],[14.86152,47.74187],[14.87761,47.71653],[14.92873,47.71113],[14.95297,47.73335],[15.03571,47.75323],[15.05942,47.74084],[15.13117,47.74767],[15.13584,47.75849],[15.20039,47.75391],[15.21142,47.76361],[15.20916,47.78831],[15.23531,47.79929],[15.2882,47.79067],[15.29948,47.82114],[15.33427,47.82785],[15.37598,47.82587],[15.40713,47.81329],[15.41153,47.78529],[15.43974,47.79131],[15.45103,47.77321],[15.5031,47.76943],[15.51509,47.74694],[15.61278,47.75156],[15.63703,47.71589],[15.65309,47.71799],[15.6798,47.69946],[15.69811,47.7135],[15.71651,47.71311],[15.73003,47.65896],[15.72618,47.64691],[15.76419,47.63548],[15.78144,47.64308],[15.82287,47.63841],[15.83408,47.62283],[15.86343,47.61408],[15.84908,47.59721],[15.8481,47.56823],[15.87543,47.57379],[15.90544,47.5632],[15.90343,47.54678],[15.91495,47.53086],[15.95733,47.51753],[16.01715,47.51746],[16.06431,47.48962],[16.06629,47.50233],[16.09073,47.50779],[16.11389,47.49823],[16.13301,47.45386],[16.1453,47.4383],[16.17289,47.42282],[16.22512,47.42777],[16.25774,47.45177],[16.30363,47.46746],[16.34083,47.51659],[16.33888,47.52644],[16.31056,47.54623],[16.31423,47.56556],[16.33131,47.58286],[16.37371,47.64307],[16.35307,47.67169],[16.30587,47.69765],[16.29228,47.72915],[16.3048,47.78533],[16.2698,47.79539],[16.27988,47.81094],[16.31015,47.80777],[16.32444,47.78867],[16.34924,47.81608],[16.3892,47.84302],[16.3569,47.86659],[16.40148,47.87643],[16.4174,47.8909],[16.43827,47.92801],[16.48696,47.94268],[16.52472,47.93508],[16.55748,47.90281],[16.57973,47.88791],[16.63357,47.92993],[16.63458,47.94613],[16.65286,47.95619],[16.70053,47.96676],[16.70204,48.00526],[16.71367,48.01321],[16.76113,48.01413],[16.8172,48.031],[16.87504,48.07279],[16.91798,48.06809],[16.92074,48.05154],[16.95049,48.04781],[16.9879,48.02956],[16.99811,48.05282],[17.03728,48.08477],[17.0427,48.10213],[17.06803,48.11915]],[[16.41645,48.3227],[16.43898,48.31732],[16.44163,48.29243],[16.47553,48.27598],[16.48243,48.29404],[16.51613,48.28604],[16.50791,48.27411],[16.53146,48.26292],[16.55398,48.2395],[16.5375,48.20094],[16.53753,48.17804],[16.55428,48.16255],[16.57639,48.16231],[16.57726,48.1357],[16.54416,48.14384],[16.51779,48.15894],[16.47833,48.15463],[16.43549,48.1252],[16.41291,48.12085],[16.3258,48.13829],[16.31299,48.11994],[16.27233,48.13435],[16.23724,48.13051],[16.22197,48.13605],[16.19738,48.16445],[16.2108,48.21013],[16.18635,48.22372],[16.1975,48.25043],[16.22253,48.2587],[16.24273,48.23883],[16.30706,48.27226],[16.34638,48.28608],[16.3681,48.28155],[16.38512,48.30323],[16.3829,48.31762],[16.41645,48.3227]]]},"properties":{"id":"AT-3","name":"Niederösterreich"}}
]}