{"type":"FeatureCollection", "features": [
{"type":"Feature","geometry":{"type":"Polygon","coordinates":[[[14.69202,48.5849],[14.66446,48.58256],[14.6548,48.60494],[14.63169,48.60377],[14.61875,48.62253],[14.55453,48.60644],[14.54661,48.61429],[14.50427,48.61798],[14.46955,48.64682],[14.45348,48.63254],[14.44318,48.60083],[14.43239,48.58974],[14.38721,48.59328],[14.39456,48.57927],[14.34365,48.55542],[14.2798,48.57485],[14.24151,48.57827],[14.22914,48.58583],[14.18266,48.59452],[14.07317,48.6005],[14.04307,48.61349],[14.01148,48.64028],[14.02511,48.65329],[14.05445,48.65356],[14.0604,48.67446],[14.0398,48.67675],[14.00421,48.70922],[13.95672,48.71509],[13.89638,48.75773],[13.87703,48.76726],[13.84046,48.77227],[13.82188,48.75504],[13.81997,48.73247],[13.79578,48.71573],[13.82145,48.69971],[13.81497,48.6503],[13.82484,48.64277],[13.82346,48.61486],[13.80216,48.59803],[13.80181,48.57423],[13.77089,48.5542],[13.74454,48.54468],[13.74865,48.53002],[13.72795,48.51364],[13.66554,48.53455],[13.65434,48.54967],[13.62558,48.55507],[13.60063,48.57003],[13.57041,48.56193],[13.52836,48.58788],[13.47621,48.5567],[13.43847,48.55778],[13.45898,48.51218],[13.42802,48.45799],[13.44075,48.4337],[13.40991,48.37358],[13.36783,48.3534],[13.33011,48.32384],[13.25739,48.29425],[13.18011,48.2954],[13.12817,48.27895],[13.08166,48.27783],[13.02301,48.25864],[12.96626,48.21454],[12.94646,48.20737],[12.87078,48.20193],[12.84794,48.16755],[12.82864,48.15369],[12.79997,48.1473],[12.78718,48.12404],[12.75932,48.12735],[12.74994,48.10912],[12.75345,48.0882],[12.77082,48.06679],[12.83447,48.0288],[12.86089,47.99723],[12.89286,47.99163],[12.9111,48.02263],[12.94958,48.03751],[12.97202,48.02451],[13.02975,48.0331],[13.04796,48.04057],[13.06394,48.01646],[13.09478,47.99641],[13.14181,47.99262],[13.15274,47.97132],[13.19943,47.97475],[13.24345,47.99256],[13.27496,47.99829],[13.32657,47.99248],[13.37421,47.96638],[13.34187,47.95237],[13.29066,47.96101],[13.27883,47.95029],[13.28607,47.92876],[13.27666,47.87761],[13.29408,47.86445],[13.29047,47.82493],[13.31296,47.81338],[13.34138,47.8133],[13.39553,47.7956],[13.4521,47.80475],[13.47952,47.80106],[13.49098,47.78971],[13.53026,47.79757],[13.53948,47.78289],[13.51686,47.77263],[13.46606,47.7867],[13.44709,47.77255],[13.43687,47.73998],[13.48381,47.72328],[13.55165,47.71465],[13.53342,47.68327],[13.50081,47.66953],[13.48486,47.64207],[13.49063,47.63086],[13.51919,47.62915],[13.52407,47.61885],[13.50709,47.60128],[13.50603,47.58251],[13.47909,47.56866],[13.48423,47.54973],[13.47697,47.53289],[13.49081,47.51377],[13.52241,47.49468],[13.53508,47.49544],[13.58643,47.47531],[13.63117,47.46687],[13.70637,47.4644],[13.72961,47.49077],[13.74993,47.50212],[13.76147,47.52081],[13.74708,47.54218],[13.75673,47.55324],[13.73626,47.57754],[13.69574,47.58325],[13.69486,47.62373],[13.70755,47.66528],[13.73779,47.67463],[13.75536,47.69969],[13.78015,47.71766],[13.79383,47.71297],[13.86314,47.72649],[13.90423,47.71818],[13.92081,47.70563],[13.95254,47.71018],[13.98421,47.69778],[14.00256,47.70357],[14.05628,47.6684],[14.04716,47.62695],[14.05162,47.61767],[14.09397,47.62005],[14.14647,47.63754],[14.17845,47.63846],[14.20666,47.65305],[14.23544,47.62843],[14.26529,47.61097],[14.32728,47.60805],[14.33537,47.61885],[14.39587,47.63834],[14.39836,47.65315],[14.43757,47.65306],[14.45024,47.6643],[14.49032,47.68252],[14.51811,47.68235],[14.53286,47.71424],[14.55442,47.7202],[14.58776,47.71873],[14.61858,47.73119],[14.6444,47.72807],[14.67176,47.7418],[14.69791,47.76631],[14.73941,47.74923],[14.74234,47.75366],[14.71282,47.79059],[14.73241,47.79961],[14.7123,47.81591],[14.72375,47.8327],[14.71094,47.85116],[14.75901,47.86851],[14.77291,47.88354],[14.76061,47.90101],[14.73012,47.92488],[14.68467,47.93029],[14.64823,47.94402],[14.60878,47.94979],[14.58644,47.96796],[14.55494,47.98252],[14.49409,47.99858],[14.49303,48.0114],[14.45702,48.04354],[14.45526,48.0803],[14.46908,48.10026],[14.49199,48.10958],[14.46861,48.12305],[14.47862,48.13465],[14.46836,48.1496],[14.48485,48.17515],[14.48099,48.19819],[14.49054,48.22244],[14.52213,48.23818],[14.58819,48.2221],[14.61244,48.19631],[14.64678,48.17446],[14.69232,48.15765],[14.71626,48.17922],[14.74388,48.17549],[14.83333,48.19065],[14.85871,48.21359],[14.8583,48.22606],[14.8825,48.23315],[14.91594,48.23343],[14.95819,48.22702],[14.97182,48.24745],[14.99319,48.25713],[14.98747,48.31987],[14.94471,48.32421],[14.9655,48.38843],[14.93997,48.42375],[14.91375,48.43421],[14.89948,48.45114],[14.87627,48.45649],[14.8675,48.48045],[14.91547,48.50095],[14.89721,48.52383],[14.85028,48.53618],[14.80891,48.55658],[14.76395,48.56444],[14.7255,48.56274],[14.71397,48.57862],[14.69202,48.5849]]]},"properties":{"id":"AT-4","name":"Oberösterreich"}}
]}