{"type":"FeatureCollection", "features": [
{"type":"Feature","geometry":{"type":"Polygon","coordinates":[[[13.78543,46.94429],[13.83259,46.96589],[13.84574,46.98949],[13.86543,46.99663],[13.86472,47.0204],[13.90756,47.07056],[13.87878,47.09517],[13.89323,47.11471],[13.94028,47.13687],[13.95807,47.12446],[13.98806,47.12623],[13.99439,47.14252],[13.9687,47.151],[13.94964,47.16618],[13.92381,47.17223],[13.90398,47.19521],[13.88327,47.20475],[13.85091,47.23011],[13.86497,47.25264],[13.82441,47.26749],[13.82613,47.29368],[13.80532,47.29319],[13.78471,47.27573],[13.76142,47.26675],[13.7485,47.27829],[13.72047,47.27626],[13.71264,47.25998],[13.65221,47.27716],[13.63222,47.27448],[13.59846,47.294],[13.60424,47.33059],[13.57465,47.40627],[13.56411,47.42096],[13.59344,47.46106],[13.58643,47.47531],[13.53508,47.49544],[13.52241,47.49468],[13.49081,47.51377],[13.47697,47.53289],[13.48423,47.54973],[13.47909,47.56866],[13.50603,47.58251],[13.50709,47.60128],[13.52407,47.61885],[13.51919,47.62915],[13.49063,47.63086],[13.48486,47.64207],[13.50081,47.66953],[13.53342,47.68327],[13.55165,47.71465],[13.48381,47.72328],[13.43687,47.73998],[13.44709,47.77255],[13.46606,47.7867],[13.51686,47.77263],[13.53948,47.78289],[13.53026,47.79757],[13.49098,47.78971],[13.47952,47.80106],[13.4521,47.80475],[13.39553,47.7956],[13.34138,47.8133],[13.31296,47.81338],[13.29047,47.82493],[13.29408,47.86445],[13.27666,47.87761],[13.28607,47.92876],[13.27883,47.95029],[13.29066,47.96101],[13.34187,47.95237],[13.37421,47.96638],[13.32657,47.99248],[13.27496,47.99829],[13.24345,47.99256],[13.19943,47.97475],[13.15274,47.97132],[13.14181,47.99262],[13.09478,47.99641],[13.06394,48.01646],[13.04796,48.04057],[13.02975,48.0331],[12.97202,48.02451],[12.94958,48.03751],[12.9111,48.02263],[12.89286,47.99163],[12.86089,47.99723],[12.87004,47.96976],[12.88666,47.95966],[12.92139,47.95196],[12.96489,47.90428],[13.00211,47.85496],[13.00338,47.84228],[12.98539,47.82883],[12.96473,47.80042],[12.94021,47.77882],[12.9359,47.74788],[12.91303,47.73756],[12.90595,47.72399],[12.93388,47.7101],[12.99219,47.7092],[13.00937,47.72293],[13.04671,47.71322],[13.08146,47.68758],[13.08077,47.66303],[13.09774,47.64125],[13.09662,47.62854],[13.06331,47.602],[13.07135,47.58752],[13.04436,47.5839],[13.05641,47.55787],[13.0324,47.53606],[13.04694,47.52441],[13.04834,47.49269],[13.02758,47.48722],[13.00732,47.46491],[12.98628,47.482],[12.96654,47.47536],[12.90937,47.49749],[12.88351,47.52116],[12.85237,47.53134],[12.84835,47.54653],[12.8184,47.54543],[12.79498,47.55756],[12.77981,47.57966],[12.81164,47.62183],[12.78154,47.63324],[12.75924,47.65211],[12.77913,47.66147],[12.73292,47.68022],[12.66675,47.6816],[12.59755,47.66667],[12.57567,47.63287],[12.57517,47.60554],[12.65323,47.58968],[12.66723,47.57926],[12.64228,47.55505],[12.67267,47.50025],[12.70024,47.47842],[12.66588,47.46534],[12.63203,47.46508],[12.63816,47.43711],[12.62296,47.41891],[12.60175,47.41371],[12.57924,47.39303],[12.56331,47.40007],[12.52427,47.39124],[12.50671,47.39466],[12.48327,47.37845],[12.47957,47.3655],[12.49901,47.34524],[12.47041,47.3243],[12.44248,47.32914],[12.41095,47.31414],[12.37518,47.31183],[12.33585,47.32905],[12.3049,47.33096],[12.2647,47.30274],[12.23787,47.30198],[12.21678,47.31198],[12.19758,47.29898],[12.17008,47.30329],[12.14466,47.28866],[12.11511,47.30698],[12.07665,47.27011],[12.1022,47.2582],[12.10287,47.23668],[12.0824,47.19238],[12.09392,47.14635],[12.11235,47.13903],[12.12995,47.10583],[12.13656,47.08117],[12.1521,47.07978],[12.18652,47.09265],[12.22751,47.08262],[12.24131,47.06967],[12.26201,47.07322],[12.28435,47.09305],[12.35927,47.1173],[12.36386,47.14189],[12.40011,47.15331],[12.41352,47.14393],[12.43522,47.15099],[12.46615,47.14486],[12.48412,47.15835],[12.52216,47.15112],[12.52854,47.13815],[12.55341,47.12811],[12.56698,47.13652],[12.6172,47.12197],[12.65745,47.10001],[12.67295,47.1212],[12.70455,47.12199],[12.73153,47.13149],[12.73948,47.10081],[12.77341,47.10143],[12.78223,47.09348],[12.82092,47.09815],[12.8374,47.08328],[12.87153,47.08675],[12.93819,47.07665],[12.94386,47.05971],[12.9655,47.03947],[13.0219,47.0398],[13.02053,47.03065],[13.07369,47.01388],[13.08101,47.02728],[13.12765,47.02752],[13.18531,47.04421],[13.24882,47.05104],[13.24008,47.072],[13.25051,47.08798],[13.27802,47.09562],[13.30063,47.08823],[13.36363,47.09927],[13.40351,47.06997],[13.4283,47.08184],[13.45857,47.08079],[13.52229,47.06897],[13.58282,47.05263],[13.61642,47.05961],[13.63839,47.05596],[13.64974,47.03963],[13.6941,47.04066],[13.69442,47.00657],[13.70682,46.99633],[13.74603,46.99435],[13.7725,46.97753],[13.77518,46.95308],[13.78543,46.94429]]]},"properties":{"id":"AT-5","name":"Salzburg"}}
]}