{"type":"FeatureCollection", "features": [
{"type":"Feature","geometry":{"type":"Polygon","coordinates":[[[16.17289,47.42282],[16.1453,47.4383],[16.13301,47.45386],[16.11389,47.49823],[16.09073,47.50779],[16.06629,47.50233],[16.06431,47.48962],[16.01715,47.51746],[15.95733,47.51753],[15.91495,47.53086],[15.90343,47.54678],[15.90544,47.5632],[15.87543,47.57379],[15.8481,47.56823],[15.84908,47.59721],[15.86343,47.61408],[15.83408,47.62283],[15.82287,47.63841],[15.78144,47.64308],[15.76419,47.63548],[15.72618,47.64691],[15.73003,47.65896],[15.71651,47.71311],[15.69811,47.7135],[15.6798,47.69946],[15.65309,47.71799],[15.63703,47.71589],[15.61278,47.75156],[15.51509,47.74694],[15.5031,47.76943],[15.45103,47.77321],[15.43974,47.79131],[15.41153,47.78529],[15.40713,47.81329],[15.37598,47.82587],[15.33427,47.82785],[15.29948,47.82114],[15.2882,47.79067],[15.23531,47.79929],[15.20916,47.78831],[15.21142,47.76361],[15.20039,47.75391],[15.13584,47.75849],[15.13117,47.74767],[15.05942,47.74084],[15.03571,47.75323],[14.95297,47.73335],[14.92873,47.71113],[14.87761,47.71653],[14.86152,47.74187],[14.84094,47.73446],[14.81927,47.74471],[14.768,47.72681],[14.73701,47.74545],[14.73941,47.74923],[14.69791,47.76631],[14.67176,47.7418],[14.6444,47.72807],[14.61858,47.73119],[14.58776,47.71873],[14.55442,47.7202],[14.53286,47.71424],[14.51811,47.68235],[14.49032,47.68252],[14.45024,47.6643],[14.43757,47.65306],[14.39836,47.65315],[14.39587,47.63834],[14.33537,47.61885],[14.32728,47.60805],[14.26529,47.61097],[14.23544,47.62843],[14.20666,47.65305],[14.17845,47.63846],[14.14647,47.63754],[14.09397,47.62005],[14.05162,47.61767],[14.04716,47.62695],[14.05628,47.6684],[14.00256,47.70357],[13.98421,47.69778],[13.95254,47.71018],[13.92081,47.70563],[13.90423,47.71818],[13.86314,47.72649],[13.79383,47.71297],[13.78015,47.71766],[13.75536,47.69969],[13.73779,47.67463],[13.70755,47.66528],[13.69486,47.62373],[13.69574,47.58325],[13.73626,47.57754],[13.75673,47.55324],[13.74708,47.54218],[13.76147,47.52081],[13.74993,47.50212],[13.72961,47.49077],[13.70637,47.4644],[13.63117,47.46687],[13.58643,47.47531],[13.59344,47.46106],[13.56411,47.42096],[13.57465,47.40627],[13.60424,47.33059],[13.59846,47.294],[13.63222,47.27448],[13.65221,47.27716],[13.71264,47.25998],[13.72047,47.27626],[13.7485,47.27829],[13.76142,47.26675],[13.78471,47.27573],[13.80532,47.29319],[13.82613,47.29368],[13.82441,47.26749],[13.86497,47.25264],[13.85091,47.23011],[13.88327,47.20475],[13.90398,47.19521],[13.92381,47.17223],[13.94964,47.16618],[13.9687,47.151],[13.99439,47.14252],[13.98806,47.12623],[13.95807,47.12446],[13.94028,47.13687],[13.89323,47.11471],[13.87878,47.09517],[13.90756,47.07056],[13.86472,47.0204],[13.86543,46.99663],[13.84574,46.98949],[13.83259,46.96589],[13.78543,46.94429],[13.81612,46.91894],[13.84897,46.90971],[13.87979,46.91865],[13.93521,46.94605],[13.95193,46.94274],[13.96625,46.9638],[14.00688,46.97097],[14.01541,47.00231],[14.04979,47.00443],[14.10262,47.03855],[14.12656,47.04579],[14.13417,47.06276],[14.16329,47.05283],[14.19178,47.07155],[14.21731,47.06211],[14.22528,47.03591],[14.29064,47.02616],[14.32936,47.03022],[14.3666,47.02508],[14.38365,47.01441],[14.3776,46.9947],[14.38675,46.98042],[14.42668,46.99716],[14.45754,46.99636],[14.46355,47.01056],[14.49302,47.02537],[14.52804,47.00962],[14.58765,47.01193],[14.61614,46.99837],[14.62566,47.01253],[14.66574,47.01873],[14.71689,47.01858],[14.77293,47.04006],[14.80857,47.03937],[14.83145,47.04999],[14.85713,47.02569],[14.87415,47.02294],[14.90491,47.00071],[14.95025,46.9934],[14.96754,46.98261],[14.99324,46.93898],[15.0183,46.92288],[15.02841,46.90699],[15.00904,46.88],[15.01431,46.83359],[14.9913,46.82281],[14.97718,46.78517],[15.02764,46.77271],[15.03678,46.72863],[15.03137,46.67837],[15.06606,46.65269],[15.08332,46.6455],[15.10842,46.66005],[15.13212,46.65096],[15.14628,46.6602],[15.18321,46.6565],[15.1983,46.64609],[15.23685,46.63974],[15.27833,46.64397],[15.29498,46.65285],[15.39531,46.65225],[15.41505,46.65589],[15.44034,46.64021],[15.45784,46.63932],[15.46308,46.6156],[15.52119,46.62192],[15.55451,46.65176],[15.5482,46.66961],[15.59612,46.69036],[15.62089,46.68017],[15.65098,46.70611],[15.67733,46.70708],[15.72258,46.69617],[15.76949,46.69936],[15.80173,46.71547],[15.84073,46.72273],[15.8715,46.72139],[15.91272,46.7104],[15.94796,46.68945],[15.99942,46.68091],[16.01186,46.66522],[16.03914,46.65647],[16.04357,46.68622],[16.02243,46.7112],[15.99435,46.73153],[15.98581,46.75242],[15.9992,46.80981],[15.98643,46.82765],[15.99729,46.83575],[16.00713,46.8456],[16.01431,46.88435],[16.03758,46.90336],[16.06227,46.91337],[16.0713,46.93588],[16.09626,46.93483],[16.09625,46.954],[16.1228,46.99103],[16.14784,47.0011],[16.12607,47.01908],[16.12216,47.0451],[16.08759,47.07459],[16.09375,47.10938],[16.11617,47.13372],[16.11479,47.16178],[16.08672,47.21146],[16.08679,47.25103],[16.06441,47.28689],[16.06058,47.31579],[16.02544,47.3637],[16.03121,47.37971],[16.065,47.38537],[16.07283,47.40455],[16.10386,47.39585],[16.10234,47.41519],[16.12753,47.41322],[16.17289,47.42282]]]},"properties":{"id":"AT-6","name":"Steiermark"}}
]}