{"type":"FeatureCollection", "features": [
{"type":"Feature","geometry":{"type":"MultiPolygon","coordinates":[[[[12.65745,47.10001],[12.6172,47.12197],[12.56698,47.13652],[12.55341,47.12811],[12.52854,47.13815],[12.52216,47.15112],[12.48412,47.15835],[12.46615,47.14486],[12.43522,47.15099],[12.41352,47.14393],[12.40011,47.15331],[12.36386,47.14189],[12.35927,47.1173],[12.28435,47.09305],[12.26201,47.07322],[12.24131,47.06967],[12.21712,47.05918],[12.20527,47.02738],[12.16491,47.01939],[12.14796,47.0254],[12.12172,47.00656],[12.13874,46.98248],[12.13853,46.95699],[12.16922,46.93779],[12.15332,46.91757],[12.19089,46.9066],[12.21596,46.87448],[12.23647,46.88919],[12.2667,46.88791],[12.30646,46.83371],[12.28348,46.81541],[12.29281,46.8031],[12.28448,46.78339],[12.30976,46.78543],[12.35966,46.77379],[12.36972,46.74085],[12.38462,46.71679],[12.44317,46.6889],[12.47432,46.68722],[12.48184,46.67746],[12.51658,46.67905],[12.57065,46.6519],[12.63163,46.66183],[12.69123,46.65741],[12.69327,46.70171],[12.70598,46.70578],[12.72041,46.74182],[12.80224,46.75712],[12.84185,46.74978],[12.87937,46.7639],[12.90002,46.77729],[12.93206,46.76449],[12.96467,46.78595],[12.9536,46.8015],[12.89851,46.82495],[12.88711,46.84296],[12.84179,46.86144],[12.83769,46.91296],[12.78357,46.93236],[12.7602,46.95708],[12.7452,46.96099],[12.72526,46.99626],[12.75551,47.02534],[12.74305,47.04223],[12.7152,47.04519],[12.70021,47.07355],[12.65745,47.10001]]],[[[10.45479,47.55641],[10.47352,47.5707],[10.47003,47.58774],[10.42937,47.57821],[10.45479,47.55641]]],[[[12.57567,47.63287],[12.537,47.63703],[12.51291,47.62587],[12.46574,47.65029],[12.44139,47.67446],[12.42974,47.69694],[12.36423,47.68441],[12.33862,47.69757],[12.27812,47.68846],[12.25585,47.68003],[12.24186,47.69495],[12.26558,47.7331],[12.25031,47.74214],[12.22734,47.71872],[12.18406,47.70106],[12.16301,47.70175],[12.16913,47.68087],[12.1997,47.64139],[12.20884,47.61404],[12.17958,47.61496],[12.14038,47.6059],[12.11579,47.61202],[12.08292,47.61031],[12.06129,47.6194],[12.02019,47.61253],[12.01332,47.62377],[11.93388,47.6133],[11.91426,47.61443],[11.86414,47.60145],[11.8479,47.58288],[11.78157,47.59177],[11.70069,47.58954],[11.66082,47.58438],[11.64183,47.59398],[11.60626,47.58163],[11.58624,47.54601],[11.5886,47.52602],[11.57291,47.51508],[11.50615,47.5053],[11.45642,47.50955],[11.44263,47.51853],[11.39128,47.48274],[11.4099,47.4673],[11.41585,47.44759],[11.33904,47.45049],[11.31465,47.43146],[11.29146,47.42763],[11.2905,47.40783],[11.27037,47.39814],[11.23113,47.40621],[11.25043,47.4329],[11.20593,47.43447],[11.19831,47.42808],[11.12846,47.41277],[11.11527,47.39603],[10.97095,47.40065],[10.98403,47.4306],[10.91035,47.48614],[10.88188,47.47978],[10.87241,47.50097],[10.90478,47.51867],[10.8907,47.53791],[10.81354,47.52702],[10.7779,47.51451],[10.7589,47.5351],[10.69498,47.54538],[10.67695,47.5596],[10.63514,47.55965],[10.59833,47.57035],[10.58069,47.55626],[10.57373,47.53462],[10.52489,47.53577],[10.48927,47.54101],[10.45479,47.55641],[10.43165,47.50437],[10.44284,47.4853],[10.46403,47.48098],[10.46623,47.45354],[10.47633,47.43337],[10.43889,47.41414],[10.43124,47.38453],[10.3951,47.37621],[10.38678,47.35714],[10.3572,47.33761],[10.34896,47.31784],[10.31691,47.30735],[10.28198,47.28832],[10.26612,47.28869],[10.23266,47.2711],[10.20154,47.27748],[10.17865,47.2707],[10.21991,47.25523],[10.19795,47.23768],[10.21303,47.22488],[10.21298,47.20485],[10.19696,47.19234],[10.22233,47.15342],[10.20967,47.13226],[10.18659,47.12953],[10.14516,47.0975],[10.13304,47.08207],[10.13489,47.06445],[10.15719,47.04943],[10.12351,47.02269],[10.15987,46.99947],[10.13745,46.97294],[10.13506,46.95515],[10.12066,46.9383],[10.09848,46.9279],[10.11756,46.88588],[10.14169,46.87518],[10.14524,46.85154],[10.16935,46.8512],[10.19395,46.86698],[10.23296,46.86683],[10.22601,46.89648],[10.24231,46.91938],[10.24088,46.93192],[10.29134,46.92381],[10.31636,46.92572],[10.30966,46.95075],[10.3298,46.96482],[10.3553,46.99291],[10.39902,46.99743],[10.4269,46.97623],[10.42233,46.96132],[10.48967,46.93833],[10.48653,46.91599],[10.46501,46.88481],[10.46832,46.86264],[10.49913,46.84802],[10.55278,46.85056],[10.55854,46.84163],[10.59585,46.8578],[10.65417,46.86732],[10.69076,46.86817],[10.69445,46.85267],[10.72244,46.83841],[10.75557,46.83349],[10.76386,46.82398],[10.73066,46.78885],[10.75504,46.78559],[10.79627,46.79183],[10.81444,46.77563],[10.841,46.7823],[10.8689,46.76632],[10.8907,46.7648],[10.91571,46.77443],[10.9441,46.77591],[10.99349,46.76751],[11.0338,46.78511],[11.03964,46.80553],[11.08371,46.82279],[11.07182,46.85377],[11.0969,46.8841],[11.09803,46.91447],[11.11532,46.9319],[11.15553,46.93459],[11.16484,46.96633],[11.24206,46.97019],[11.32076,46.99289],[11.3591,46.99107],[11.38269,46.97109],[11.40196,46.96549],[11.44075,46.97569],[11.45306,46.99283],[11.47922,47.01149],[11.50249,47.01019],[11.53899,46.98459],[11.58186,46.99764],[11.61029,47.01153],[11.66516,46.99225],[11.71194,46.99374],[11.72816,46.97288],[11.76608,46.97403],[11.7814,46.98953],[11.8367,46.99351],[11.84548,47.00217],[11.93355,47.03807],[11.94771,47.03397],[11.9799,47.05055],[12.02179,47.04777],[12.04461,47.06194],[12.0772,47.05939],[12.10355,47.07875],[12.13656,47.08117],[12.12995,47.10583],[12.11235,47.13903],[12.09392,47.14635],[12.0824,47.19238],[12.10287,47.23668],[12.1022,47.2582],[12.07665,47.27011],[12.11511,47.30698],[12.14466,47.28866],[12.17008,47.30329],[12.19758,47.29898],[12.21678,47.31198],[12.23787,47.30198],[12.2647,47.30274],[12.3049,47.33096],[12.33585,47.32905],[12.37518,47.31183],[12.41095,47.31414],[12.44248,47.32914],[12.47041,47.3243],[12.49901,47.34524],[12.47957,47.3655],[12.48327,47.37845],[12.50671,47.39466],[12.52427,47.39124],[12.56331,47.40007],[12.57924,47.39303],[12.60175,47.41371],[12.62296,47.41891],[12.63816,47.43711],[12.63203,47.46508],[12.66588,47.46534],[12.70024,47.47842],[12.67267,47.50025],[12.64228,47.55505],[12.66723,47.57926],[12.65323,47.58968],[12.57517,47.60554],[12.57567,47.63287]]]]},"properties":{"id":"AT-7","name":"Tirol"}}
]}