{"type":"FeatureCollection", "features": [
{"type":"Feature","geometry":{"type":"Polygon","coordinates":[[[10.17865,47.2707],[10.1786,47.2953],[10.19939,47.29811],[10.21628,47.31165],[10.19982,47.32705],[10.23748,47.37416],[10.18757,47.39058],[10.16971,47.38643],[10.16618,47.36947],[10.14199,47.36778],[10.11964,47.37621],[10.10014,47.35536],[10.08315,47.39442],[10.06943,47.41076],[10.10589,47.42932],[10.09189,47.4596],[10.07027,47.45656],[10.03772,47.48979],[10.00106,47.48272],[9.99599,47.50339],[9.94137,47.53884],[9.92219,47.53026],[9.88939,47.54461],[9.86877,47.53267],[9.81603,47.54832],[9.82765,47.57927],[9.8026,47.59656],[9.77726,47.59607],[9.73548,47.54732],[9.73593,47.53483],[9.56206,47.50519],[9.59618,47.46341],[9.65824,47.44841],[9.64459,47.43636],[9.65186,47.40524],[9.6721,47.39367],[9.66266,47.37169],[9.6247,47.36675],[9.59972,47.34577],[9.58823,47.31785],[9.55676,47.29905],[9.53095,47.27118],[9.56744,47.24247],[9.55197,47.22435],[9.5851,47.20594],[9.57281,47.19139],[9.57966,47.17172],[9.60307,47.15217],[9.62187,47.15193],[9.62104,47.11112],[9.63458,47.10175],[9.63375,47.08401],[9.61172,47.07999],[9.60728,47.06135],[9.6329,47.05183],[9.64529,47.06035],[9.68235,47.05942],[9.71845,47.04395],[9.74832,47.0375],[9.78516,47.03906],[9.83637,47.0131],[9.86,47.02378],[9.89256,46.99092],[9.87099,46.96377],[9.87682,46.94127],[9.92179,46.91938],[9.94638,46.9129],[9.97813,46.91644],[9.9827,46.90675],[10.01809,46.90217],[10.0522,46.87729],[10.05147,46.86449],[10.09293,46.85859],[10.10543,46.84144],[10.14524,46.85154],[10.14169,46.87518],[10.11756,46.88588],[10.09848,46.9279],[10.12066,46.9383],[10.13506,46.95515],[10.13745,46.97294],[10.15987,46.99947],[10.12351,47.02269],[10.15719,47.04943],[10.13489,47.06445],[10.13304,47.08207],[10.14516,47.0975],[10.18659,47.12953],[10.20967,47.13226],[10.22233,47.15342],[10.19696,47.19234],[10.21298,47.20485],[10.21303,47.22488],[10.19795,47.23768],[10.21991,47.25523],[10.17865,47.2707]]]},"properties":{"id":"AT-8","name":"Vorarlberg"}}
]}