{"type":"FeatureCollection", "features": [
{"type":"Feature","geometry":{"type":"Polygon","coordinates":[[[16.41645,48.3227],[16.3829,48.31762],[16.38512,48.30323],[16.3681,48.28155],[16.34638,48.28608],[16.30706,48.27226],[16.24273,48.23883],[16.22253,48.2587],[16.1975,48.25043],[16.18635,48.22372],[16.2108,48.21013],[16.19738,48.16445],[16.22197,48.13605],[16.23724,48.13051],[16.27233,48.13435],[16.31299,48.11994],[16.3258,48.13829],[16.41291,48.12085],[16.43549,48.1252],[16.47833,48.15463],[16.51779,48.15894],[16.54416,48.14384],[16.57726,48.1357],[16.57639,48.16231],[16.55428,48.16255],[16.53753,48.17804],[16.5375,48.20094],[16.55398,48.2395],[16.53146,48.26292],[16.50791,48.27411],[16.51613,48.28604],[16.48243,48.29404],[16.47553,48.27598],[16.44163,48.29243],[16.43898,48.31732],[16.41645,48.3227]]]},"properties":{"id":"AT-9","name":"Wien"}}
]}