{"type":"FeatureCollection", "features": [
{"type":"Feature","geometry":{"type":"Polygon","coordinates":[[[9.62059,47.43809],[9.62795,47.43933],[9.62974,47.43984],[9.62971,47.44436],[9.62056,47.4479],[9.61442,47.44833],[9.60467,47.45238],[9.59692,47.45654],[9.59619,47.45854],[9.5903,47.45771],[9.58879,47.45965],[9.58135,47.46178],[9.57015,47.46351],[9.56343,47.46295],[9.55662,47.46479],[9.55408,47.46381],[9.54732,47.46544],[9.5424,47.46904],[9.53249,47.46784],[9.53109,47.46563],[9.52564,47.46137],[9.52746,47.45648],[9.53104,47.45433],[9.52543,47.45293],[9.52394,47.45136],[9.51954,47.45183],[9.51423,47.44931],[9.50965,47.44955],[9.5036,47.44541],[9.4951,47.4423],[9.48679,47.44133],[9.48043,47.43896],[9.47081,47.43894],[9.46394,47.43528],[9.45311,47.43268],[9.45053,47.43087],[9.44419,47.43405],[9.44143,47.43328],[9.43501,47.43429],[9.43285,47.4289],[9.43515,47.42473],[9.43504,47.42083],[9.43026,47.41819],[9.43297,47.41397],[9.42788,47.41045],[9.42649,47.40751],[9.41972,47.40595],[9.41664,47.40507],[9.41411,47.40494],[9.41405,47.40515],[9.41282,47.40544],[9.40924,47.40255],[9.40591,47.4023],[9.40187,47.40084],[9.39506,47.40124],[9.39193,47.40127],[9.39156,47.40166],[9.3903,47.40286],[9.38933,47.40445],[9.38509,47.40567],[9.38098,47.40652],[9.37915,47.40666],[9.37168,47.40771],[9.36627,47.4047],[9.35984,47.4034],[9.35477,47.4034],[9.34249,47.40001],[9.33264,47.39949],[9.32934,47.4013],[9.32473,47.40065],[9.32028,47.39819],[9.30862,47.39658],[9.30296,47.39522],[9.30199,47.39516],[9.29842,47.39619],[9.29628,47.39643],[9.28329,47.39869],[9.27942,47.39824],[9.27188,47.40103],[9.26936,47.39931],[9.2659,47.40115],[9.25755,47.39873],[9.25643,47.40058],[9.24439,47.39932],[9.23764,47.39641],[9.2323,47.39599],[9.23249,47.38841],[9.2292,47.38693],[9.22307,47.38764],[9.21877,47.38483],[9.22179,47.3779],[9.22089,47.37454],[9.21811,47.37109],[9.21302,47.36785],[9.21304,47.36512],[9.21017,47.36305],[9.19913,47.36144],[9.19268,47.36264],[9.19656,47.35363],[9.20227,47.35607],[9.20441,47.35459],[9.20186,47.35041],[9.19865,47.34778],[9.20569,47.3423],[9.20653,47.33904],[9.21099,47.34107],[9.22495,47.34237],[9.22744,47.33863],[9.23055,47.33633],[9.23272,47.33089],[9.22347,47.32719],[9.22268,47.326],[9.21614,47.32487],[9.21035,47.32168],[9.21301,47.3197],[9.21427,47.31327],[9.21776,47.30801],[9.21599,47.30251],[9.21732,47.3003],[9.22432,47.29287],[9.22236,47.28948],[9.21711,47.28451],[9.21335,47.28337],[9.20822,47.28014],[9.20626,47.27639],[9.22207,47.26899],[9.23273,47.26556],[9.24142,47.26467],[9.2475,47.26608],[9.25141,47.26566],[9.25644,47.26334],[9.2631,47.26564],[9.26717,47.2685],[9.2755,47.26855],[9.2791,47.26667],[9.2841,47.26566],[9.28971,47.26033],[9.29315,47.26039],[9.29717,47.25741],[9.30465,47.25978],[9.3088,47.2589],[9.30785,47.2553],[9.31439,47.25215],[9.31864,47.24788],[9.3238,47.24702],[9.33236,47.24961],[9.34327,47.24939],[9.33413,47.26272],[9.33275,47.26996],[9.32363,47.28291],[9.31885,47.28577],[9.31853,47.28833],[9.31356,47.29145],[9.31302,47.29615],[9.31711,47.30174],[9.31496,47.30625],[9.31832,47.30953],[9.31547,47.31354],[9.31663,47.31572],[9.31369,47.3216],[9.30979,47.32148],[9.31128,47.32511],[9.3161,47.32717],[9.32897,47.33081],[9.33339,47.34078],[9.33939,47.34385],[9.34625,47.34493],[9.34368,47.35218],[9.34701,47.35403],[9.35708,47.35551],[9.36537,47.35836],[9.36227,47.36122],[9.35686,47.37131],[9.35936,47.37319],[9.3587,47.37814],[9.35021,47.38311],[9.35901,47.38509],[9.3639,47.38428],[9.37703,47.38717],[9.37941,47.38643],[9.37868,47.38052],[9.39041,47.37766],[9.39363,47.38024],[9.39807,47.37892],[9.40206,47.37489],[9.40862,47.37022],[9.41189,47.36876],[9.41773,47.36956],[9.42154,47.36805],[9.43007,47.37103],[9.43059,47.3677],[9.43794,47.3565],[9.44478,47.35696],[9.45,47.35415],[9.45976,47.35008],[9.46575,47.34642],[9.47924,47.34721],[9.48715,47.35025],[9.50292,47.34743],[9.50281,47.3478],[9.50264,47.35382],[9.50146,47.35454],[9.49886,47.36355],[9.50108,47.36813],[9.499,47.36933],[9.50303,47.37499],[9.5033,47.3809],[9.50457,47.38632],[9.50907,47.39459],[9.50956,47.3947],[9.50871,47.39484],[9.50821,47.39551],[9.51151,47.39693],[9.51218,47.40008],[9.51072,47.40246],[9.51643,47.40564],[9.52315,47.40647],[9.53055,47.40895],[9.52375,47.41418],[9.52702,47.41597],[9.52429,47.41835],[9.52461,47.42154],[9.52851,47.42395],[9.53242,47.42379],[9.53743,47.42578],[9.53908,47.42794],[9.53891,47.43173],[9.5453,47.43082],[9.55055,47.4271],[9.55504,47.42629],[9.55404,47.42336],[9.55696,47.41908],[9.56382,47.41679],[9.57625,47.41582],[9.574,47.41399],[9.57382,47.40762],[9.56492,47.4053],[9.56369,47.40799],[9.56023,47.40879],[9.55324,47.40774],[9.54878,47.41001],[9.54239,47.4082],[9.54586,47.40629],[9.55111,47.39912],[9.55291,47.3981],[9.55398,47.39739],[9.55529,47.39645],[9.55624,47.39676],[9.56565,47.40042],[9.57638,47.40627],[9.57761,47.40697],[9.58166,47.40838],[9.58291,47.40929],[9.58308,47.4094],[9.58188,47.41033],[9.58534,47.41326],[9.58166,47.41513],[9.58223,47.41993],[9.5762,47.42143],[9.57232,47.42077],[9.56891,47.42091],[9.5673,47.4223],[9.5736,47.42413],[9.56993,47.42905],[9.56373,47.42891],[9.55813,47.43282],[9.56187,47.4363],[9.56351,47.437],[9.56675,47.43841],[9.56907,47.43792],[9.56991,47.4348],[9.57525,47.43385],[9.59086,47.43525],[9.59322,47.43396],[9.60241,47.43641],[9.61552,47.43725],[9.62059,47.43809]]]},"properties":{"id":"CH-AR","name":"Appenzell Ausserrhoden"}}
]}