{"type":"FeatureCollection", "features": [
{"type":"Feature","geometry":{"type":"Polygon","coordinates":[[[8.41008,47.24838],[8.40764,47.25074],[8.40361,47.25364],[8.40311,47.25423],[8.40274,47.255],[8.40263,47.25582],[8.40277,47.25656],[8.4043,47.25905],[8.4036,47.26206],[8.40062,47.26601],[8.40227,47.27039],[8.40083,47.27385],[8.3965,47.27672],[8.39415,47.27967],[8.39113,47.28745],[8.38865,47.29003],[8.39271,47.29091],[8.39723,47.2879],[8.40704,47.29247],[8.41723,47.29386],[8.42158,47.29778],[8.42798,47.30035],[8.43208,47.30838],[8.43205,47.31154],[8.43596,47.31416],[8.44132,47.31583],[8.44053,47.31785],[8.4458,47.31999],[8.44917,47.32335],[8.44852,47.32597],[8.45474,47.33301],[8.45101,47.33362],[8.44985,47.33049],[8.44354,47.32922],[8.44208,47.32742],[8.43673,47.32675],[8.43478,47.32532],[8.42944,47.32736],[8.41904,47.32473],[8.41243,47.32713],[8.41674,47.3338],[8.41372,47.33804],[8.40732,47.34157],[8.40387,47.34657],[8.40738,47.35554],[8.40727,47.36002],[8.4054,47.36498],[8.4082,47.36665],[8.40704,47.37023],[8.40298,47.37],[8.40056,47.37152],[8.40077,47.3742],[8.39639,47.37704],[8.39495,47.38072],[8.39469,47.38998],[8.39657,47.39386],[8.39191,47.39584],[8.38976,47.39465],[8.38249,47.39541],[8.37991,47.39963],[8.36639,47.39882],[8.36329,47.401],[8.36583,47.40251],[8.37609,47.4048],[8.37926,47.40241],[8.38462,47.40622],[8.38114,47.40938],[8.38497,47.41447],[8.38176,47.41627],[8.3838,47.41803],[8.38755,47.41636],[8.39145,47.41977],[8.39138,47.42342],[8.38763,47.42796],[8.3776,47.42932],[8.37467,47.43225],[8.3771,47.43383],[8.38287,47.4329],[8.38504,47.43594],[8.38196,47.44049],[8.38102,47.44637],[8.38176,47.4487],[8.38666,47.44973],[8.38443,47.45491],[8.3802,47.45614],[8.37889,47.45927],[8.37284,47.45918],[8.36954,47.4634],[8.3678,47.47036],[8.37533,47.47114],[8.3736,47.47486],[8.37327,47.48147],[8.36328,47.48086],[8.362,47.48575],[8.36266,47.49061],[8.36085,47.49561],[8.35828,47.49748],[8.36216,47.49956],[8.35769,47.50252],[8.35907,47.5061],[8.36165,47.50782],[8.36123,47.5101],[8.37466,47.51218],[8.3788,47.51367],[8.38037,47.51597],[8.3814,47.52491],[8.3842,47.5282],[8.38665,47.52887],[8.39333,47.52572],[8.39573,47.52832],[8.39486,47.53148],[8.40443,47.53431],[8.4024,47.53738],[8.40606,47.54035],[8.41041,47.54549],[8.41271,47.54625],[8.41694,47.55027],[8.41454,47.55216],[8.41875,47.56516],[8.42568,47.56786],[8.41449,47.57122],[8.40785,47.57437],[8.40005,47.5769],[8.39483,47.57658],[8.38822,47.57166],[8.38546,47.56717],[8.38164,47.56583],[8.3711,47.5684],[8.36459,47.56885],[8.35874,47.57013],[8.34746,47.57081],[8.33975,47.57035],[8.3292,47.57105],[8.32433,47.57268],[8.31936,47.576],[8.314,47.58118],[8.30889,47.58422],[8.30304,47.58579],[8.29776,47.58924],[8.29585,47.5919],[8.29554,47.59641],[8.29777,47.60435],[8.29673,47.60653],[8.28872,47.61023],[8.27926,47.61171],[8.27369,47.61111],[8.26759,47.60932],[8.26284,47.61045],[8.25938,47.61522],[8.25351,47.61481],[8.2449,47.61249],[8.23701,47.61218],[8.23058,47.60639],[8.22582,47.60524],[8.22404,47.60699],[8.2208,47.61647],[8.21317,47.62029],[8.20596,47.62107],[8.20116,47.62032],[8.19695,47.61842],[8.19275,47.61516],[8.18646,47.60653],[8.18308,47.60431],[8.17754,47.60294],[8.17282,47.6004],[8.16628,47.59489],[8.16256,47.59359],[8.1527,47.59584],[8.14914,47.59583],[8.13903,47.59069],[8.13754,47.58881],[8.13735,47.58453],[8.13356,47.58333],[8.11885,47.5839],[8.11222,47.58345],[8.10734,47.58089],[8.10257,47.57455],[8.1009,47.56501],[8.09658,47.56059],[8.08931,47.55771],[8.08448,47.55754],[8.07889,47.55909],[8.07325,47.56274],[8.06727,47.56449],[8.06028,47.56369],[8.05738,47.56133],[8.04791,47.55596],[8.03977,47.55349],[8.02728,47.55194],[8.02135,47.55035],[8.01494,47.55121],[8.00564,47.55542],[7.99602,47.55654],[7.9841,47.5553],[7.97252,47.55557],[7.96195,47.55803],[7.95565,47.55678],[7.95201,47.55376],[7.95091,47.549],[7.9469,47.54425],[7.94106,47.54434],[7.93253,47.54693],[7.92403,47.54676],[7.91855,47.54736],[7.91389,47.54939],[7.91052,47.55214],[7.90807,47.55648],[7.90784,47.56203],[7.9107,47.56519],[7.91062,47.57138],[7.90619,47.57764],[7.90055,47.58268],[7.89207,47.58743],[7.88471,47.58883],[7.8762,47.58843],[7.86812,47.58874],[7.86226,47.5879],[7.85421,47.58458],[7.84518,47.58226],[7.83977,47.58228],[7.8322,47.5868],[7.8251,47.58792],[7.81822,47.58623],[7.81372,47.57761],[7.81249,47.57103],[7.80955,47.56773],[7.80484,47.56577],[7.79917,47.56182],[7.79569,47.55738],[7.78245,47.55311],[7.7735,47.55235],[7.75842,47.54847],[7.75223,47.54481],[7.74511,47.54373],[7.72,47.54185],[7.71353,47.53964],[7.71669,47.53576],[7.72306,47.53676],[7.72584,47.53351],[7.73365,47.53239],[7.73798,47.52733],[7.74903,47.52499],[7.75262,47.52574],[7.76226,47.52537],[7.7848,47.52049],[7.78764,47.52012],[7.79015,47.51864],[7.79018,47.51601],[7.78769,47.51382],[7.78918,47.51047],[7.78888,47.50683],[7.79234,47.50372],[7.79281,47.50069],[7.78916,47.49632],[7.78984,47.49336],[7.79444,47.49627],[7.7989,47.49565],[7.80224,47.49698],[7.80743,47.49714],[7.81559,47.50485],[7.82327,47.50954],[7.8287,47.51404],[7.83199,47.51474],[7.83315,47.51879],[7.83323,47.53033],[7.83677,47.53428],[7.84654,47.53267],[7.85234,47.53524],[7.85732,47.53321],[7.86258,47.52692],[7.8644,47.52213],[7.86397,47.51931],[7.86946,47.51933],[7.87153,47.52191],[7.87667,47.52269],[7.87509,47.51757],[7.87803,47.51389],[7.88409,47.50849],[7.89387,47.50619],[7.89446,47.50253],[7.89832,47.50121],[7.89958,47.49618],[7.90478,47.49218],[7.90483,47.48491],[7.9117,47.48484],[7.91803,47.48265],[7.93258,47.48142],[7.94702,47.48489],[7.94451,47.48125],[7.94496,47.47732],[7.94243,47.4682],[7.94004,47.46202],[7.94886,47.46378],[7.9563,47.45924],[7.95761,47.45849],[7.9566,47.45628],[7.95684,47.45521],[7.95839,47.45533],[7.95959,47.45479],[7.95955,47.45505],[7.96053,47.45606],[7.96045,47.45731],[7.96292,47.45964],[7.96792,47.46249],[7.97429,47.45955],[7.97661,47.45421],[7.97489,47.452],[7.98062,47.44891],[7.98377,47.44324],[7.98369,47.43745],[7.98533,47.43186],[7.98728,47.42874],[7.98548,47.42277],[7.98385,47.42831],[7.98015,47.42755],[7.96321,47.42236],[7.97228,47.41895],[7.98228,47.41356],[7.98948,47.41415],[7.99148,47.4112],[8.00177,47.40946],[8.00727,47.40659],[8.01006,47.4012],[8.01019,47.397],[8.01005,47.39617],[8.00981,47.3957],[8.01472,47.39479],[8.01998,47.39399],[8.02034,47.39581],[8.02657,47.39562],[8.03138,47.38369],[8.0271,47.37066],[8.02616,47.36867],[8.02398,47.36523],[8.01944,47.3638],[8.01674,47.36061],[8.01048,47.35695],[8.01283,47.35433],[8.01183,47.34982],[8.00385,47.34532],[8.00737,47.33931],[8.0052,47.33675],[7.99562,47.33323],[7.99095,47.33281],[7.98732,47.32957],[7.97783,47.32598],[7.97651,47.32344],[7.95863,47.32027],[7.94834,47.31811],[7.94709,47.32225],[7.94883,47.32957],[7.94713,47.33234],[7.93772,47.33248],[7.91922,47.33395],[7.91819,47.33532],[7.90935,47.34096],[7.9037,47.3362],[7.89686,47.32766],[7.89609,47.32393],[7.8981,47.31983],[7.89125,47.31535],[7.88983,47.31233],[7.88383,47.31103],[7.87946,47.31172],[7.87675,47.31192],[7.87365,47.31173],[7.87261,47.31133],[7.86934,47.30937],[7.86761,47.30861],[7.86416,47.30771],[7.86283,47.30718],[7.8606,47.30572],[7.85966,47.30432],[7.85849,47.30092],[7.85751,47.29943],[7.85597,47.29764],[7.85367,47.29277],[7.84877,47.28761],[7.84479,47.28202],[7.84383,47.27703],[7.84181,47.27447],[7.83318,47.26788],[7.82642,47.26609],[7.82511,47.26557],[7.82553,47.26515],[7.82566,47.26449],[7.82777,47.2643],[7.82862,47.26278],[7.82754,47.261],[7.82935,47.2601],[7.82916,47.25873],[7.82979,47.25545],[7.82602,47.25194],[7.82813,47.2499],[7.82661,47.24724],[7.82665,47.2465],[7.83422,47.23768],[7.83718,47.23594],[7.83867,47.23482],[7.85322,47.23243],[7.8674,47.2373],[7.89728,47.2431],[7.91011,47.24395],[7.92117,47.23791],[7.93349,47.2359],[7.93982,47.24044],[7.94598,47.24326],[7.95414,47.24978],[7.96189,47.25406],[7.95897,47.25623],[7.9585,47.25937],[7.95542,47.26056],[7.95453,47.26339],[7.94917,47.27254],[7.95064,47.27478],[7.95603,47.27686],[7.97167,47.27612],[7.97346,47.27449],[7.98689,47.27602],[7.9953,47.28155],[8.0048,47.27437],[8.00523,47.2693],[8.01034,47.26417],[8.01682,47.25932],[8.0169,47.25002],[8.0158,47.24413],[8.02195,47.24229],[8.0301,47.24222],[8.05107,47.24473],[8.06298,47.24667],[8.0577,47.25179],[8.05658,47.25544],[8.0627,47.25666],[8.06597,47.25494],[8.07267,47.25505],[8.07727,47.25758],[8.07838,47.26004],[8.08836,47.26288],[8.09878,47.26019],[8.10594,47.25211],[8.10578,47.24942],[8.10909,47.24455],[8.11958,47.24386],[8.12512,47.24138],[8.13117,47.24392],[8.13559,47.24694],[8.14669,47.2475],[8.15834,47.24974],[8.16516,47.25018],[8.17491,47.25354],[8.17955,47.25065],[8.18076,47.24739],[8.17508,47.2401],[8.16795,47.24088],[8.16166,47.24062],[8.15595,47.23942],[8.16187,47.23615],[8.15971,47.23314],[8.16558,47.22844],[8.17412,47.22749],[8.17599,47.2219],[8.18471,47.22237],[8.18618,47.22265],[8.19402,47.22631],[8.20506,47.22599],[8.20332,47.23144],[8.20359,47.23619],[8.20572,47.2414],[8.20449,47.24263],[8.20774,47.24734],[8.21253,47.2498],[8.21975,47.25216],[8.22858,47.27342],[8.24239,47.27232],[8.241,47.27601],[8.24463,47.28076],[8.24867,47.2812],[8.24895,47.28444],[8.25261,47.28653],[8.25948,47.28689],[8.26174,47.28254],[8.27069,47.28348],[8.27157,47.2809],[8.27953,47.28098],[8.28538,47.27999],[8.28967,47.27746],[8.2959,47.27239],[8.30026,47.27148],[8.29444,47.26557],[8.29603,47.25941],[8.30115,47.25226],[8.30486,47.25239],[8.31172,47.24546],[8.31484,47.23973],[8.31396,47.23727],[8.317,47.22498],[8.32073,47.22183],[8.31946,47.21562],[8.3252,47.21471],[8.32852,47.20441],[8.33009,47.20235],[8.32986,47.19852],[8.33383,47.1924],[8.33821,47.18858],[8.33867,47.17827],[8.34408,47.17302],[8.34605,47.16897],[8.35517,47.15864],[8.35836,47.15662],[8.35836,47.15329],[8.36065,47.15226],[8.36218,47.1461],[8.37397,47.14307],[8.37609,47.13925],[8.38275,47.14003],[8.38998,47.13977],[8.39818,47.13803],[8.40889,47.13858],[8.41222,47.14057],[8.41402,47.14279],[8.41454,47.14391],[8.41492,47.14571],[8.41473,47.14751],[8.4142,47.14885],[8.41225,47.15235],[8.4124,47.15507],[8.41517,47.15858],[8.41538,47.1628],[8.41531,47.16413],[8.41498,47.1655],[8.41207,47.17288],[8.40867,47.17556],[8.40301,47.17647],[8.40036,47.18304],[8.40088,47.18811],[8.4048,47.19347],[8.4053,47.19573],[8.40231,47.2011],[8.4005,47.20833],[8.40103,47.21383],[8.39631,47.22053],[8.39485,47.22574],[8.39901,47.2322],[8.4051,47.23606],[8.4069,47.24113],[8.41016,47.24445],[8.41008,47.24838]]]},"properties":{"id":"CH-AG","name":"Aargau"}}
]}