{"type":"FeatureCollection", "features": [
{"type":"Feature","geometry":{"type":"MultiPolygon","coordinates":[[[[9.61783,47.43767],[9.61552,47.43725],[9.60241,47.43641],[9.59322,47.43396],[9.59086,47.43525],[9.57525,47.43385],[9.56991,47.4348],[9.56907,47.43792],[9.56675,47.43841],[9.56351,47.437],[9.56187,47.4363],[9.55813,47.43282],[9.56373,47.42891],[9.56993,47.42905],[9.5736,47.42413],[9.5673,47.4223],[9.56891,47.42091],[9.57232,47.42077],[9.5762,47.42143],[9.58223,47.41993],[9.58166,47.41513],[9.58534,47.41326],[9.58188,47.41033],[9.58567,47.4106],[9.58987,47.41168],[9.59632,47.41154],[9.60231,47.41411],[9.60482,47.41437],[9.59706,47.41839],[9.58876,47.42162],[9.58866,47.42531],[9.5983,47.42916],[9.60623,47.43151],[9.60849,47.43332],[9.61295,47.43418],[9.61464,47.43568],[9.61645,47.43664],[9.6184,47.43655],[9.61783,47.43767]]],[[[9.55529,47.39645],[9.55398,47.39739],[9.55291,47.3981],[9.55111,47.39912],[9.54586,47.40629],[9.54239,47.4082],[9.54878,47.41001],[9.55324,47.40774],[9.56023,47.40879],[9.56369,47.40799],[9.56492,47.4053],[9.57382,47.40762],[9.574,47.41399],[9.57625,47.41582],[9.56382,47.41679],[9.55696,47.41908],[9.55404,47.42336],[9.55504,47.42629],[9.55055,47.4271],[9.5453,47.43082],[9.53891,47.43173],[9.53908,47.42794],[9.53743,47.42578],[9.53242,47.42379],[9.52851,47.42395],[9.52461,47.42154],[9.52429,47.41835],[9.52702,47.41597],[9.52375,47.41418],[9.53055,47.40895],[9.52315,47.40647],[9.51643,47.40564],[9.51072,47.40246],[9.51218,47.40008],[9.51151,47.39693],[9.50821,47.39551],[9.50871,47.39484],[9.50956,47.3947],[9.5112,47.39507],[9.52951,47.39758],[9.5366,47.3994],[9.54191,47.39957],[9.54536,47.39846],[9.54539,47.3943],[9.5493,47.39308],[9.55327,47.39401],[9.55383,47.39456],[9.55537,47.39592],[9.55529,47.39645]]],[[[9.34327,47.24939],[9.34369,47.24774],[9.351,47.24436],[9.35861,47.24431],[9.36489,47.24331],[9.37493,47.23707],[9.38202,47.23399],[9.39621,47.23735],[9.40244,47.23769],[9.40992,47.24394],[9.41892,47.24761],[9.42624,47.24711],[9.42983,47.24921],[9.43671,47.25098],[9.44199,47.25328],[9.45005,47.25842],[9.45111,47.26003],[9.45773,47.26346],[9.46125,47.2641],[9.46435,47.26584],[9.46655,47.26824],[9.4729,47.27166],[9.47653,47.27669],[9.48021,47.28013],[9.48052,47.28069],[9.48334,47.28267],[9.48776,47.28829],[9.48685,47.29071],[9.48934,47.2947],[9.49069,47.30076],[9.48887,47.3018],[9.49626,47.30601],[9.4929,47.31067],[9.49343,47.31453],[9.49841,47.3187],[9.50114,47.32818],[9.50068,47.32965],[9.50232,47.33148],[9.50203,47.33207],[9.50268,47.3344],[9.50303,47.34494],[9.50292,47.34743],[9.48715,47.35025],[9.47924,47.34721],[9.46575,47.34642],[9.45976,47.35008],[9.45,47.35415],[9.44478,47.35696],[9.43794,47.3565],[9.43059,47.3677],[9.43007,47.37103],[9.42154,47.36805],[9.41773,47.36956],[9.41189,47.36876],[9.40862,47.37022],[9.40206,47.37489],[9.39807,47.37892],[9.39363,47.38024],[9.39041,47.37766],[9.37868,47.38052],[9.37941,47.38643],[9.37703,47.38717],[9.3639,47.38428],[9.35901,47.38509],[9.35021,47.38311],[9.3587,47.37814],[9.35936,47.37319],[9.35686,47.37131],[9.36227,47.36122],[9.36537,47.35836],[9.35708,47.35551],[9.34701,47.35403],[9.34368,47.35218],[9.34625,47.34493],[9.33939,47.34385],[9.33339,47.34078],[9.32897,47.33081],[9.3161,47.32717],[9.31128,47.32511],[9.30979,47.32148],[9.31369,47.3216],[9.31663,47.31572],[9.31547,47.31354],[9.31832,47.30953],[9.31496,47.30625],[9.31711,47.30174],[9.31302,47.29615],[9.31356,47.29145],[9.31853,47.28833],[9.31885,47.28577],[9.32363,47.28291],[9.33275,47.26996],[9.33413,47.26272],[9.34327,47.24939]]]]},"properties":{"id":"CH-AI","name":"Appenzell Innerrhoden"}}
]}