{"type":"FeatureCollection", "features": [
{"type":"Feature","geometry":{"type":"Polygon","coordinates":[[[7.55466,47.56437],[7.55793,47.56262],[7.56457,47.55722],[7.56125,47.55173],[7.55876,47.55236],[7.55589,47.54434],[7.56479,47.54569],[7.5757,47.54396],[7.58148,47.54383],[7.58727,47.54191],[7.58593,47.53741],[7.5827,47.53247],[7.58993,47.52668],[7.59025,47.5198],[7.59479,47.5193],[7.60177,47.52535],[7.60919,47.53502],[7.61429,47.53945],[7.61817,47.54081],[7.62231,47.53978],[7.62297,47.5493],[7.61759,47.55485],[7.61762,47.55865],[7.62737,47.56152],[7.62878,47.56169],[7.63152,47.56165],[7.63396,47.56123],[7.63613,47.56392],[7.64127,47.56127],[7.64828,47.55994],[7.65876,47.56448],[7.67071,47.56582],[7.67246,47.56373],[7.67911,47.5695],[7.68711,47.56839],[7.68966,47.5714],[7.68368,47.57391],[7.68086,47.58269],[7.67208,47.58525],[7.67175,47.58728],[7.67959,47.59225],[7.68473,47.59664],[7.68302,47.5985],[7.67807,47.59536],[7.67518,47.59199],[7.66734,47.59195],[7.65507,47.5954],[7.64568,47.59696],[7.64179,47.5942],[7.64325,47.59135],[7.63964,47.59037],[7.62803,47.58137],[7.61914,47.57688],[7.61321,47.57816],[7.60489,47.57788],[7.60482,47.58494],[7.59847,47.58764],[7.58904,47.5899],[7.58573,47.58409],[7.58466,47.57552],[7.57886,47.57667],[7.57525,47.57614],[7.56649,47.57767],[7.56544,47.57622],[7.5569,47.57247],[7.55933,47.56939],[7.5573,47.56503],[7.55466,47.56437]]]},"properties":{"id":"CH-BS","name":"Basel-Stadt"}}
]}