{"type":"FeatureCollection", "features": [
{"type":"Feature","geometry":{"type":"MultiPolygon","coordinates":[[[[7.11969,46.90055],[7.12304,46.9002],[7.12446,46.90276],[7.13484,46.90753],[7.13844,46.90754],[7.136,46.91165],[7.13466,46.91939],[7.12625,46.91792],[7.12528,46.91897],[7.11485,46.91584],[7.11323,46.91056],[7.11705,46.90795],[7.11969,46.90055]]],[[[7.55835,47.32236],[7.56171,47.32143],[7.56873,47.32435],[7.57215,47.32895],[7.55981,47.34266],[7.55221,47.34531],[7.54996,47.34086],[7.54528,47.3396],[7.53448,47.33455],[7.53349,47.33126],[7.53034,47.32755],[7.52776,47.32268],[7.53148,47.3211],[7.54762,47.32158],[7.55416,47.32325],[7.55835,47.32236]]],[[[7.36552,47.29382],[7.3744,47.29455],[7.37714,47.29567],[7.38209,47.29527],[7.39589,47.29818],[7.39473,47.29546],[7.38975,47.29198],[7.3898,47.28939],[7.3924,47.28599],[7.39249,47.27795],[7.38937,47.27481],[7.39342,47.26784],[7.39246,47.25707],[7.38909,47.25599],[7.38152,47.25589],[7.37486,47.25627],[7.36872,47.25854],[7.36401,47.25614],[7.35649,47.2538],[7.34535,47.24776],[7.34057,47.25503],[7.33749,47.25851],[7.3412,47.26131],[7.33739,47.2625],[7.33721,47.26806],[7.33972,47.26944],[7.35389,47.27111],[7.35402,47.27267],[7.34857,47.27808],[7.34787,47.28053],[7.34486,47.28186],[7.33923,47.28227],[7.33546,47.28828],[7.32994,47.2873],[7.32918,47.28888],[7.32346,47.28738],[7.31073,47.28847],[7.30167,47.28753],[7.29174,47.2858],[7.27779,47.28417],[7.26298,47.2871],[7.25826,47.2856],[7.24258,47.28522],[7.23228,47.2882],[7.22345,47.28814],[7.21488,47.28997],[7.21019,47.28884],[7.20621,47.29199],[7.206,47.29547],[7.19456,47.29581],[7.17464,47.29407],[7.16882,47.2945],[7.1681,47.29165],[7.16473,47.28896],[7.16521,47.28636],[7.16902,47.28599],[7.16821,47.28267],[7.16868,47.27473],[7.16041,47.27206],[7.15507,47.27133],[7.14874,47.26904],[7.14567,47.26532],[7.14748,47.26165],[7.14311,47.25948],[7.14277,47.25575],[7.14824,47.25625],[7.1492,47.25386],[7.15324,47.25099],[7.15579,47.24755],[7.13976,47.24318],[7.12899,47.24502],[7.11961,47.24402],[7.11148,47.2419],[7.10336,47.24311],[7.09726,47.23954],[7.09622,47.23703],[7.08841,47.23702],[7.08572,47.23998],[7.08882,47.24157],[7.08518,47.24538],[7.0796,47.24341],[7.07952,47.24776],[7.06855,47.24408],[7.06165,47.24325],[7.05723,47.24104],[7.05629,47.23782],[7.05867,47.23119],[7.05524,47.22936],[7.04735,47.22706],[7.04367,47.22302],[7.04429,47.22186],[7.03683,47.21341],[7.03029,47.20228],[7.02345,47.19571],[7.00918,47.19385],[6.99643,47.19333],[6.99454,47.18782],[6.98975,47.18299],[6.98557,47.17656],[6.98077,47.17429],[6.97703,47.17494],[6.97052,47.18134],[6.96039,47.18205],[6.95611,47.18066],[6.95542,47.18389],[6.95216,47.18735],[6.94142,47.18453],[6.9382,47.17516],[6.92989,47.16936],[6.91388,47.16268],[6.90609,47.15715],[6.89579,47.1542],[6.89239,47.1538],[6.88372,47.15041],[6.88247,47.15315],[6.87962,47.15427],[6.87988,47.15847],[6.87687,47.16087],[6.87197,47.17412],[6.86332,47.16845],[6.86149,47.16563],[6.87219,47.15129],[6.88013,47.14182],[6.88129,47.13958],[6.8888,47.13113],[6.881,47.10839],[6.87179,47.10286],[6.86838,47.09229],[6.86686,47.08512],[6.88608,47.092],[6.89426,47.09599],[6.90784,47.1013],[6.91573,47.10379],[6.92659,47.10915],[6.92983,47.1126],[6.93634,47.10873],[6.9399,47.10916],[6.94834,47.11242],[6.96032,47.11394],[6.96961,47.1146],[6.98862,47.11731],[6.99785,47.1194],[7.00776,47.12423],[7.0106,47.12323],[7.01588,47.12399],[7.02559,47.12414],[7.02853,47.12692],[7.03824,47.12644],[7.03996,47.12465],[7.03138,47.11963],[7.02349,47.1122],[7.02873,47.10368],[7.04061,47.10901],[7.04929,47.10499],[7.05714,47.09969],[7.06325,47.09955],[7.07568,47.09626],[7.08682,47.0857],[7.08705,47.08155],[7.077,47.07596],[7.08052,47.07321],[7.08033,47.06717],[7.08566,47.06277],[7.08765,47.05974],[7.07818,47.05193],[7.0719,47.04897],[7.06609,47.04532],[7.05398,47.04344],[7.05058,47.04231],[7.04036,47.03697],[7.03434,47.03168],[7.03319,47.02932],[7.03366,47.01833],[7.03095,47.01098],[7.02555,47.00582],[7.04016,46.97984],[7.05168,46.97757],[7.05778,46.97687],[7.0923,46.97613],[7.14892,46.98528],[7.15608,46.98604],[7.19391,46.99954],[7.20068,47.00166],[7.20509,47.00626],[7.21024,47.00395],[7.21299,47.00681],[7.21771,47.00607],[7.22323,46.99927],[7.22642,46.99697],[7.22222,46.99316],[7.22595,46.9924],[7.23486,46.98676],[7.23457,46.98434],[7.22844,46.9785],[7.21686,46.97272],[7.21422,46.96693],[7.20745,46.96751],[7.20646,46.96413],[7.19552,46.96416],[7.19459,46.96135],[7.20001,46.95909],[7.20629,46.95984],[7.211,46.95658],[7.20885,46.95435],[7.20772,46.94917],[7.21027,46.94686],[7.20951,46.94188],[7.20359,46.94054],[7.20423,46.93742],[7.21268,46.92845],[7.2111,46.92527],[7.20692,46.92481],[7.20559,46.91996],[7.20699,46.91617],[7.20599,46.91266],[7.20781,46.90913],[7.20433,46.90631],[7.19879,46.90376],[7.1926,46.90233],[7.18968,46.9003],[7.19531,46.89901],[7.19995,46.90246],[7.21026,46.90242],[7.21244,46.90173],[7.21755,46.89735],[7.22208,46.90183],[7.22864,46.90361],[7.23203,46.90029],[7.23633,46.89809],[7.24314,46.89792],[7.24433,46.90037],[7.25088,46.89887],[7.25931,46.89797],[7.26634,46.89361],[7.27259,46.89249],[7.28176,46.8896],[7.28938,46.89377],[7.29618,46.89377],[7.30181,46.89236],[7.31135,46.89163],[7.32391,46.89363],[7.32754,46.8935],[7.34019,46.89081],[7.35151,46.88817],[7.3535,46.88631],[7.35239,46.87621],[7.35386,46.8713],[7.35839,46.8688],[7.35925,46.86311],[7.34934,46.85331],[7.33999,46.8507],[7.3345,46.85161],[7.32604,46.85163],[7.32301,46.85477],[7.33006,46.8582],[7.32087,46.86154],[7.31258,46.86073],[7.31207,46.85557],[7.30215,46.85204],[7.30613,46.84999],[7.30755,46.84704],[7.32333,46.84041],[7.32421,46.83856],[7.32975,46.83492],[7.33123,46.83177],[7.3302,46.82968],[7.32025,46.82674],[7.32095,46.82185],[7.31746,46.81382],[7.31032,46.80802],[7.30748,46.79876],[7.30159,46.79283],[7.30351,46.78887],[7.30207,46.78638],[7.30447,46.78321],[7.30113,46.78134],[7.30081,46.77905],[7.29639,46.77729],[7.29128,46.77334],[7.29319,46.76826],[7.29594,46.76546],[7.29881,46.76513],[7.30359,46.75919],[7.3032,46.75359],[7.30437,46.74984],[7.3032,46.7455],[7.29686,46.73711],[7.29675,46.72781],[7.29864,46.72403],[7.30277,46.72037],[7.30792,46.71718],[7.30992,46.7181],[7.32819,46.71663],[7.33388,46.71452],[7.34145,46.71421],[7.34951,46.7122],[7.35061,46.70855],[7.34907,46.7049],[7.34625,46.70221],[7.34574,46.69894],[7.36002,46.69795],[7.36257,46.69918],[7.36486,46.69497],[7.36861,46.69261],[7.37694,46.69271],[7.38021,46.69018],[7.37592,46.68776],[7.37775,46.68355],[7.37321,46.68064],[7.37645,46.67503],[7.37114,46.66939],[7.37251,46.66754],[7.3712,46.66366],[7.37106,46.65903],[7.36928,46.65558],[7.37689,46.65584],[7.35841,46.64388],[7.35032,46.64905],[7.35072,46.65163],[7.34557,46.65534],[7.34036,46.65563],[7.32976,46.65462],[7.32325,46.65534],[7.32114,46.65462],[7.32774,46.64633],[7.32969,46.64183],[7.32491,46.63772],[7.32051,46.6368],[7.31326,46.63662],[7.31211,46.6217],[7.31786,46.61857],[7.31818,46.61613],[7.31621,46.60932],[7.31483,46.60042],[7.32073,46.59186],[7.3125,46.58918],[7.30804,46.58132],[7.2992,46.5791],[7.29294,46.58073],[7.2899,46.58157],[7.28135,46.58411],[7.27392,46.57868],[7.26665,46.57156],[7.26385,46.56752],[7.25859,46.56229],[7.25291,46.55876],[7.24705,46.55623],[7.23707,46.55379],[7.23715,46.54635],[7.2389,46.5455],[7.24603,46.53747],[7.24473,46.53319],[7.24682,46.53095],[7.24897,46.51724],[7.24873,46.51287],[7.24499,46.50522],[7.24463,46.50127],[7.24133,46.49704],[7.23437,46.49407],[7.23619,46.48803],[7.22414,46.48689],[7.22498,46.47748],[7.23086,46.46652],[7.2289,46.46233],[7.22889,46.45892],[7.22636,46.45747],[7.23233,46.45394],[7.22597,46.45165],[7.22703,46.44948],[7.22515,46.44428],[7.22257,46.44201],[7.21314,46.43951],[7.20515,46.43915],[7.20051,46.4408],[7.19495,46.44062],[7.19282,46.43376],[7.19915,46.42926],[7.20039,46.42597],[7.20361,46.42207],[7.20987,46.41628],[7.20693,46.40839],[7.20778,46.40298],[7.20453,46.40042],[7.20374,46.39721],[7.19494,46.3849],[7.19372,46.37893],[7.20832,46.37867],[7.20723,46.37349],[7.20963,46.37225],[7.21095,46.3676],[7.2163,46.36177],[7.21965,46.36207],[7.22564,46.36459],[7.22901,46.36235],[7.2262,46.35909],[7.21885,46.35754],[7.2227,46.34857],[7.22149,46.32925],[7.23243,46.32647],[7.24642,46.328],[7.25017,46.33023],[7.25552,46.33251],[7.26272,46.33865],[7.26023,46.34415],[7.26245,46.34939],[7.26063,46.35435],[7.2623,46.35824],[7.28805,46.36572],[7.29052,46.36714],[7.29551,46.36556],[7.29906,46.36645],[7.31029,46.37516],[7.31277,46.37088],[7.31255,46.36322],[7.30823,46.35877],[7.31,46.35567],[7.30783,46.35209],[7.31019,46.34849],[7.31523,46.34386],[7.32628,46.34468],[7.3316,46.34639],[7.33806,46.34696],[7.35094,46.35103],[7.35492,46.35075],[7.36264,46.35667],[7.36766,46.35754],[7.37383,46.36042],[7.37817,46.36407],[7.38006,46.36377],[7.38701,46.36919],[7.39391,46.37377],[7.3994,46.37646],[7.40235,46.37535],[7.40923,46.37713],[7.41686,46.38017],[7.42742,46.38058],[7.43339,46.38508],[7.43863,46.38615],[7.44403,46.38372],[7.45433,46.38321],[7.45911,46.38101],[7.45903,46.37819],[7.46974,46.37812],[7.47333,46.38156],[7.47329,46.38363],[7.4794,46.38527],[7.48142,46.38415],[7.48462,46.37915],[7.48512,46.37253],[7.49041,46.37031],[7.49473,46.37199],[7.49906,46.36986],[7.50245,46.37046],[7.50741,46.37591],[7.51275,46.37617],[7.52696,46.37462],[7.52922,46.37564],[7.53909,46.37785],[7.53857,46.3802],[7.54127,46.3841],[7.55527,46.38898],[7.54699,46.39401],[7.54381,46.39412],[7.53385,46.39737],[7.52861,46.40029],[7.53433,46.40992],[7.5394,46.41175],[7.55127,46.41201],[7.55418,46.41362],[7.56088,46.41331],[7.57209,46.41479],[7.57691,46.41713],[7.58353,46.41732],[7.58645,46.4137],[7.59575,46.41122],[7.60019,46.41597],[7.59739,46.42068],[7.60294,46.42255],[7.60801,46.42531],[7.61023,46.42858],[7.60835,46.43455],[7.61002,46.43695],[7.61848,46.43807],[7.62444,46.4417],[7.62609,46.44508],[7.63721,46.44051],[7.67845,46.42893],[7.69032,46.42467],[7.69361,46.42494],[7.69883,46.41923],[7.70401,46.417],[7.70852,46.4139],[7.7156,46.41482],[7.72187,46.42101],[7.73138,46.42213],[7.73605,46.4249],[7.7408,46.4257],[7.74422,46.42842],[7.75488,46.43306],[7.75623,46.43454],[7.76811,46.43943],[7.77221,46.4423],[7.77797,46.44313],[7.77941,46.44673],[7.78452,46.44907],[7.78599,46.45147],[7.79263,46.4539],[7.79963,46.45902],[7.82547,46.46708],[7.8285,46.47095],[7.83818,46.47478],[7.84429,46.47811],[7.84819,46.47879],[7.85032,46.47726],[7.86367,46.47833],[7.86993,46.47783],[7.87836,46.47868],[7.88706,46.48087],[7.89085,46.48333],[7.89766,46.48243],[7.90228,46.48554],[7.90677,46.48689],[7.91114,46.48659],[7.91679,46.49155],[7.92363,46.4919],[7.92346,46.49507],[7.9275,46.49727],[7.93264,46.49822],[7.93452,46.50328],[7.94177,46.50772],[7.95349,46.50797],[7.96418,46.51268],[7.96759,46.51279],[7.97054,46.51629],[7.97062,46.52115],[7.97294,46.52418],[7.96655,46.53063],[7.96257,46.53676],[7.96368,46.53988],[7.96777,46.54143],[7.9698,46.54489],[7.97958,46.54799],[7.98588,46.54774],[7.9973,46.55851],[8.00045,46.55775],[8.00742,46.56071],[8.01304,46.56227],[8.01607,46.56331],[8.02487,46.56189],[8.03259,46.56218],[8.03502,46.55999],[8.04313,46.55687],[8.05467,46.55571],[8.06209,46.55278],[8.07207,46.55378],[8.0758,46.55555],[8.08697,46.5513],[8.09367,46.55143],[8.09539,46.5489],[8.10183,46.54799],[8.10503,46.54861],[8.11417,46.54669],[8.1178,46.54322],[8.12272,46.54065],[8.1264,46.53717],[8.14049,46.53495],[8.14976,46.53165],[8.16339,46.53206],[8.16957,46.53096],[8.17451,46.53141],[8.17449,46.52422],[8.17899,46.52279],[8.18072,46.52034],[8.18475,46.52036],[8.19117,46.52305],[8.20285,46.52388],[8.20494,46.52293],[8.21053,46.52528],[8.21689,46.52629],[8.24311,46.52678],[8.25282,46.52959],[8.25806,46.5294],[8.26298,46.53348],[8.26846,46.53418],[8.27325,46.53646],[8.27959,46.5361],[8.284,46.53866],[8.28738,46.54309],[8.29974,46.54481],[8.30446,46.54628],[8.31019,46.55126],[8.31663,46.55903],[8.32423,46.56032],[8.32731,46.5599],[8.33661,46.56112],[8.34395,46.56421],[8.35184,46.56946],[8.35152,46.57174],[8.36042,46.57776],[8.36468,46.58248],[8.3606,46.5863],[8.36331,46.59161],[8.36165,46.59852],[8.3619,46.60178],[8.36512,46.60401],[8.36579,46.60671],[8.36853,46.60919],[8.37098,46.6178],[8.36912,46.62031],[8.36931,46.62871],[8.37411,46.63277],[8.37924,46.63363],[8.39007,46.64387],[8.39438,46.64569],[8.39898,46.65405],[8.41027,46.65294],[8.4093,46.65676],[8.40897,46.65944],[8.40907,46.66325],[8.40716,46.66679],[8.40297,46.66815],[8.40053,46.67253],[8.39806,46.67422],[8.3989,46.68155],[8.39736,46.68425],[8.39959,46.68824],[8.39962,46.69287],[8.40833,46.69051],[8.41223,46.69071],[8.41481,46.68744],[8.41995,46.68739],[8.42819,46.68606],[8.43164,46.68689],[8.44081,46.68551],[8.45229,46.68874],[8.45272,46.69269],[8.45507,46.69752],[8.45215,46.7042],[8.45364,46.71087],[8.44813,46.71294],[8.44726,46.71491],[8.44708,46.72706],[8.44972,46.72984],[8.4469,46.73299],[8.442,46.73568],[8.4407,46.73804],[8.44071,46.74444],[8.44377,46.7471],[8.43928,46.75254],[8.43989,46.75336],[8.44356,46.75388],[8.44698,46.75886],[8.44833,46.76342],[8.44613,46.76642],[8.44662,46.77026],[8.44215,46.76988],[8.43844,46.77202],[8.4355,46.77251],[8.43056,46.77215],[8.42804,46.77181],[8.42654,46.77138],[8.42268,46.77043],[8.42109,46.77279],[8.41464,46.77432],[8.40751,46.76955],[8.4008,46.76645],[8.39639,46.7655],[8.39523,46.77151],[8.39117,46.7778],[8.38232,46.78019],[8.37736,46.78582],[8.37081,46.78828],[8.36894,46.78792],[8.3638,46.78607],[8.35992,46.78296],[8.3337,46.78059],[8.3268,46.77613],[8.31156,46.76828],[8.30663,46.76418],[8.29693,46.76024],[8.28349,46.75317],[8.27552,46.75508],[8.26869,46.75431],[8.26668,46.75761],[8.26009,46.76335],[8.25189,46.76608],[8.23907,46.76961],[8.23392,46.76195],[8.22979,46.761],[8.22043,46.7615],[8.21936,46.76353],[8.21209,46.76636],[8.208,46.76946],[8.20324,46.76937],[8.19631,46.76793],[8.1898,46.77031],[8.18582,46.76858],[8.17414,46.76543],[8.1721,46.76414],[8.16794,46.76535],[8.16353,46.76165],[8.15846,46.75924],[8.14967,46.75699],[8.14695,46.75484],[8.12902,46.76653],[8.12183,46.77037],[8.11352,46.7734],[8.10687,46.77288],[8.10235,46.7738],[8.09956,46.77827],[8.09631,46.77953],[8.09078,46.78437],[8.08873,46.78756],[8.07733,46.78594],[8.06945,46.78819],[8.05983,46.78639],[8.05507,46.78844],[8.04694,46.78711],[8.03899,46.78759],[8.03534,46.78937],[8.02559,46.78968],[8.01768,46.78792],[8.00487,46.78321],[7.99575,46.78177],[7.99492,46.77989],[7.98892,46.77645],[7.98458,46.77499],[7.98198,46.77642],[7.97348,46.77837],[7.96951,46.78247],[7.96871,46.78513],[7.96089,46.78874],[7.95781,46.78939],[7.95245,46.79315],[7.95384,46.79578],[7.94675,46.80525],[7.94171,46.80801],[7.92876,46.81647],[7.92239,46.82001],[7.89556,46.83101],[7.87708,46.83707],[7.87272,46.84261],[7.87045,46.84386],[7.87012,46.84757],[7.86762,46.85037],[7.86831,46.85392],[7.86771,46.86017],[7.8695,46.86435],[7.86469,46.86628],[7.86427,46.86956],[7.85727,46.87146],[7.85783,46.87709],[7.85616,46.88085],[7.8586,46.88529],[7.86584,46.88655],[7.87305,46.88967],[7.87296,46.8922],[7.87533,46.89576],[7.88267,46.90353],[7.88027,46.9108],[7.87468,46.91132],[7.87279,46.91295],[7.86703,46.91477],[7.86897,46.91694],[7.87266,46.92429],[7.87693,46.92737],[7.89356,46.93248],[7.8975,46.93464],[7.90239,46.93436],[7.90793,46.93269],[7.91252,46.93309],[7.91526,46.93464],[7.91803,46.93922],[7.92086,46.94182],[7.92168,46.94673],[7.92908,46.94819],[7.93166,46.95051],[7.93257,46.95738],[7.93224,46.96165],[7.93618,46.96441],[7.9401,46.96474],[7.94536,46.96784],[7.94475,46.97748],[7.94876,46.97988],[7.95009,46.9798],[7.95193,46.98104],[7.95244,46.98126],[7.95219,46.98296],[7.94974,46.98717],[7.94838,46.99407],[7.95203,46.99659],[7.95396,47.00201],[7.95621,47.00342],[7.95017,47.00677],[7.94491,47.00538],[7.93267,47.00425],[7.92685,47.00706],[7.92507,47.01037],[7.92202,47.01056],[7.91624,47.00852],[7.90183,47.00625],[7.8999,47.00765],[7.89693,47.01304],[7.90054,47.01798],[7.89328,47.02472],[7.8941,47.02762],[7.89179,47.0305],[7.88887,47.03089],[7.88381,47.03357],[7.88395,47.03717],[7.8816,47.04059],[7.87476,47.04096],[7.86645,47.04979],[7.86602,47.05342],[7.86955,47.05866],[7.87203,47.06535],[7.87728,47.07159],[7.87612,47.07345],[7.87934,47.08029],[7.87827,47.08198],[7.88072,47.0886],[7.87951,47.09552],[7.87481,47.09886],[7.8762,47.10166],[7.87299,47.10537],[7.87495,47.10944],[7.86815,47.11198],[7.86982,47.11556],[7.86693,47.1166],[7.86761,47.1206],[7.8702,47.12283],[7.88491,47.12763],[7.8865,47.13169],[7.89059,47.13763],[7.8901,47.14073],[7.88742,47.14364],[7.88018,47.14914],[7.87745,47.15356],[7.87605,47.1597],[7.87569,47.16186],[7.87926,47.16947],[7.88289,47.17212],[7.88272,47.17395],[7.8822,47.17429],[7.87615,47.18299],[7.86493,47.18839],[7.86299,47.19175],[7.8595,47.19333],[7.86055,47.19622],[7.85949,47.19908],[7.8559,47.20125],[7.84667,47.21498],[7.84168,47.22165],[7.83773,47.22285],[7.83649,47.22765],[7.83819,47.23304],[7.83718,47.23594],[7.83422,47.23768],[7.82665,47.2465],[7.82661,47.24724],[7.82813,47.2499],[7.82602,47.25194],[7.82979,47.25545],[7.82916,47.25873],[7.82935,47.2601],[7.82754,47.261],[7.82862,47.26278],[7.82777,47.2643],[7.82566,47.26449],[7.82553,47.26515],[7.82511,47.26557],[7.82004,47.26342],[7.8182,47.26215],[7.81478,47.26131],[7.80705,47.26326],[7.80458,47.2684],[7.80021,47.26757],[7.79378,47.26149],[7.78769,47.25792],[7.78453,47.25727],[7.77581,47.26144],[7.77461,47.26787],[7.76484,47.26669],[7.75683,47.2581],[7.74929,47.25876],[7.74467,47.25702],[7.73832,47.2599],[7.73267,47.25912],[7.72483,47.26624],[7.72514,47.26931],[7.71562,47.2764],[7.71271,47.27383],[7.70891,47.27945],[7.70557,47.28046],[7.70086,47.28655],[7.68856,47.29045],[7.68497,47.2935],[7.67982,47.29013],[7.67052,47.28757],[7.66051,47.28665],[7.65435,47.28375],[7.64828,47.28199],[7.61421,47.28115],[7.58011,47.27635],[7.58693,47.2697],[7.5937,47.26622],[7.59614,47.26075],[7.59773,47.25414],[7.59594,47.24557],[7.59877,47.24521],[7.60639,47.23905],[7.60951,47.23955],[7.61397,47.2365],[7.61832,47.23143],[7.61911,47.22905],[7.62352,47.22936],[7.62619,47.22632],[7.63529,47.22724],[7.64056,47.2298],[7.64395,47.22545],[7.63918,47.22339],[7.64105,47.22113],[7.64476,47.22046],[7.64665,47.21758],[7.64606,47.21471],[7.65123,47.20671],[7.64723,47.20179],[7.65782,47.20069],[7.66233,47.20096],[7.66275,47.19866],[7.67464,47.1909],[7.67111,47.18452],[7.67781,47.18268],[7.67618,47.17614],[7.67389,47.1743],[7.67287,47.1684],[7.66009,47.1684],[7.65432,47.16327],[7.65127,47.15748],[7.65261,47.1515],[7.65085,47.14985],[7.64511,47.14892],[7.64078,47.1515],[7.63996,47.15356],[7.62909,47.15239],[7.62196,47.15306],[7.61554,47.15658],[7.61454,47.15453],[7.60785,47.15285],[7.5979,47.15161],[7.59244,47.15268],[7.58836,47.15089],[7.58614,47.14755],[7.58209,47.15828],[7.57491,47.16445],[7.56966,47.16289],[7.56552,47.16436],[7.56347,47.16836],[7.55784,47.16803],[7.55689,47.16672],[7.54434,47.16037],[7.54068,47.16364],[7.53524,47.16247],[7.5314,47.163],[7.52056,47.15977],[7.52431,47.1536],[7.52959,47.15072],[7.52975,47.14874],[7.52534,47.14758],[7.52292,47.14254],[7.51914,47.14043],[7.51371,47.13318],[7.51379,47.13001],[7.50972,47.12554],[7.50467,47.12272],[7.49864,47.12144],[7.49232,47.11709],[7.46133,47.10824],[7.46424,47.09905],[7.47083,47.09047],[7.4751,47.08671],[7.47388,47.08565],[7.47105,47.08383],[7.4684,47.07979],[7.46619,47.07856],[7.45803,47.07759],[7.454,47.07598],[7.44586,47.07434],[7.44045,47.07451],[7.44024,47.07629],[7.43542,47.08017],[7.43338,47.08692],[7.43325,47.08956],[7.43504,47.09366],[7.43743,47.09421],[7.434,47.1005],[7.42326,47.09746],[7.42028,47.09967],[7.4122,47.09566],[7.40161,47.09376],[7.39011,47.09225],[7.38945,47.09513],[7.38263,47.09671],[7.37924,47.10621],[7.37589,47.10837],[7.37363,47.11286],[7.37044,47.11538],[7.37197,47.11735],[7.3705,47.12094],[7.37893,47.1241],[7.38368,47.12333],[7.38675,47.1259],[7.38894,47.12341],[7.38997,47.11952],[7.395,47.1217],[7.40375,47.11768],[7.41463,47.12144],[7.42471,47.12201],[7.43326,47.12618],[7.42971,47.13164],[7.42646,47.13134],[7.42375,47.13499],[7.42668,47.13847],[7.42663,47.1411],[7.4345,47.14375],[7.43962,47.14399],[7.44116,47.14589],[7.43996,47.1505],[7.44779,47.15508],[7.45463,47.15633],[7.46302,47.15369],[7.46764,47.15129],[7.47863,47.15446],[7.48206,47.15817],[7.4885,47.16067],[7.49269,47.16327],[7.4902,47.16577],[7.49704,47.17009],[7.48632,47.17306],[7.4805,47.17174],[7.47814,47.17746],[7.47086,47.18133],[7.4752,47.18303],[7.47361,47.18619],[7.47659,47.18809],[7.47573,47.19065],[7.46657,47.19011],[7.45575,47.18883],[7.44882,47.1894],[7.44994,47.18398],[7.44763,47.18109],[7.44325,47.17925],[7.43992,47.18064],[7.43849,47.18435],[7.43329,47.18473],[7.43091,47.18245],[7.43159,47.17605],[7.42605,47.17298],[7.4184,47.17116],[7.41596,47.16538],[7.41182,47.16242],[7.40094,47.16285],[7.39313,47.16036],[7.38297,47.16083],[7.38218,47.16512],[7.38467,47.16611],[7.39192,47.16628],[7.38352,47.1803],[7.37953,47.1851],[7.37514,47.18857],[7.36717,47.19151],[7.36547,47.19446],[7.35448,47.19154],[7.34683,47.20722],[7.34483,47.20721],[7.34197,47.2124],[7.34042,47.21757],[7.34633,47.21916],[7.35724,47.22105],[7.36224,47.21961],[7.37052,47.2239],[7.3745,47.22685],[7.3803,47.2288],[7.3906,47.23123],[7.40169,47.2349],[7.40795,47.23913],[7.41183,47.24056],[7.41549,47.24021],[7.42088,47.24289],[7.41815,47.24538],[7.41633,47.25217],[7.41879,47.25456],[7.4268,47.25608],[7.44101,47.26292],[7.44856,47.2629],[7.46073,47.2645],[7.46585,47.26466],[7.4689,47.26647],[7.47357,47.27178],[7.47588,47.27632],[7.48535,47.28428],[7.4872,47.28386],[7.49834,47.28837],[7.52005,47.29385],[7.53287,47.29454],[7.53787,47.29706],[7.53985,47.29991],[7.53907,47.30198],[7.54695,47.30608],[7.54834,47.31636],[7.55835,47.32236],[7.55064,47.31985],[7.52997,47.31631],[7.52202,47.31369],[7.50993,47.30731],[7.5029,47.3052],[7.49604,47.30212],[7.48637,47.30213],[7.47799,47.30519],[7.47604,47.30707],[7.46748,47.30735],[7.45952,47.30664],[7.44777,47.30836],[7.44177,47.30866],[7.42988,47.30729],[7.42169,47.30706],[7.41984,47.30864],[7.41301,47.30998],[7.41172,47.31331],[7.40584,47.31263],[7.39337,47.3135],[7.39054,47.3131],[7.38038,47.31403],[7.37864,47.31498],[7.36515,47.3093],[7.36033,47.30865],[7.34821,47.30568],[7.35029,47.29963],[7.34223,47.29749],[7.34125,47.29556],[7.34807,47.29231],[7.35616,47.29432],[7.36007,47.29296],[7.36552,47.29382]],[[7.2342,46.92939],[7.2308,46.9295],[7.21854,46.92434],[7.21537,46.93075],[7.21745,46.9331],[7.22938,46.9369],[7.23094,46.93915],[7.23477,46.93828],[7.2342,46.92939]],[[7.7008,47.16178],[7.69566,47.15751],[7.69379,47.15813],[7.69016,47.15256],[7.68011,47.15433],[7.67527,47.15324],[7.67499,47.15644],[7.67954,47.16315],[7.68506,47.16509],[7.69095,47.16481],[7.69442,47.16201],[7.7008,47.16178]]]]},"properties":{"id":"CH-BE","name":"Bern"}}
]}