{"type":"FeatureCollection", "features": [
{"type":"Feature","geometry":{"type":"MultiPolygon","coordinates":[[[[7.37595,47.4141],[7.37902,47.42126],[7.37964,47.4276],[7.38302,47.42998],[7.38235,47.43119],[7.38243,47.43141],[7.38001,47.43237],[7.35851,47.43451],[7.35563,47.4339],[7.34484,47.43614],[7.3387,47.44121],[7.33031,47.44179],[7.32725,47.44005],[7.32815,47.43801],[7.32542,47.43522],[7.32621,47.43206],[7.33217,47.4302],[7.34093,47.42913],[7.34132,47.42655],[7.35539,47.41875],[7.358,47.41816],[7.3587,47.41517],[7.36984,47.41389],[7.37595,47.4141]]],[[[7.55466,47.56437],[7.54686,47.5615],[7.53653,47.55546],[7.53071,47.5542],[7.51886,47.54634],[7.51098,47.54451],[7.50546,47.54439],[7.49979,47.54008],[7.49804,47.53616],[7.50144,47.53218],[7.5023,47.52841],[7.51076,47.529],[7.51936,47.53472],[7.5244,47.53187],[7.52678,47.53288],[7.53096,47.52905],[7.53095,47.52684],[7.52759,47.52176],[7.52346,47.51868],[7.52373,47.51534],[7.51746,47.51729],[7.5113,47.51703],[7.50309,47.51399],[7.50792,47.51082],[7.51167,47.5027],[7.51223,47.49892],[7.51476,47.49777],[7.51994,47.49679],[7.52281,47.49683],[7.53179,47.4974],[7.53261,47.49097],[7.53624,47.49106],[7.53633,47.48384],[7.53313,47.4783],[7.52912,47.47796],[7.52745,47.47391],[7.53069,47.46119],[7.51746,47.46102],[7.50983,47.45867],[7.49822,47.45969],[7.48473,47.4574],[7.48051,47.45549],[7.46814,47.45391],[7.45652,47.44926],[7.44717,47.45696],[7.44577,47.46198],[7.43263,47.45925],[7.42776,47.4573],[7.4288,47.45388],[7.42091,47.44595],[7.42543,47.44329],[7.43785,47.44633],[7.43869,47.4442],[7.44841,47.43774],[7.45117,47.43463],[7.45205,47.43249],[7.45357,47.42993],[7.45559,47.42793],[7.4518,47.42276],[7.45037,47.41779],[7.44841,47.41507],[7.44114,47.41338],[7.43811,47.41274],[7.43537,47.41305],[7.4313,47.41414],[7.42749,47.41448],[7.42075,47.4111],[7.41371,47.41093],[7.40147,47.4119],[7.3876,47.41405],[7.3818,47.4133],[7.37595,47.4141],[7.38406,47.41236],[7.3887,47.40302],[7.39593,47.40339],[7.39894,47.39684],[7.40591,47.39515],[7.41283,47.3948],[7.41481,47.39397],[7.41383,47.38866],[7.41628,47.38481],[7.41167,47.38059],[7.42495,47.37955],[7.43368,47.37943],[7.43733,47.38089],[7.43904,47.38602],[7.44362,47.38897],[7.44134,47.39819],[7.44295,47.402],[7.44783,47.39954],[7.45251,47.40382],[7.45619,47.40347],[7.45764,47.40122],[7.46168,47.40079],[7.46464,47.40255],[7.47134,47.40037],[7.47738,47.40121],[7.47679,47.39603],[7.47817,47.39146],[7.47838,47.39053],[7.48104,47.3888],[7.49233,47.38524],[7.50082,47.38459],[7.50306,47.38502],[7.51072,47.38956],[7.51862,47.38823],[7.5263,47.3984],[7.53044,47.4021],[7.5312,47.40492],[7.52732,47.40851],[7.52606,47.4119],[7.54308,47.41404],[7.55632,47.41426],[7.56608,47.41341],[7.58075,47.41471],[7.57903,47.41711],[7.57437,47.41948],[7.56947,47.42075],[7.56747,47.42595],[7.56916,47.4304],[7.56889,47.43691],[7.57562,47.43675],[7.57843,47.43491],[7.57766,47.43244],[7.58121,47.42878],[7.58491,47.42863],[7.59208,47.43272],[7.60216,47.43125],[7.60743,47.43267],[7.61403,47.43336],[7.61614,47.43762],[7.61647,47.44524],[7.62261,47.45715],[7.62218,47.46196],[7.62483,47.4632],[7.61888,47.46746],[7.61104,47.47002],[7.6045,47.47045],[7.6062,47.47557],[7.60605,47.4806],[7.60884,47.4834],[7.60731,47.4894],[7.61494,47.48924],[7.62415,47.48667],[7.62965,47.48432],[7.63619,47.48403],[7.64097,47.48274],[7.64443,47.48564],[7.64729,47.48481],[7.65367,47.48637],[7.65304,47.48895],[7.64865,47.49183],[7.65337,47.49608],[7.65818,47.49531],[7.66613,47.49687],[7.66543,47.4915],[7.66833,47.48635],[7.67173,47.48453],[7.67699,47.48505],[7.68402,47.48291],[7.69103,47.48161],[7.69622,47.48179],[7.69977,47.48064],[7.70539,47.47585],[7.70867,47.46955],[7.7066,47.46856],[7.70301,47.46402],[7.69993,47.46193],[7.69825,47.45535],[7.69228,47.45422],[7.68501,47.44758],[7.68298,47.43873],[7.68659,47.43367],[7.67981,47.41752],[7.67385,47.41506],[7.66406,47.41002],[7.65755,47.40908],[7.63969,47.41003],[7.63273,47.41003],[7.63509,47.40032],[7.63726,47.38607],[7.63331,47.38534],[7.63559,47.3806],[7.64177,47.38047],[7.64105,47.37829],[7.64319,47.37547],[7.64421,47.36721],[7.66448,47.36888],[7.67894,47.3705],[7.70196,47.37245],[7.72792,47.36886],[7.73416,47.35776],[7.74283,47.34971],[7.7542,47.34317],[7.76643,47.34274],[7.76923,47.34145],[7.76897,47.33892],[7.78238,47.33957],[7.78529,47.33788],[7.79357,47.33905],[7.79538,47.34646],[7.79501,47.34977],[7.79767,47.35579],[7.80217,47.3611],[7.80539,47.36239],[7.82209,47.36321],[7.83055,47.36512],[7.83363,47.36749],[7.83693,47.37271],[7.84013,47.37476],[7.84898,47.37734],[7.84998,47.37835],[7.85873,47.37975],[7.86266,47.38199],[7.86857,47.38128],[7.87611,47.38448],[7.87944,47.38799],[7.87611,47.39038],[7.87195,47.39125],[7.86914,47.39552],[7.87528,47.3976],[7.87771,47.40126],[7.88345,47.40121],[7.88334,47.4061],[7.89023,47.40714],[7.90084,47.40075],[7.90384,47.40247],[7.90975,47.39852],[7.91311,47.40025],[7.92544,47.40298],[7.93267,47.40528],[7.93673,47.40806],[7.93494,47.41177],[7.93888,47.41365],[7.94502,47.41453],[7.9484,47.41627],[7.95427,47.4173],[7.95658,47.41968],[7.96184,47.42184],[7.95004,47.43172],[7.95195,47.43279],[7.94679,47.4432],[7.95052,47.4469],[7.95852,47.45287],[7.95684,47.45521],[7.9566,47.45628],[7.95761,47.45849],[7.9563,47.45924],[7.94886,47.46378],[7.94004,47.46202],[7.94243,47.4682],[7.94496,47.47732],[7.94451,47.48125],[7.94702,47.48489],[7.93258,47.48142],[7.91803,47.48265],[7.9117,47.48484],[7.90483,47.48491],[7.90478,47.49218],[7.89958,47.49618],[7.89832,47.50121],[7.89446,47.50253],[7.89387,47.50619],[7.88409,47.50849],[7.87803,47.51389],[7.87509,47.51757],[7.87667,47.52269],[7.87153,47.52191],[7.86946,47.51933],[7.86397,47.51931],[7.8644,47.52213],[7.86258,47.52692],[7.85732,47.53321],[7.85234,47.53524],[7.84654,47.53267],[7.83677,47.53428],[7.83323,47.53033],[7.83315,47.51879],[7.83199,47.51474],[7.8287,47.51404],[7.82327,47.50954],[7.81559,47.50485],[7.80743,47.49714],[7.80224,47.49698],[7.7989,47.49565],[7.79444,47.49627],[7.78984,47.49336],[7.78916,47.49632],[7.79281,47.50069],[7.79234,47.50372],[7.78888,47.50683],[7.78918,47.51047],[7.78769,47.51382],[7.79018,47.51601],[7.79015,47.51864],[7.78764,47.52012],[7.7848,47.52049],[7.76226,47.52537],[7.75262,47.52574],[7.74903,47.52499],[7.73798,47.52733],[7.73365,47.53239],[7.72584,47.53351],[7.72306,47.53676],[7.71669,47.53576],[7.71353,47.53964],[7.69879,47.53354],[7.69297,47.5324],[7.67832,47.53301],[7.66981,47.53514],[7.66457,47.5388],[7.66172,47.54435],[7.65928,47.54583],[7.65263,47.54682],[7.64732,47.54988],[7.64195,47.55638],[7.6383,47.55935],[7.63523,47.56085],[7.63271,47.56152],[7.63021,47.56171],[7.62737,47.56152],[7.61762,47.55865],[7.61759,47.55485],[7.62297,47.5493],[7.62231,47.53978],[7.61817,47.54081],[7.61429,47.53945],[7.60919,47.53502],[7.60177,47.52535],[7.59479,47.5193],[7.59025,47.5198],[7.58993,47.52668],[7.5827,47.53247],[7.58593,47.53741],[7.58727,47.54191],[7.58148,47.54383],[7.5757,47.54396],[7.56479,47.54569],[7.55589,47.54434],[7.55876,47.55236],[7.56125,47.55173],[7.56457,47.55722],[7.55793,47.56262],[7.55466,47.56437]]]]},"properties":{"id":"CH-BL","name":"Basel-Landschaft"}}
]}