{"type":"FeatureCollection", "features": [
{"type":"Feature","geometry":{"type":"MultiPolygon","coordinates":[[[[7.2342,46.92939],[7.23477,46.93828],[7.23094,46.93915],[7.22938,46.9369],[7.21745,46.9331],[7.21537,46.93075],[7.21854,46.92434],[7.2308,46.9295],[7.2342,46.92939]]],[[[6.77301,46.75137],[6.76827,46.74449],[6.75959,46.73906],[6.75905,46.73747],[6.75265,46.73656],[6.7487,46.73181],[6.75173,46.72823],[6.75782,46.72607],[6.76026,46.7231],[6.76241,46.71737],[6.77066,46.72066],[6.77622,46.72532],[6.7768,46.7287],[6.7827,46.73299],[6.78573,46.74733],[6.7788,46.75121],[6.77611,46.7494],[6.77301,46.75137]]],[[[6.80621,46.72693],[6.81184,46.72853],[6.81748,46.73329],[6.82167,46.73433],[6.83256,46.73502],[6.84418,46.72922],[6.85203,46.72641],[6.85721,46.72602],[6.86187,46.72459],[6.86453,46.72521],[6.86792,46.72842],[6.86616,46.73302],[6.88209,46.74981],[6.87563,46.75389],[6.87699,46.75588],[6.8693,46.75869],[6.86539,46.76257],[6.86064,46.76293],[6.86017,46.7664],[6.85702,46.76792],[6.85442,46.77202],[6.85041,46.77313],[6.84552,46.76766],[6.84547,46.76586],[6.83665,46.76104],[6.82932,46.75607],[6.82907,46.75308],[6.82362,46.74809],[6.82105,46.74444],[6.81548,46.7404],[6.81459,46.73728],[6.8105,46.73744],[6.80595,46.73539],[6.80401,46.73687],[6.79811,46.73406],[6.79351,46.73574],[6.78846,46.72796],[6.79298,46.72556],[6.80621,46.72693]]],[[[6.86569,46.90957],[6.74187,46.82788],[6.76732,46.80879],[6.77696,46.80243],[6.77881,46.80057],[6.78355,46.80266],[6.78668,46.7984],[6.77858,46.79389],[6.78301,46.79339],[6.79308,46.78567],[6.79794,46.78288],[6.80465,46.78564],[6.80922,46.78373],[6.81344,46.78027],[6.82622,46.77426],[6.82806,46.77663],[6.83308,46.77454],[6.83633,46.7761],[6.83949,46.78096],[6.84321,46.77872],[6.85049,46.78235],[6.84922,46.78405],[6.85909,46.788],[6.86389,46.78441],[6.86189,46.78317],[6.86486,46.78057],[6.87955,46.7753],[6.88813,46.77827],[6.8942,46.7773],[6.89912,46.78159],[6.90824,46.78202],[6.91099,46.77971],[6.91544,46.78313],[6.91721,46.78532],[6.91654,46.78868],[6.92083,46.79478],[6.92106,46.79673],[6.92156,46.79711],[6.92545,46.79825],[6.92617,46.79862],[6.92657,46.79919],[6.92733,46.80134],[6.93005,46.80269],[6.93102,46.80355],[6.93157,46.8048],[6.93153,46.80552],[6.93117,46.80609],[6.93073,46.80643],[6.92815,46.80754],[6.92247,46.80869],[6.92,46.81057],[6.91134,46.80313],[6.90494,46.80648],[6.91085,46.81253],[6.9085,46.81624],[6.90768,46.8199],[6.90513,46.82425],[6.9053,46.82597],[6.90697,46.82857],[6.9074,46.83419],[6.91017,46.83877],[6.9204,46.84808],[6.93063,46.85324],[6.92715,46.85454],[6.92416,46.85946],[6.91993,46.86044],[6.91287,46.86594],[6.89647,46.86123],[6.89187,46.86496],[6.90076,46.86637],[6.90953,46.86951],[6.91176,46.86715],[6.92101,46.87133],[6.9108,46.88063],[6.90695,46.87862],[6.90366,46.87943],[6.90107,46.88213],[6.89171,46.88673],[6.86569,46.90957]]],[[[7.04016,46.97984],[7.04034,46.97952],[7.05214,46.97713],[7.06027,46.97324],[7.06304,46.97111],[7.0579,46.96541],[7.05964,46.96308],[7.05961,46.95581],[7.05874,46.9538],[7.06062,46.94902],[7.06129,46.94227],[7.05788,46.93861],[7.08498,46.91235],[7.08827,46.90892],[7.09341,46.90579],[7.08623,46.90192],[7.08884,46.89972],[7.08709,46.8971],[7.07911,46.89617],[7.07594,46.89173],[7.07207,46.88872],[7.06426,46.8871],[7.06196,46.88377],[7.06167,46.87962],[7.06667,46.87975],[7.071,46.87335],[7.06648,46.86825],[7.06253,46.86706],[7.05766,46.86161],[7.05397,46.85624],[7.04908,46.85487],[7.0443,46.84837],[7.03959,46.8483],[7.03745,46.84554],[7.02982,46.85024],[7.02971,46.85268],[7.0341,46.85532],[7.03333,46.85706],[7.03482,46.85813],[7.03905,46.85926],[7.02989,46.86617],[7.03578,46.873],[7.03218,46.87586],[7.02129,46.87668],[7.01533,46.87848],[7.00703,46.873],[6.99933,46.87433],[6.9938,46.87897],[6.9999,46.88188],[7.0095,46.88904],[6.99633,46.89786],[6.98693,46.9046],[6.98116,46.90942],[6.98447,46.91198],[6.98177,46.91358],[6.98749,46.91817],[6.98485,46.92076],[6.97811,46.92341],[6.97422,46.92112],[6.9649,46.92439],[6.96172,46.92748],[6.9282,46.9534],[6.89623,46.92549],[6.92141,46.90557],[6.92677,46.90106],[6.92901,46.89791],[6.92373,46.89533],[6.92549,46.89273],[6.93313,46.89254],[6.93601,46.88879],[6.93837,46.88997],[6.94246,46.88374],[6.94572,46.88305],[6.95054,46.8758],[6.95437,46.87452],[6.9579,46.87078],[6.96023,46.87144],[6.96488,46.86539],[6.96944,46.86734],[6.96116,46.8772],[6.95911,46.87894],[6.95811,46.88145],[6.96175,46.88398],[6.96333,46.88281],[6.97108,46.8851],[6.97531,46.88517],[6.9764,46.88407],[6.97774,46.88422],[6.9889,46.87346],[6.98648,46.87074],[6.97923,46.86577],[6.97694,46.86053],[6.98058,46.85802],[6.97781,46.85496],[6.97932,46.85327],[6.97789,46.84997],[6.98442,46.84672],[6.98866,46.84358],[6.98599,46.84007],[6.98599,46.83516],[6.99236,46.83317],[6.99237,46.8304],[6.9897,46.82641],[6.98511,46.82301],[6.98499,46.82202],[6.98009,46.82286],[6.9783,46.82292],[6.97101,46.82406],[6.96514,46.82824],[6.96105,46.82392],[6.95651,46.81494],[6.95779,46.81121],[6.96469,46.80545],[6.96666,46.8027],[6.95599,46.79342],[6.95756,46.7883],[6.95154,46.78521],[6.95012,46.78278],[6.94346,46.78419],[6.9411,46.7831],[6.93407,46.77659],[6.93124,46.77251],[6.93212,46.77016],[6.92011,46.75986],[6.91443,46.76273],[6.90919,46.75876],[6.90824,46.75722],[6.91475,46.75327],[6.91668,46.75462],[6.92002,46.7513],[6.92925,46.75406],[6.93088,46.75405],[6.93499,46.75052],[6.93796,46.74947],[6.9405,46.74374],[6.93953,46.7416],[6.93594,46.73667],[6.9366,46.73441],[6.93559,46.73322],[6.9304,46.73018],[6.92248,46.72388],[6.92,46.72058],[6.91139,46.71791],[6.90379,46.71339],[6.89905,46.70963],[6.89231,46.70258],[6.8944,46.70124],[6.88959,46.69388],[6.8879,46.69433],[6.88369,46.69001],[6.88101,46.69006],[6.87312,46.68332],[6.8684,46.68573],[6.86533,46.68127],[6.86269,46.68095],[6.86412,46.67677],[6.87171,46.67325],[6.8675,46.66932],[6.86439,46.66476],[6.86833,46.66297],[6.86801,46.66077],[6.86587,46.65894],[6.86302,46.65839],[6.85938,46.65995],[6.85352,46.65546],[6.84522,46.65839],[6.84217,46.65884],[6.84411,46.66084],[6.83838,46.66258],[6.83338,46.66223],[6.83139,46.65983],[6.82741,46.65982],[6.82088,46.6518],[6.81458,46.64747],[6.81343,46.64954],[6.80858,46.65018],[6.80494,46.65013],[6.79878,46.64781],[6.80367,46.64567],[6.80171,46.64421],[6.79882,46.63786],[6.79819,46.63565],[6.79763,46.63556],[6.79692,46.63314],[6.79837,46.63016],[6.80228,46.62775],[6.80346,46.62237],[6.80185,46.61556],[6.80389,46.60903],[6.80194,46.60074],[6.79833,46.59987],[6.8002,46.59362],[6.79894,46.58206],[6.79611,46.57932],[6.7949,46.57532],[6.79948,46.57407],[6.80256,46.57492],[6.80489,46.57793],[6.80794,46.57761],[6.81152,46.58099],[6.8141,46.58567],[6.82059,46.58368],[6.82371,46.57748],[6.83485,46.57534],[6.83986,46.579],[6.84239,46.58244],[6.84856,46.58331],[6.86553,46.57725],[6.87026,46.5721],[6.87446,46.56497],[6.87943,46.56713],[6.8845,46.56195],[6.88816,46.5677],[6.89029,46.56746],[6.89797,46.57059],[6.90165,46.56973],[6.89918,46.56671],[6.89966,46.56349],[6.90227,46.56139],[6.89905,46.55965],[6.89402,46.55958],[6.88885,46.55835],[6.88486,46.55472],[6.87235,46.54483],[6.86924,46.54334],[6.86245,46.53517],[6.85679,46.53829],[6.855,46.54144],[6.85087,46.54112],[6.84445,46.53896],[6.83639,46.5377],[6.82518,46.53802],[6.82665,46.54352],[6.82561,46.54292],[6.82494,46.54203],[6.81827,46.5365],[6.81737,46.53187],[6.81277,46.52616],[6.811,46.52538],[6.81214,46.52402],[6.81533,46.5214],[6.8181,46.51651],[6.82429,46.51208],[6.83034,46.51247],[6.83108,46.51051],[6.83239,46.50544],[6.83783,46.49949],[6.84173,46.49675],[6.84554,46.49667],[6.8489,46.49338],[6.85728,46.49305],[6.86276,46.49385],[6.86634,46.50079],[6.87243,46.50431],[6.88167,46.51257],[6.8953,46.51928],[6.89766,46.51483],[6.89499,46.50928],[6.89685,46.50888],[6.90416,46.5132],[6.91006,46.51235],[6.92178,46.50818],[6.92517,46.50769],[6.9333,46.50189],[6.93674,46.50096],[6.94128,46.50176],[6.946,46.50128],[6.9542,46.50191],[6.95614,46.4995],[6.96341,46.49625],[6.96559,46.49316],[6.97348,46.48923],[6.97237,46.48568],[6.97581,46.4784],[6.98132,46.47539],[6.97782,46.47289],[6.97906,46.46107],[6.98971,46.45286],[6.99211,46.44891],[6.98361,46.43873],[6.98745,46.43794],[6.99282,46.43888],[6.99619,46.44058],[7.0025,46.44344],[7.0172,46.44792],[7.0198,46.45256],[7.02119,46.4586],[7.02023,46.45945],[7.02845,46.46682],[7.03851,46.47432],[7.04406,46.47658],[7.05092,46.48183],[7.05909,46.48523],[7.06108,46.48727],[7.06582,46.48904],[7.0724,46.4864],[7.07758,46.48883],[7.0889,46.48693],[7.09802,46.48841],[7.10036,46.48699],[7.10616,46.49023],[7.10966,46.49434],[7.12279,46.4987],[7.12654,46.50277],[7.13096,46.50465],[7.13626,46.50861],[7.13708,46.51311],[7.14367,46.52211],[7.14501,46.52686],[7.14835,46.52846],[7.15892,46.52691],[7.17284,46.53334],[7.18233,46.53837],[7.18732,46.54259],[7.19342,46.54614],[7.20081,46.54169],[7.20107,46.54],[7.20765,46.53291],[7.20991,46.53415],[7.21688,46.54049],[7.22255,46.54697],[7.22437,46.54826],[7.22555,46.54927],[7.22956,46.55072],[7.23187,46.55109],[7.23338,46.55206],[7.23409,46.55263],[7.2367,46.55379],[7.23707,46.55379],[7.24705,46.55623],[7.25291,46.55876],[7.25859,46.56229],[7.26385,46.56752],[7.26665,46.57156],[7.27392,46.57868],[7.28135,46.58411],[7.2899,46.58157],[7.29294,46.58073],[7.2992,46.5791],[7.30804,46.58132],[7.3125,46.58918],[7.32073,46.59186],[7.31483,46.60042],[7.31621,46.60932],[7.31818,46.61613],[7.31786,46.61857],[7.31211,46.6217],[7.31326,46.63662],[7.32051,46.6368],[7.32491,46.63772],[7.32969,46.64183],[7.32774,46.64633],[7.32114,46.65462],[7.32325,46.65534],[7.32976,46.65462],[7.34036,46.65563],[7.34557,46.65534],[7.35072,46.65163],[7.35032,46.64905],[7.35841,46.64388],[7.37689,46.65584],[7.36928,46.65558],[7.37106,46.65903],[7.3712,46.66366],[7.37251,46.66754],[7.37114,46.66939],[7.37645,46.67503],[7.37321,46.68064],[7.37775,46.68355],[7.37592,46.68776],[7.38021,46.69018],[7.37694,46.69271],[7.36861,46.69261],[7.36486,46.69497],[7.36257,46.69918],[7.36002,46.69795],[7.34574,46.69894],[7.34625,46.70221],[7.34907,46.7049],[7.35061,46.70855],[7.34951,46.7122],[7.34145,46.71421],[7.33388,46.71452],[7.32819,46.71663],[7.30992,46.7181],[7.30792,46.71718],[7.30277,46.72037],[7.29864,46.72403],[7.29675,46.72781],[7.29686,46.73711],[7.3032,46.7455],[7.30437,46.74984],[7.3032,46.75359],[7.30359,46.75919],[7.29881,46.76513],[7.29594,46.76546],[7.29319,46.76826],[7.29128,46.77334],[7.29639,46.77729],[7.30081,46.77905],[7.30113,46.78134],[7.30447,46.78321],[7.30207,46.78638],[7.30351,46.78887],[7.30159,46.79283],[7.30748,46.79876],[7.31032,46.80802],[7.31746,46.81382],[7.32095,46.82185],[7.32025,46.82674],[7.3302,46.82968],[7.33123,46.83177],[7.32975,46.83492],[7.32421,46.83856],[7.32333,46.84041],[7.30755,46.84704],[7.30613,46.84999],[7.30215,46.85204],[7.31207,46.85557],[7.31258,46.86073],[7.32087,46.86154],[7.33006,46.8582],[7.32301,46.85477],[7.32604,46.85163],[7.3345,46.85161],[7.33999,46.8507],[7.34934,46.85331],[7.35925,46.86311],[7.35839,46.8688],[7.35386,46.8713],[7.35239,46.87621],[7.3535,46.88631],[7.35151,46.88817],[7.34019,46.89081],[7.32754,46.8935],[7.32391,46.89363],[7.31135,46.89163],[7.30181,46.89236],[7.29618,46.89377],[7.28938,46.89377],[7.28176,46.8896],[7.27259,46.89249],[7.26634,46.89361],[7.25931,46.89797],[7.25088,46.89887],[7.24433,46.90037],[7.24314,46.89792],[7.23633,46.89809],[7.23203,46.90029],[7.22864,46.90361],[7.22208,46.90183],[7.21755,46.89735],[7.21244,46.90173],[7.21026,46.90242],[7.19995,46.90246],[7.19531,46.89901],[7.18968,46.9003],[7.1926,46.90233],[7.19879,46.90376],[7.20433,46.90631],[7.20781,46.90913],[7.20599,46.91266],[7.20699,46.91617],[7.20559,46.91996],[7.20692,46.92481],[7.2111,46.92527],[7.21268,46.92845],[7.20423,46.93742],[7.20359,46.94054],[7.20951,46.94188],[7.21027,46.94686],[7.20772,46.94917],[7.20885,46.95435],[7.211,46.95658],[7.20629,46.95984],[7.20001,46.95909],[7.19459,46.96135],[7.19552,46.96416],[7.20646,46.96413],[7.20745,46.96751],[7.21422,46.96693],[7.21686,46.97272],[7.22844,46.9785],[7.23457,46.98434],[7.23486,46.98676],[7.22595,46.9924],[7.22222,46.99316],[7.22642,46.99697],[7.22323,46.99927],[7.21771,47.00607],[7.21299,47.00681],[7.21024,47.00395],[7.20509,47.00626],[7.20068,47.00166],[7.19391,46.99954],[7.15608,46.98604],[7.14892,46.98528],[7.0923,46.97613],[7.05778,46.97687],[7.05168,46.97757],[7.04016,46.97984]],[[7.11969,46.90055],[7.11705,46.90795],[7.11323,46.91056],[7.11485,46.91584],[7.12528,46.91897],[7.12625,46.91792],[7.13466,46.91939],[7.136,46.91165],[7.13844,46.90754],[7.13484,46.90753],[7.12446,46.90276],[7.12304,46.9002],[7.11969,46.90055]]]]},"properties":{"id":"CH-FR","name":"Freiburg"}}
]}