{"type":"FeatureCollection", "features": [
{"type":"Feature","geometry":{"type":"Polygon","coordinates":[[[8.93538,46.91985],[8.93988,46.91225],[8.94235,46.90971],[8.94357,46.90616],[8.94859,46.90161],[8.95342,46.90069],[8.95282,46.89835],[8.95729,46.8879],[8.95781,46.8795],[8.95592,46.87533],[8.95038,46.87318],[8.94172,46.87089],[8.93338,46.86534],[8.92313,46.8633],[8.91782,46.86048],[8.90759,46.86022],[8.90017,46.85448],[8.89567,46.84957],[8.88884,46.84825],[8.88399,46.8462],[8.87529,46.84368],[8.8727,46.84209],[8.87437,46.8352],[8.88164,46.82907],[8.88017,46.82008],[8.87557,46.81596],[8.87705,46.81291],[8.88847,46.81442],[8.89182,46.81334],[8.89839,46.81423],[8.90105,46.81175],[8.90812,46.81018],[8.9126,46.81133],[8.91507,46.80592],[8.91407,46.80061],[8.92001,46.79812],[8.92668,46.79777],[8.92789,46.79658],[8.93481,46.79867],[8.94018,46.79942],[8.9449,46.80229],[8.95073,46.8027],[8.9534,46.80501],[8.95775,46.80444],[8.96565,46.80651],[8.97687,46.80763],[8.98071,46.8072],[8.99025,46.80866],[8.99889,46.81082],[9.00902,46.81118],[9.01998,46.81732],[9.0214,46.82174],[9.02543,46.82569],[9.03,46.83303],[9.03441,46.83534],[9.03373,46.83905],[9.03972,46.84726],[9.04608,46.85061],[9.04419,46.85551],[9.04517,46.86498],[9.04838,46.86704],[9.05443,46.86829],[9.06115,46.87382],[9.06472,46.87521],[9.07555,46.87514],[9.07934,46.874],[9.09494,46.87087],[9.09605,46.86685],[9.10361,46.85969],[9.10487,46.85247],[9.10936,46.85082],[9.1199,46.85484],[9.1254,46.85545],[9.12831,46.8588],[9.14056,46.86184],[9.14452,46.86942],[9.14898,46.87232],[9.15227,46.87216],[9.15681,46.87393],[9.15301,46.87983],[9.16123,46.87935],[9.17746,46.87911],[9.18875,46.87746],[9.19873,46.88044],[9.20071,46.88123],[9.2028,46.8831],[9.20636,46.88701],[9.2111,46.8893],[9.21304,46.89195],[9.21797,46.89477],[9.22457,46.90154],[9.2266,46.9056],[9.23456,46.90829],[9.23969,46.9079],[9.24463,46.91429],[9.24747,46.91533],[9.24883,46.9168],[9.25138,46.9216],[9.25023,46.92417],[9.25258,46.92703],[9.25026,46.93463],[9.23914,46.93938],[9.23631,46.94485],[9.23715,46.94781],[9.23656,46.95283],[9.23755,46.95494],[9.24471,46.95647],[9.24607,46.95874],[9.24274,46.96579],[9.24405,46.97117],[9.24681,46.97564],[9.24654,46.97874],[9.24394,46.98087],[9.24658,46.98703],[9.24556,46.9922],[9.24988,46.99521],[9.24968,46.99795],[9.24234,47.00875],[9.24284,47.01465],[9.23636,47.02398],[9.23005,47.02582],[9.22815,47.02839],[9.22194,47.03258],[9.21286,47.03356],[9.20919,47.03563],[9.20166,47.03512],[9.19186,47.03116],[9.18053,47.02592],[9.17521,47.0288],[9.1696,47.02663],[9.15795,47.03062],[9.1563,47.03018],[9.13807,47.03913],[9.15336,47.04727],[9.15969,47.04906],[9.1689,47.04999],[9.17134,47.05257],[9.17454,47.05292],[9.18375,47.05962],[9.18526,47.06423],[9.1903,47.06989],[9.19083,47.07756],[9.18879,47.08548],[9.19022,47.09006],[9.1863,47.09754],[9.18688,47.10224],[9.18862,47.10394],[9.18851,47.10783],[9.19002,47.10992],[9.18884,47.11535],[9.18988,47.1237],[9.1477,47.12891],[9.13592,47.13198],[9.11543,47.13275],[9.1098,47.13143],[9.10192,47.13316],[9.09394,47.13175],[9.06947,47.12981],[9.05381,47.13922],[9.0056,47.17399],[8.99329,47.16378],[8.97531,47.14391],[8.97379,47.14037],[8.96739,47.13663],[8.9693,47.1305],[8.9653,47.12148],[8.96714,47.11918],[8.9719,47.11812],[8.97369,47.1151],[8.96925,47.10868],[8.97064,47.10377],[8.95969,47.10021],[8.95678,47.09581],[8.95415,47.09426],[8.95388,47.09148],[8.9686,47.08713],[8.97599,47.08571],[8.96804,47.0815],[8.9622,47.07649],[8.96177,47.07137],[8.95439,47.06527],[8.95111,47.06085],[8.94807,47.04936],[8.94092,47.04762],[8.93692,47.04366],[8.93055,47.04208],[8.92201,47.03829],[8.9181,47.03791],[8.9094,47.03969],[8.90089,47.03713],[8.90083,47.03202],[8.90362,47.02726],[8.89537,47.02533],[8.89299,47.02364],[8.89495,47.0209],[8.90013,47.02103],[8.91048,47.01704],[8.91163,47.00877],[8.91554,47.00742],[8.91706,47.00344],[8.92209,47.00132],[8.92866,46.99733],[8.93225,46.99108],[8.93639,46.98796],[8.94157,46.98705],[8.94092,46.98471],[8.93225,46.9823],[8.9457,46.96716],[8.94998,46.96702],[8.95744,46.96221],[8.96543,46.96095],[8.96734,46.95761],[8.96237,46.95381],[8.96127,46.94725],[8.95832,46.94441],[8.95533,46.93892],[8.95773,46.93582],[8.95721,46.93383],[8.95993,46.93121],[8.96268,46.931],[8.96319,46.92672],[8.95321,46.92516],[8.9482,46.92538],[8.94319,46.92212],[8.93994,46.92229],[8.93605,46.92029],[8.93538,46.91985]]]},"properties":{"id":"CH-GL","name":"Glarus"}}
]}