{"type":"FeatureCollection", "features": [
{"type":"Feature","geometry":{"type":"MultiPolygon","coordinates":[[[[6.16679,46.34309],[6.1713,46.34057],[6.17224,46.34445],[6.17453,46.34692],[6.18169,46.34369],[6.18443,46.34585],[6.17556,46.35133],[6.1718,46.34984],[6.16679,46.34309]]],[[[6.23232,46.33044],[6.24143,46.34367],[6.20706,46.35506],[6.20206,46.35477],[6.19454,46.3608],[6.18693,46.36054],[6.18025,46.36458],[6.17441,46.36238],[6.17625,46.36005],[6.1711,46.3584],[6.17264,46.35485],[6.17548,46.35374],[6.18032,46.35277],[6.18627,46.34954],[6.19489,46.34862],[6.19313,46.34372],[6.20358,46.33882],[6.20595,46.33914],[6.23232,46.33044]]],[[[6.12579,46.31747],[6.12033,46.31204],[6.12058,46.30606],[6.11897,46.30323],[6.12129,46.30083],[6.12087,46.29701],[6.11632,46.29401],[6.11326,46.29413],[6.11162,46.2915],[6.10239,46.28494],[6.10508,46.28296],[6.10481,46.27823],[6.10853,46.27474],[6.11351,46.27255],[6.1099,46.27058],[6.11808,46.26345],[6.12254,46.25818],[6.1212,46.25397],[6.12447,46.25125],[6.12079,46.24802],[6.10883,46.23987],[6.10685,46.24117],[6.10145,46.23765],[6.09069,46.24513],[6.08439,46.24702],[6.07953,46.2454],[6.07376,46.24229],[6.06729,46.24178],[6.06335,46.2458],[6.06011,46.24484],[6.05209,46.23823],[6.04951,46.23429],[6.04611,46.23139],[6.03365,46.23855],[6.0255,46.23322],[6.01742,46.23158],[6.00806,46.2264],[6.00004,46.22003],[5.99802,46.22214],[5.99294,46.22296],[5.99019,46.22172],[5.99365,46.21731],[5.99277,46.21522],[5.9874,46.21674],[5.97917,46.21725],[5.97468,46.21503],[5.96925,46.20663],[5.97352,46.20278],[5.96563,46.19953],[5.96373,46.19701],[5.98282,46.19077],[5.98381,46.18887],[5.99222,46.18655],[5.99463,46.18132],[5.99097,46.17801],[5.98881,46.17183],[5.98193,46.17322],[5.9801,46.16628],[5.97648,46.16208],[5.97316,46.15618],[5.96891,46.15191],[5.96403,46.14361],[5.96633,46.13908],[5.96556,46.13693],[5.9559,46.13236],[5.95738,46.12855],[5.9611,46.1308],[5.9652,46.12969],[5.96948,46.13204],[5.97297,46.13162],[5.97751,46.13362],[5.98193,46.13741],[5.98293,46.14132],[5.9941,46.14457],[6.00323,46.14178],[6.00855,46.14282],[6.01308,46.1421],[6.01718,46.14284],[6.0239,46.14038],[6.03048,46.13907],[6.03368,46.13697],[6.03717,46.13806],[6.04248,46.14141],[6.0469,46.14176],[6.04852,46.14712],[6.05226,46.15134],[6.06067,46.15118],[6.07234,46.14994],[6.07491,46.14884],[6.09181,46.15195],[6.09579,46.14827],[6.09849,46.14382],[6.10633,46.14404],[6.10773,46.14291],[6.12016,46.14276],[6.12656,46.14052],[6.13644,46.14159],[6.13688,46.14297],[6.14269,46.14586],[6.14488,46.14495],[6.14864,46.15009],[6.16857,46.15716],[6.17422,46.15781],[6.18534,46.16397],[6.18878,46.16639],[6.18618,46.17832],[6.18838,46.18141],[6.19118,46.18131],[6.19495,46.18341],[6.19785,46.1834],[6.20272,46.18909],[6.20698,46.19235],[6.2111,46.19267],[6.21601,46.19505],[6.21733,46.19794],[6.23272,46.20601],[6.23667,46.20643],[6.24188,46.20465],[6.24919,46.20585],[6.2541,46.20924],[6.26668,46.21368],[6.27697,46.21552],[6.28782,46.22176],[6.29468,46.22515],[6.31028,46.24397],[6.30869,46.24749],[6.30942,46.25008],[6.3057,46.25137],[6.30862,46.25551],[6.30647,46.25648],[6.30207,46.25472],[6.29502,46.25606],[6.29416,46.25953],[6.29657,46.26357],[6.29228,46.26353],[6.2898,46.25996],[6.28346,46.25597],[6.28416,46.25422],[6.27851,46.25246],[6.2701,46.24849],[6.26679,46.24769],[6.26301,46.25091],[6.26015,46.25168],[6.26167,46.25456],[6.24985,46.2622],[6.24287,46.27285],[6.23909,46.27493],[6.23766,46.27779],[6.23835,46.28167],[6.24296,46.28537],[6.24624,46.28526],[6.25147,46.28807],[6.253,46.2905],[6.24726,46.30069],[6.24768,46.30267],[6.24151,46.30437],[6.21955,46.31188],[6.19874,46.28443],[6.1703,46.29478],[6.16692,46.29523],[6.15338,46.29916],[6.15063,46.30098],[6.14074,46.30474],[6.13469,46.30889],[6.12594,46.31618],[6.12579,46.31747]]]]},"properties":{"id":"CH-GE","name":"Genf"}}
]}