{"type":"FeatureCollection", "features": [
{"type":"Feature","geometry":{"type":"Polygon","coordinates":[[[8.67875,46.57919],[8.68203,46.57856],[8.68564,46.58045],[8.69257,46.57967],[8.69632,46.58099],[8.6984,46.58105],[8.69867,46.57976],[8.70477,46.57713],[8.70515,46.57552],[8.7053,46.5738],[8.71178,46.57219],[8.71538,46.57124],[8.71944,46.57182],[8.72642,46.57567],[8.72794,46.57709],[8.72913,46.57588],[8.73738,46.5734],[8.73921,46.57216],[8.74422,46.57232],[8.75075,46.57622],[8.75516,46.57417],[8.76196,46.57426],[8.80074,46.56328],[8.82967,46.57137],[8.83076,46.56474],[8.83339,46.56342],[8.84323,46.56336],[8.85568,46.57024],[8.86166,46.57113],[8.86295,46.57305],[8.86739,46.57317],[8.87695,46.57467],[8.87944,46.57762],[8.8893,46.57916],[8.89394,46.58196],[8.90368,46.5841],[8.91257,46.58966],[8.91626,46.59268],[8.91676,46.59687],[8.91538,46.59921],[8.90961,46.60321],[8.9072,46.60621],[8.90542,46.612],[8.9073,46.61571],[8.91169,46.61879],[8.91863,46.61981],[8.92096,46.62209],[8.93314,46.62093],[8.94146,46.61849],[8.9513,46.62576],[8.95086,46.62992],[8.95299,46.63225],[8.95783,46.62987],[8.963,46.61814],[8.9597,46.6107],[8.96221,46.60264],[8.96604,46.60377],[8.9731,46.60266],[8.98375,46.60881],[8.99535,46.61173],[9.00421,46.61133],[9.01171,46.60796],[9.01623,46.60321],[9.0208,46.60325],[9.02525,46.60148],[9.0272,46.59942],[9.0341,46.60002],[9.03416,46.5938],[9.03536,46.59197],[9.04107,46.59016],[9.04376,46.58725],[9.04242,46.58353],[9.03769,46.58236],[9.03565,46.5759],[9.02991,46.57134],[9.0267,46.56598],[9.02703,46.56332],[9.02324,46.55824],[9.02417,46.55463],[9.01926,46.54754],[9.02296,46.53788],[9.02164,46.53394],[9.01664,46.53204],[9.01719,46.52904],[9.02093,46.52691],[9.02066,46.52353],[9.02316,46.51908],[9.02202,46.51297],[9.02417,46.50791],[9.02898,46.5032],[9.03469,46.50079],[9.04016,46.49395],[9.04025,46.48956],[9.04507,46.48815],[9.04789,46.48381],[9.04534,46.48135],[9.05104,46.47931],[9.05377,46.47688],[9.06055,46.4763],[9.06524,46.4783],[9.07356,46.48027],[9.08543,46.4754],[9.08506,46.47095],[9.08984,46.46712],[9.09508,46.46039],[9.09206,46.45326],[9.09172,46.44876],[9.08702,46.44369],[9.08958,46.43693],[9.08902,46.43215],[9.09541,46.42532],[9.09787,46.42075],[9.10092,46.41754],[9.1031,46.41166],[9.10106,46.41024],[9.09067,46.40678],[9.09184,46.40282],[9.09622,46.39987],[9.09123,46.3957],[9.08726,46.38883],[9.09314,46.37971],[9.09307,46.377],[9.09563,46.373],[9.09296,46.37083],[9.09267,46.36763],[9.09445,46.36407],[9.09161,46.35547],[9.0887,46.3529],[9.08827,46.3492],[9.08193,46.34902],[9.07637,46.34672],[9.06958,46.34118],[9.06645,46.33636],[9.06965,46.33253],[9.06445,46.32787],[9.06433,46.32537],[9.06736,46.32373],[9.07258,46.31884],[9.07511,46.3146],[9.07218,46.30856],[9.06834,46.3074],[9.06048,46.29739],[9.05563,46.29603],[9.05371,46.29304],[9.05813,46.2813],[9.06223,46.27771],[9.06364,46.27305],[9.07222,46.26771],[9.07777,46.2603],[9.07722,46.25866],[9.07603,46.23787],[9.07141,46.23606],[9.07457,46.23172],[9.07961,46.23328],[9.08285,46.2253],[9.08395,46.21985],[9.08689,46.21428],[9.08906,46.21237],[9.10834,46.20565],[9.11123,46.20498],[9.11983,46.19971],[9.12074,46.19838],[9.12505,46.19503],[9.13109,46.18839],[9.1313,46.1848],[9.13555,46.18037],[9.14186,46.17793],[9.15034,46.17179],[9.15644,46.16982],[9.15822,46.16991],[9.16995,46.17185],[9.17702,46.17089],[9.18191,46.16936],[9.18752,46.17495],[9.19401,46.17844],[9.19477,46.18395],[9.19796,46.18677],[9.19547,46.18914],[9.19509,46.19355],[9.19978,46.2016],[9.2022,46.20841],[9.20684,46.21042],[9.21429,46.21078],[9.2189,46.21443],[9.21824,46.21665],[9.21998,46.22087],[9.22293,46.22396],[9.22062,46.22855],[9.23479,46.23333],[9.24584,46.23217],[9.24842,46.23377],[9.2497,46.2394],[9.24971,46.24456],[9.2482,46.24733],[9.25138,46.25101],[9.249,46.25588],[9.2531,46.26198],[9.25161,46.26633],[9.25698,46.26937],[9.25928,46.27295],[9.25882,46.27848],[9.26831,46.28217],[9.27183,46.28927],[9.28012,46.29506],[9.28488,46.29705],[9.2836,46.30585],[9.28157,46.30936],[9.28506,46.31443],[9.29279,46.31613],[9.29509,46.31775],[9.29531,46.32325],[9.29927,46.3276],[9.29663,46.3284],[9.29345,46.33187],[9.29277,46.33798],[9.29987,46.3436],[9.29828,46.34561],[9.29629,46.35558],[9.28901,46.35647],[9.28258,46.35804],[9.27838,46.36693],[9.27699,46.37211],[9.27848,46.37941],[9.28397,46.38399],[9.28431,46.38625],[9.27839,46.38954],[9.27584,46.39489],[9.28203,46.40158],[9.28254,46.40496],[9.28168,46.41041],[9.27993,46.41464],[9.27701,46.415],[9.27537,46.41952],[9.26878,46.419],[9.26363,46.4205],[9.26165,46.4243],[9.25388,46.42826],[9.24819,46.43323],[9.24886,46.4383],[9.247,46.44679],[9.25229,46.44938],[9.26225,46.44999],[9.2701,46.45344],[9.27076,46.45494],[9.27819,46.4617],[9.27462,46.46303],[9.27384,46.46978],[9.27629,46.47228],[9.2774,46.4792],[9.27421,46.48369],[9.27653,46.48526],[9.27949,46.48971],[9.27927,46.49239],[9.28178,46.49599],[9.28688,46.49744],[9.29764,46.49912],[9.30507,46.50096],[9.31112,46.50413],[9.33707,46.506],[9.33908,46.5038],[9.34829,46.50537],[9.35503,46.50427],[9.3584,46.50741],[9.36435,46.5091],[9.36832,46.50514],[9.37336,46.50394],[9.37353,46.50003],[9.3697,46.49768],[9.36849,46.49409],[9.3711,46.48952],[9.37421,46.48879],[9.37636,46.48466],[9.38523,46.48239],[9.38811,46.47898],[9.38796,46.47661],[9.39048,46.47331],[9.39402,46.47257],[9.39767,46.4697],[9.40514,46.46851],[9.4093,46.46684],[9.41409,46.46802],[9.41808,46.47253],[9.42412,46.47613],[9.42467,46.48378],[9.42628,46.48573],[9.42532,46.4896],[9.42995,46.49268],[9.43419,46.49791],[9.45507,46.50532],[9.45855,46.50835],[9.46106,46.50549],[9.4627,46.49712],[9.46104,46.48484],[9.4491,46.48438],[9.4497,46.47998],[9.46287,46.4805],[9.4636,46.47536],[9.46559,46.4695],[9.46473,46.46664],[9.45918,46.46309],[9.45864,46.45721],[9.46034,46.45126],[9.45947,46.44638],[9.4607,46.44227],[9.45708,46.43652],[9.45802,46.43372],[9.45624,46.42939],[9.4546,46.41894],[9.45587,46.41627],[9.46012,46.41385],[9.46125,46.40969],[9.46418,46.40533],[9.46646,46.39703],[9.46648,46.39184],[9.46901,46.38863],[9.46583,46.38641],[9.46499,46.38374],[9.46118,46.38342],[9.4632,46.3802],[9.46118,46.37666],[9.46334,46.37432],[9.4727,46.37228],[9.47643,46.37051],[9.48007,46.37082],[9.48162,46.368],[9.48731,46.36616],[9.49642,46.36432],[9.49978,46.35993],[9.50047,46.35607],[9.50502,46.35249],[9.50857,46.3514],[9.50822,46.34799],[9.51062,46.34201],[9.51149,46.3366],[9.51354,46.33313],[9.51672,46.3326],[9.51807,46.3279],[9.52402,46.32241],[9.52589,46.31955],[9.53667,46.31],[9.54261,46.30598],[9.54958,46.30234],[9.55439,46.3057],[9.56016,46.30616],[9.56092,46.30349],[9.56703,46.3014],[9.57954,46.29509],[9.58347,46.29435],[9.58989,46.29508],[9.59265,46.29356],[9.59913,46.29578],[9.6066,46.29421],[9.61036,46.29458],[9.61199,46.29232],[9.61869,46.28736],[9.62528,46.28811],[9.63498,46.28612],[9.6423,46.2869],[9.64533,46.28887],[9.64982,46.28971],[9.64987,46.29171],[9.65522,46.29304],[9.65971,46.29592],[9.6644,46.29701],[9.66894,46.29603],[9.6705,46.29993],[9.67697,46.30313],[9.68124,46.29983],[9.68159,46.29703],[9.68739,46.29393],[9.69353,46.2938],[9.70202,46.29083],[9.70613,46.292],[9.71451,46.29292],[9.71583,46.30139],[9.71815,46.30535],[9.722,46.30918],[9.72442,46.30986],[9.726,46.31351],[9.72591,46.31968],[9.71809,46.32159],[9.71858,46.32657],[9.72341,46.32901],[9.72326,46.33067],[9.72752,46.33269],[9.72543,46.33768],[9.72296,46.34075],[9.73694,46.35092],[9.73929,46.34991],[9.74341,46.35154],[9.74904,46.34745],[9.7576,46.34452],[9.76165,46.33975],[9.76989,46.33572],[9.77852,46.3352],[9.78475,46.3408],[9.79733,46.34378],[9.80227,46.34389],[9.8046,46.34604],[9.81521,46.35018],[9.81831,46.34968],[9.82868,46.35601],[9.83267,46.36097],[9.84602,46.36186],[9.84915,46.36438],[9.85391,46.36306],[9.85717,46.36407],[9.86549,46.36465],[9.8682,46.36236],[9.88059,46.36835],[9.88627,46.37318],[9.9068,46.38088],[9.90972,46.37957],[9.91544,46.37345],[9.9169,46.37033],[9.92099,46.37141],[9.92444,46.36876],[9.92518,46.36598],[9.9311,46.368],[9.92999,46.37158],[9.93225,46.37369],[9.93834,46.37611],[9.95282,46.37931],[9.95796,46.37894],[9.95572,46.37362],[9.96452,46.36377],[9.97014,46.36104],[9.97457,46.35786],[9.97721,46.35727],[9.98481,46.35192],[9.99383,46.35243],[9.99638,46.35114],[9.99459,46.34665],[9.99596,46.34222],[9.991,46.33965],[9.99047,46.33695],[9.98546,46.33408],[9.98425,46.3286],[9.97995,46.32313],[9.98552,46.32077],[9.99469,46.31388],[10.00007,46.31319],[9.99909,46.30919],[9.99625,46.30731],[10.00081,46.30376],[10.00076,46.30156],[9.99658,46.29795],[9.99167,46.29563],[9.99423,46.29152],[9.99593,46.28493],[10.00043,46.28293],[10.01647,46.2794],[10.03124,46.27704],[10.03797,46.27403],[10.05088,46.26713],[10.05554,46.26584],[10.05548,46.26279],[10.05802,46.25822],[10.06065,46.24826],[10.05712,46.24681],[10.05707,46.24406],[10.05341,46.24126],[10.05424,46.2368],[10.04949,46.23278],[10.04467,46.23131],[10.04637,46.22931],[10.05861,46.22497],[10.06308,46.22019],[10.07085,46.21715],[10.08109,46.22545],[10.0885,46.2278],[10.09468,46.22859],[10.09909,46.22762],[10.10348,46.22857],[10.10917,46.22572],[10.11894,46.22536],[10.12328,46.22379],[10.12862,46.22559],[10.13243,46.22538],[10.14595,46.23048],[10.15087,46.23964],[10.17493,46.25461],[10.17652,46.25828],[10.17466,46.26044],[10.17202,46.26661],[10.168,46.26989],[10.16335,46.27145],[10.16346,46.27473],[10.16132,46.27685],[10.16249,46.28232],[10.1559,46.28473],[10.15399,46.28629],[10.15664,46.28928],[10.15253,46.29416],[10.14744,46.29475],[10.13997,46.29919],[10.13796,46.30112],[10.13882,46.30464],[10.13356,46.30604],[10.12363,46.31202],[10.11661,46.31408],[10.114,46.31872],[10.11405,46.32105],[10.10981,46.32789],[10.10563,46.33158],[10.10596,46.34218],[10.10928,46.3464],[10.10788,46.35063],[10.10971,46.35316],[10.11312,46.35253],[10.11891,46.35718],[10.12912,46.36088],[10.12927,46.3627],[10.12623,46.37125],[10.12847,46.37418],[10.12736,46.37741],[10.13534,46.38248],[10.14257,46.38622],[10.14757,46.38693],[10.14963,46.38556],[10.15577,46.38491],[10.15874,46.3856],[10.16399,46.39068],[10.16204,46.39997],[10.16265,46.4051],[10.16673,46.40759],[10.16372,46.41055],[10.16113,46.41539],[10.15721,46.41589],[10.15082,46.41407],[10.1487,46.41515],[10.1472,46.42318],[10.14427,46.42449],[10.14224,46.42765],[10.13877,46.42892],[10.13292,46.42909],[10.13088,46.4316],[10.11922,46.42923],[10.11723,46.42603],[10.10988,46.42759],[10.10276,46.42495],[10.10073,46.42135],[10.09316,46.42263],[10.08706,46.42132],[10.08238,46.42164],[10.07918,46.42312],[10.08018,46.4256],[10.07715,46.42819],[10.07422,46.4285],[10.06439,46.42587],[10.05881,46.43006],[10.05742,46.43603],[10.05826,46.43826],[10.05628,46.44087],[10.04351,46.44195],[10.03915,46.44698],[10.04247,46.44899],[10.04184,46.45223],[10.04636,46.45551],[10.04659,46.4575],[10.05249,46.46041],[10.05446,46.46466],[10.05226,46.46597],[10.05146,46.47221],[10.04334,46.47803],[10.04367,46.48275],[10.04748,46.48625],[10.04481,46.49319],[10.04656,46.49746],[10.04909,46.4996],[10.0451,46.50206],[10.04227,46.51004],[10.04683,46.51054],[10.05153,46.51335],[10.05371,46.51828],[10.05399,46.52267],[10.05043,46.52897],[10.05354,46.53169],[10.04562,46.53563],[10.04389,46.54047],[10.04686,46.54379],[10.05141,46.54494],[10.05632,46.54454],[10.06142,46.5457],[10.06449,46.54935],[10.06783,46.55025],[10.07078,46.55796],[10.07348,46.56017],[10.07784,46.56067],[10.08233,46.56349],[10.08539,46.56712],[10.07974,46.57131],[10.07867,46.57512],[10.09569,46.57735],[10.09719,46.58036],[10.10068,46.58272],[10.10002,46.58681],[10.10116,46.5892],[10.09703,46.59349],[10.09764,46.59777],[10.10129,46.60102],[10.09885,46.60586],[10.10235,46.61074],[10.10668,46.61069],[10.11326,46.60714],[10.12762,46.6051],[10.13633,46.6076],[10.13736,46.61074],[10.14362,46.61071],[10.15136,46.61458],[10.16242,46.6157],[10.18799,46.62559],[10.19276,46.62593],[10.1934,46.62313],[10.20637,46.62077],[10.21532,46.61694],[10.22002,46.62166],[10.21981,46.62429],[10.22413,46.62913],[10.22922,46.63164],[10.24023,46.63507],[10.24119,46.62705],[10.24479,46.62217],[10.25413,46.61398],[10.25909,46.61022],[10.25571,46.60838],[10.24239,46.5928],[10.24151,46.58904],[10.24647,46.57459],[10.25413,46.57124],[10.26382,46.57715],[10.26934,46.57769],[10.27242,46.57445],[10.27859,46.5719],[10.28682,46.57042],[10.28907,46.56849],[10.29098,46.56299],[10.29599,46.55888],[10.29651,46.55491],[10.29443,46.55195],[10.29607,46.54997],[10.30214,46.54898],[10.30815,46.54943],[10.31143,46.54669],[10.32489,46.55078],[10.33055,46.54943],[10.33683,46.54323],[10.34198,46.54378],[10.34806,46.54868],[10.35023,46.54942],[10.34985,46.55274],[10.35187,46.55588],[10.36388,46.55551],[10.37318,46.55254],[10.3761,46.55236],[10.37983,46.5498],[10.38427,46.55004],[10.38818,46.54717],[10.39785,46.544],[10.41455,46.55108],[10.41912,46.55108],[10.42118,46.54895],[10.43362,46.54132],[10.43669,46.53739],[10.4528,46.53068],[10.45619,46.53524],[10.45858,46.53655],[10.45931,46.54089],[10.46541,46.54121],[10.47229,46.54353],[10.4711,46.54839],[10.47449,46.55143],[10.47792,46.55741],[10.47407,46.56271],[10.47468,46.56668],[10.47667,46.56766],[10.47736,46.57117],[10.48054,46.5748],[10.48479,46.57754],[10.48339,46.58093],[10.48567,46.58373],[10.48753,46.58946],[10.48378,46.59215],[10.48718,46.59687],[10.48705,46.60055],[10.48444,46.60508],[10.48725,46.60853],[10.49114,46.61107],[10.49206,46.61539],[10.48874,46.61514],[10.48427,46.61742],[10.48009,46.62096],[10.46256,46.63305],[10.45474,46.63743],[10.44608,46.64127],[10.44345,46.63938],[10.43477,46.63935],[10.4265,46.63833],[10.42021,46.63831],[10.40913,46.63506],[10.40229,46.63681],[10.39986,46.63858],[10.40176,46.64071],[10.4004,46.64576],[10.3965,46.6495],[10.39622,46.65294],[10.392,46.6552],[10.39098,46.65899],[10.39258,46.6605],[10.39219,46.66604],[10.3909,46.66811],[10.39251,46.6716],[10.39036,46.67373],[10.38571,46.68164],[10.38184,46.68465],[10.38357,46.68728],[10.38806,46.6873],[10.39347,46.6893],[10.39658,46.69578],[10.40333,46.7055],[10.41109,46.70588],[10.41528,46.70938],[10.41533,46.71223],[10.41804,46.71451],[10.41877,46.71914],[10.41528,46.72005],[10.41002,46.72472],[10.40776,46.72919],[10.40007,46.73294],[10.41198,46.73882],[10.41292,46.74079],[10.42308,46.74527],[10.43554,46.75268],[10.44172,46.75204],[10.44354,46.7567],[10.44402,46.76237],[10.44238,46.76503],[10.44182,46.77117],[10.43951,46.7751],[10.43441,46.77824],[10.43401,46.78153],[10.42933,46.78508],[10.42272,46.78824],[10.42794,46.79124],[10.42678,46.79369],[10.42956,46.79678],[10.43899,46.79764],[10.44525,46.80061],[10.44756,46.80077],[10.45059,46.80405],[10.45424,46.81032],[10.45436,46.8124],[10.45769,46.81605],[10.4558,46.8218],[10.46043,46.82454],[10.4566,46.83019],[10.45902,46.83156],[10.46009,46.83474],[10.46651,46.83586],[10.46647,46.83936],[10.46385,46.8412],[10.46875,46.84768],[10.47154,46.84909],[10.46801,46.86211],[10.4703,46.8667],[10.47127,46.87296],[10.46923,46.8811],[10.4647,46.88428],[10.46919,46.88932],[10.47509,46.89429],[10.47518,46.90113],[10.47774,46.90345],[10.47868,46.91078],[10.48333,46.91249],[10.48622,46.91546],[10.48528,46.91862],[10.48831,46.92628],[10.4853,46.93144],[10.4879,46.93879],[10.48337,46.93904],[10.47311,46.94292],[10.46882,46.9471],[10.46244,46.94863],[10.45692,46.95085],[10.45548,46.95288],[10.44915,46.95231],[10.43857,46.95452],[10.43419,46.95638],[10.42957,46.95598],[10.42223,46.96006],[10.42296,46.96558],[10.42593,46.96861],[10.42748,46.97265],[10.42658,46.97568],[10.41843,46.98098],[10.41068,46.98409],[10.40678,46.98856],[10.40218,46.99085],[10.39832,46.99714],[10.38931,47.00052],[10.38463,46.99976],[10.37841,46.99485],[10.37356,46.99257],[10.37205,46.99067],[10.35637,46.99192],[10.34992,46.99101],[10.34652,46.98959],[10.3463,46.98591],[10.34455,46.98271],[10.33999,46.9813],[10.34072,46.97837],[10.33452,46.97252],[10.33408,46.96947],[10.3295,46.96427],[10.32967,46.95895],[10.32783,46.95397],[10.32085,46.95144],[10.31378,46.9512],[10.30936,46.9502],[10.30774,46.94726],[10.30859,46.94344],[10.30613,46.9403],[10.31022,46.93563],[10.3173,46.93054],[10.31606,46.92518],[10.30953,46.92582],[10.30046,46.92451],[10.29688,46.91995],[10.2899,46.92289],[10.26689,46.92883],[10.25247,46.93072],[10.24169,46.93163],[10.24063,46.92396],[10.24221,46.91936],[10.23995,46.91657],[10.23704,46.9157],[10.23382,46.90244],[10.23038,46.89831],[10.22607,46.89646],[10.22761,46.89021],[10.23069,46.889],[10.23484,46.88468],[10.23393,46.87783],[10.23248,46.87606],[10.23193,46.86673],[10.22292,46.86633],[10.22056,46.8672],[10.2092,46.86481],[10.20383,46.86461],[10.19902,46.86663],[10.19367,46.86644],[10.19121,46.86298],[10.18351,46.85901],[10.181,46.85497],[10.17548,46.85354],[10.17177,46.85366],[10.16907,46.85066],[10.1618,46.85059],[10.15742,46.84786],[10.15555,46.84986],[10.14708,46.85141],[10.14344,46.84876],[10.13942,46.84738],[10.12717,46.8478],[10.12309,46.84848],[10.11913,46.84417],[10.10516,46.8409],[10.10053,46.84623],[10.09231,46.8517],[10.09295,46.857],[10.08744,46.86119],[10.08113,46.86038],[10.07494,46.86194],[10.05957,46.86077],[10.05489,46.8617],[10.05121,46.86394],[10.05055,46.87091],[10.05261,46.87575],[10.04542,46.87998],[10.04245,46.88044],[10.04125,46.88393],[10.03764,46.88676],[10.03467,46.88658],[10.02923,46.89116],[10.02648,46.89581],[10.01987,46.89878],[10.01783,46.90161],[10.01494,46.90018],[10.0098,46.90051],[10.00592,46.8988],[10.00075,46.89991],[9.99583,46.90226],[9.99012,46.90241],[9.98682,46.90553],[9.98245,46.9062],[9.9805,46.91385],[9.97788,46.91588],[9.97315,46.91522],[9.97169,46.91345],[9.96658,46.91222],[9.96284,46.91315],[9.95908,46.91602],[9.95448,46.91532],[9.94613,46.91235],[9.93724,46.91331],[9.92839,46.91688],[9.92279,46.91824],[9.91656,46.92167],[9.91232,46.92605],[9.90797,46.92492],[9.90004,46.92734],[9.89767,46.93021],[9.88442,46.93302],[9.87993,46.93507],[9.87769,46.93813],[9.88028,46.93931],[9.87727,46.94185],[9.877,46.95138],[9.87873,46.95707],[9.87337,46.96042],[9.87126,46.96309],[9.87559,46.9675],[9.87473,46.97206],[9.88456,46.98085],[9.88483,46.98546],[9.89197,46.98893],[9.88952,46.99416],[9.88879,47.00073],[9.88338,47.0021],[9.87327,47.00635],[9.87116,47.01306],[9.87541,47.01423],[9.88036,47.01722],[9.87626,47.02123],[9.86948,47.02117],[9.85975,47.02321],[9.85697,47.0188],[9.85274,47.01641],[9.84648,47.01627],[9.84102,47.01512],[9.83613,47.01253],[9.82414,47.01962],[9.81721,47.02209],[9.81233,47.02173],[9.80105,47.02815],[9.7919,47.03169],[9.789,47.03511],[9.77843,47.03882],[9.7673,47.03879],[9.76309,47.03737],[9.75695,47.03784],[9.75273,47.03672],[9.74746,47.03706],[9.74526,47.04107],[9.73812,47.04189],[9.73203,47.0434],[9.72498,47.04402],[9.71822,47.04337],[9.70702,47.04804],[9.70568,47.05035],[9.70705,47.05377],[9.7016,47.0522],[9.69757,47.05239],[9.6925,47.05459],[9.6882,47.05523],[9.68212,47.05884],[9.68185,47.0621],[9.66926,47.05925],[9.66692,47.05992],[9.65822,47.05818],[9.64938,47.05944],[9.64371,47.05908],[9.64133,47.05392],[9.63655,47.0517],[9.62755,47.05176],[9.61721,47.05362],[9.61041,47.05779],[9.60721,47.06071],[9.60348,47.06177],[9.59977,47.05897],[9.5917,47.05716],[9.58825,47.05493],[9.58217,47.0527],[9.57602,47.05327],[9.56458,47.05084],[9.55895,47.04843],[9.55452,47.0503],[9.55328,47.05698],[9.5489,47.06101],[9.53976,47.06515],[9.51655,47.06009],[9.51415,47.05734],[9.50277,47.05622],[9.4974,47.05416],[9.49132,47.05625],[9.48576,47.04909],[9.4819,47.05254],[9.4818,47.05468],[9.4769,47.0546],[9.47579,47.05175],[9.48148,47.04408],[9.50607,47.01869],[9.50834,47.0151],[9.5104,47.00973],[9.51117,47.0085],[9.51864,47.00054],[9.52159,46.99762],[9.54558,46.97657],[9.5422,46.97463],[9.52865,46.97387],[9.52303,46.97256],[9.51895,46.97035],[9.51731,46.96744],[9.51871,46.9651],[9.51883,46.9565],[9.5155,46.955],[9.50461,46.95367],[9.50293,46.94934],[9.50021,46.94959],[9.49863,46.94508],[9.49287,46.93921],[9.49372,46.93771],[9.48653,46.93552],[9.48573,46.93038],[9.48044,46.92598],[9.47779,46.92056],[9.47858,46.91568],[9.488,46.91229],[9.48228,46.90821],[9.47543,46.90642],[9.47101,46.90142],[9.46726,46.89988],[9.46975,46.89147],[9.46778,46.88727],[9.46421,46.88644],[9.45426,46.88605],[9.45595,46.88121],[9.45255,46.87461],[9.44887,46.87288],[9.44065,46.87877],[9.43781,46.87973],[9.43326,46.88457],[9.42821,46.88554],[9.42532,46.88766],[9.4199,46.88956],[9.40995,46.89197],[9.4006,46.89234],[9.3943,46.89341],[9.38729,46.89661],[9.3817,46.89763],[9.36801,46.89772],[9.36551,46.89692],[9.34704,46.89967],[9.34311,46.89848],[9.33868,46.90203],[9.32913,46.90169],[9.32191,46.9006],[9.31763,46.90123],[9.30994,46.90576],[9.30106,46.90548],[9.29074,46.90696],[9.28692,46.90506],[9.28046,46.90723],[9.27348,46.90653],[9.26815,46.90328],[9.2634,46.90548],[9.2575,46.90839],[9.25436,46.91323],[9.2489,46.91627],[9.24747,46.91533],[9.24463,46.91429],[9.23969,46.9079],[9.23456,46.90829],[9.2266,46.9056],[9.22457,46.90154],[9.21797,46.89477],[9.21304,46.89195],[9.2111,46.8893],[9.20636,46.88701],[9.2028,46.8831],[9.20071,46.88123],[9.19873,46.88044],[9.18875,46.87746],[9.17746,46.87911],[9.16123,46.87935],[9.15301,46.87983],[9.15681,46.87393],[9.15227,46.87216],[9.14898,46.87232],[9.14452,46.86942],[9.14056,46.86184],[9.12831,46.8588],[9.1254,46.85545],[9.1199,46.85484],[9.10936,46.85082],[9.10487,46.85247],[9.10361,46.85969],[9.09605,46.86685],[9.09494,46.87087],[9.07934,46.874],[9.07555,46.87514],[9.06472,46.87521],[9.06115,46.87382],[9.05443,46.86829],[9.04838,46.86704],[9.04517,46.86498],[9.04419,46.85551],[9.04608,46.85061],[9.03972,46.84726],[9.03373,46.83905],[9.03441,46.83534],[9.03,46.83303],[9.02543,46.82569],[9.0214,46.82174],[9.01998,46.81732],[9.00902,46.81118],[8.99889,46.81082],[8.99025,46.80866],[8.98071,46.8072],[8.97687,46.80763],[8.96565,46.80651],[8.95775,46.80444],[8.9534,46.80501],[8.95073,46.8027],[8.9449,46.80229],[8.94018,46.79942],[8.93481,46.79867],[8.92789,46.79658],[8.92668,46.79777],[8.92001,46.79812],[8.91407,46.80061],[8.91507,46.80592],[8.9126,46.81133],[8.90812,46.81018],[8.90105,46.81175],[8.89839,46.81423],[8.89182,46.81334],[8.88847,46.81442],[8.87705,46.81291],[8.87424,46.80889],[8.87034,46.80754],[8.85989,46.8057],[8.85255,46.79969],[8.8473,46.79801],[8.84822,46.79344],[8.84109,46.79373],[8.83447,46.79521],[8.82815,46.79214],[8.82631,46.78835],[8.8291,46.78183],[8.8279,46.7792],[8.83045,46.77331],[8.83036,46.77115],[8.83458,46.76685],[8.83172,46.76433],[8.82542,46.76603],[8.82259,46.7636],[8.81855,46.76248],[8.81857,46.7584],[8.8161,46.75713],[8.81372,46.75282],[8.81415,46.74998],[8.81044,46.74492],[8.81298,46.73731],[8.80678,46.73505],[8.79952,46.73145],[8.79475,46.73172],[8.7861,46.72984],[8.78199,46.72831],[8.78054,46.73121],[8.77737,46.73223],[8.77278,46.73976],[8.77017,46.74032],[8.76907,46.74456],[8.76612,46.74478],[8.75667,46.74104],[8.75298,46.73814],[8.74764,46.73591],[8.7444,46.72888],[8.74907,46.72074],[8.74753,46.71838],[8.7408,46.7146],[8.73319,46.71185],[8.72763,46.70744],[8.71771,46.70608],[8.7172,46.70258],[8.70899,46.69896],[8.70116,46.70339],[8.69259,46.70184],[8.6893,46.69616],[8.68629,46.69418],[8.68059,46.69505],[8.67633,46.69421],[8.67365,46.69091],[8.67503,46.68405],[8.67285,46.68122],[8.67422,46.67833],[8.67348,46.67263],[8.67714,46.66809],[8.67861,46.66426],[8.67542,46.66287],[8.67155,46.65891],[8.66622,46.65597],[8.6614,46.65602],[8.65488,46.64997],[8.65821,46.64777],[8.6557,46.63972],[8.65188,46.63794],[8.65107,46.63458],[8.65659,46.63133],[8.65926,46.62493],[8.66403,46.62168],[8.67134,46.61961],[8.67668,46.61997],[8.67875,46.61599],[8.67775,46.60936],[8.67961,46.60534],[8.67672,46.59937],[8.68061,46.59505],[8.68192,46.58853],[8.67875,46.57919]]]},"properties":{"id":"CH-GR","name":"Graubünden"}}
]}