{"type":"FeatureCollection", "features": [
{"type":"Feature","geometry":{"type":"Polygon","coordinates":[[[7.55221,47.34531],[7.54495,47.34744],[7.5389,47.34763],[7.53687,47.35019],[7.54146,47.35574],[7.53965,47.36012],[7.53383,47.35966],[7.53324,47.36196],[7.52774,47.36274],[7.52175,47.36515],[7.52464,47.36981],[7.52373,47.37207],[7.49992,47.37198],[7.48743,47.36969],[7.47942,47.37141],[7.471,47.37026],[7.46328,47.3703],[7.45483,47.37222],[7.45284,47.37458],[7.44679,47.37661],[7.44498,47.37832],[7.43733,47.38089],[7.43368,47.37943],[7.42495,47.37955],[7.41167,47.38059],[7.41628,47.38481],[7.41383,47.38866],[7.41481,47.39397],[7.41283,47.3948],[7.40591,47.39515],[7.39894,47.39684],[7.39593,47.40339],[7.3887,47.40302],[7.38406,47.41236],[7.37595,47.4141],[7.36984,47.41389],[7.3587,47.41517],[7.358,47.41816],[7.35539,47.41875],[7.34132,47.42655],[7.34093,47.42913],[7.33217,47.4302],[7.32621,47.43206],[7.32542,47.43522],[7.32815,47.43801],[7.32725,47.44005],[7.32345,47.43867],[7.30692,47.43899],[7.3024,47.43865],[7.30053,47.43649],[7.29576,47.43567],[7.29266,47.43337],[7.28693,47.43516],[7.28143,47.4346],[7.28005,47.43285],[7.27396,47.43002],[7.2697,47.427],[7.25496,47.42439],[7.24655,47.42034],[7.24578,47.42653],[7.23903,47.42852],[7.23754,47.43058],[7.23888,47.43329],[7.23345,47.43862],[7.22903,47.43989],[7.22311,47.43973],[7.22048,47.43857],[7.20561,47.43558],[7.1958,47.43542],[7.19252,47.43901],[7.18073,47.44179],[7.16993,47.44375],[7.17453,47.45015],[7.17833,47.45855],[7.1791,47.46549],[7.1775,47.46805],[7.18466,47.47723],[7.18692,47.48251],[7.19037,47.48616],[7.19086,47.48851],[7.20299,47.4914],[7.20097,47.49428],[7.18507,47.49118],[7.1674,47.4894],[7.15933,47.49072],[7.15248,47.49631],[7.13919,47.50178],[7.13026,47.50295],[7.12655,47.50258],[7.11569,47.4963],[7.11252,47.49511],[7.10004,47.49432],[7.09423,47.49544],[7.09142,47.49471],[7.08135,47.48972],[7.07485,47.48819],[7.07207,47.49238],[7.06076,47.49539],[7.05243,47.49511],[7.04453,47.49845],[7.03694,47.49751],[7.02493,47.50429],[7.02015,47.5044],[7.00374,47.50075],[6.99587,47.4973],[6.98828,47.49485],[6.98603,47.49334],[6.98865,47.4869],[6.98859,47.48102],[6.98644,47.47633],[6.9883,47.4731],[6.99316,47.47072],[6.9917,47.4664],[7.00049,47.4672],[7.00129,47.46192],[6.99825,47.45973],[6.99754,47.45643],[7.00218,47.45416],[6.99588,47.44965],[6.99019,47.44798],[6.98098,47.44923],[6.97342,47.44717],[6.97029,47.44711],[6.96628,47.43765],[6.96371,47.43579],[6.95757,47.43381],[6.95496,47.43527],[6.9403,47.43332],[6.94155,47.4157],[6.94086,47.41159],[6.93843,47.40608],[6.91718,47.40534],[6.91549,47.39716],[6.91034,47.39653],[6.91142,47.39067],[6.91387,47.38932],[6.91207,47.38619],[6.90387,47.38263],[6.89674,47.38221],[6.89581,47.3799],[6.8885,47.3765],[6.8836,47.37286],[6.88492,47.36743],[6.88253,47.3612],[6.87936,47.35778],[6.87929,47.35258],[6.883,47.35241],[6.89309,47.35622],[6.89627,47.35851],[6.89964,47.35772],[6.90197,47.35944],[6.91534,47.35762],[6.91962,47.35531],[6.92408,47.35518],[6.93311,47.35845],[6.93512,47.35755],[6.94278,47.35767],[6.94639,47.35928],[6.95209,47.35998],[6.95645,47.35911],[6.9659,47.35924],[6.97105,47.36081],[6.97459,47.36014],[6.98246,47.36328],[6.98748,47.3638],[6.99435,47.36323],[7.0074,47.36812],[7.01219,47.37248],[7.01818,47.37263],[7.02014,47.37034],[7.02939,47.36912],[7.03408,47.36967],[7.03484,47.36335],[7.04313,47.36427],[7.04994,47.36143],[7.05194,47.3566],[7.05279,47.35133],[7.04988,47.34771],[7.05544,47.34739],[7.06239,47.3441],[7.0598,47.33974],[7.05511,47.33872],[7.05301,47.3351],[7.05696,47.3344],[7.04564,47.3265],[7.03385,47.32831],[7.02614,47.32616],[7.00999,47.32453],[7.0093,47.32031],[7.01299,47.3202],[7.01619,47.31468],[7.01342,47.30923],[7.01099,47.30807],[7.00976,47.30276],[7.00756,47.30101],[7.00371,47.30158],[6.99598,47.29572],[6.98991,47.29676],[6.98324,47.29536],[6.97643,47.2963],[6.97614,47.29311],[6.97276,47.29126],[6.96846,47.29268],[6.96222,47.2914],[6.95641,47.2923],[6.94902,47.2916],[6.94102,47.28669],[6.9409,47.28506],[6.9455,47.28078],[6.94507,47.27923],[6.95201,47.2699],[6.95011,47.26605],[6.9517,47.26201],[6.94959,47.25646],[6.9466,47.25413],[6.94754,47.25028],[6.95566,47.24402],[6.94842,47.23936],[6.94313,47.23791],[6.94084,47.23154],[6.9342,47.23073],[6.92793,47.22867],[6.92732,47.22568],[6.92113,47.22057],[6.913,47.21831],[6.90996,47.21819],[6.90713,47.21469],[6.89931,47.21043],[6.89203,47.20718],[6.88819,47.20422],[6.8807,47.20055],[6.87873,47.19594],[6.8753,47.19304],[6.87359,47.18866],[6.87435,47.18592],[6.87163,47.18483],[6.86728,47.18534],[6.86401,47.18043],[6.8531,47.17657],[6.84073,47.1708],[6.84453,47.16676],[6.84838,47.16588],[6.85347,47.16675],[6.85967,47.16554],[6.86149,47.16563],[6.86332,47.16845],[6.87197,47.17412],[6.87687,47.16087],[6.87988,47.15847],[6.87962,47.15427],[6.88247,47.15315],[6.88372,47.15041],[6.89239,47.1538],[6.89579,47.1542],[6.90609,47.15715],[6.91388,47.16268],[6.92989,47.16936],[6.9382,47.17516],[6.94142,47.18453],[6.95216,47.18735],[6.95542,47.18389],[6.95611,47.18066],[6.96039,47.18205],[6.97052,47.18134],[6.97703,47.17494],[6.98077,47.17429],[6.98557,47.17656],[6.98975,47.18299],[6.99454,47.18782],[6.99643,47.19333],[7.00918,47.19385],[7.02345,47.19571],[7.03029,47.20228],[7.03683,47.21341],[7.04429,47.22186],[7.04367,47.22302],[7.04735,47.22706],[7.05524,47.22936],[7.05867,47.23119],[7.05629,47.23782],[7.05723,47.24104],[7.06165,47.24325],[7.06855,47.24408],[7.07952,47.24776],[7.0796,47.24341],[7.08518,47.24538],[7.08882,47.24157],[7.08572,47.23998],[7.08841,47.23702],[7.09622,47.23703],[7.09726,47.23954],[7.10336,47.24311],[7.11148,47.2419],[7.11961,47.24402],[7.12899,47.24502],[7.13976,47.24318],[7.15579,47.24755],[7.15324,47.25099],[7.1492,47.25386],[7.14824,47.25625],[7.14277,47.25575],[7.14311,47.25948],[7.14748,47.26165],[7.14567,47.26532],[7.14874,47.26904],[7.15507,47.27133],[7.16041,47.27206],[7.16868,47.27473],[7.16821,47.28267],[7.16902,47.28599],[7.16521,47.28636],[7.16473,47.28896],[7.1681,47.29165],[7.16882,47.2945],[7.17464,47.29407],[7.19456,47.29581],[7.206,47.29547],[7.20621,47.29199],[7.21019,47.28884],[7.21488,47.28997],[7.22345,47.28814],[7.23228,47.2882],[7.24258,47.28522],[7.25826,47.2856],[7.26298,47.2871],[7.27779,47.28417],[7.29174,47.2858],[7.30167,47.28753],[7.31073,47.28847],[7.32346,47.28738],[7.32918,47.28888],[7.32994,47.2873],[7.33546,47.28828],[7.33923,47.28227],[7.34486,47.28186],[7.34787,47.28053],[7.34857,47.27808],[7.35402,47.27267],[7.35389,47.27111],[7.33972,47.26944],[7.33721,47.26806],[7.33739,47.2625],[7.3412,47.26131],[7.33749,47.25851],[7.34057,47.25503],[7.34535,47.24776],[7.35649,47.2538],[7.36401,47.25614],[7.36872,47.25854],[7.37486,47.25627],[7.38152,47.25589],[7.38909,47.25599],[7.39246,47.25707],[7.39342,47.26784],[7.38937,47.27481],[7.39249,47.27795],[7.3924,47.28599],[7.3898,47.28939],[7.38975,47.29198],[7.39473,47.29546],[7.39589,47.29818],[7.38209,47.29527],[7.37714,47.29567],[7.3744,47.29455],[7.36552,47.29382],[7.36007,47.29296],[7.35616,47.29432],[7.34807,47.29231],[7.34125,47.29556],[7.34223,47.29749],[7.35029,47.29963],[7.34821,47.30568],[7.36033,47.30865],[7.36515,47.3093],[7.37864,47.31498],[7.38038,47.31403],[7.39054,47.3131],[7.39337,47.3135],[7.40584,47.31263],[7.41172,47.31331],[7.41301,47.30998],[7.41984,47.30864],[7.42169,47.30706],[7.42988,47.30729],[7.44177,47.30866],[7.44777,47.30836],[7.45952,47.30664],[7.46748,47.30735],[7.47604,47.30707],[7.47799,47.30519],[7.48637,47.30213],[7.49604,47.30212],[7.5029,47.3052],[7.50993,47.30731],[7.52202,47.31369],[7.52997,47.31631],[7.55064,47.31985],[7.55835,47.32236],[7.55416,47.32325],[7.54762,47.32158],[7.53148,47.3211],[7.52776,47.32268],[7.53034,47.32755],[7.53349,47.33126],[7.53448,47.33455],[7.54528,47.3396],[7.54996,47.34086],[7.55221,47.34531]]]},"properties":{"id":"CH-JU","name":"Jura"}}
]}