{"type":"FeatureCollection", "features": [
{"type":"Feature","geometry":{"type":"Polygon","coordinates":[[[8.04694,46.78711],[8.0561,46.79295],[8.05686,46.79548],[8.05531,46.79916],[8.061,46.8028],[8.06387,46.80298],[8.06449,46.80806],[8.05151,46.82518],[8.04708,46.82896],[8.0466,46.83203],[8.0422,46.83649],[8.04576,46.84418],[8.0498,46.84508],[8.05599,46.8493],[8.05847,46.85369],[8.05733,46.85601],[8.05954,46.85865],[8.06497,46.85874],[8.06728,46.86242],[8.06598,46.86697],[8.0699,46.86915],[8.0716,46.87372],[8.07013,46.8803],[8.067,46.88783],[8.06968,46.89077],[8.06983,46.89573],[8.07313,46.89712],[8.07961,46.89787],[8.0826,46.89918],[8.0861,46.90426],[8.08585,46.90607],[8.08912,46.90915],[8.09388,46.91033],[8.09479,46.91198],[8.1007,46.90909],[8.10855,46.90828],[8.10625,46.90135],[8.10761,46.89489],[8.11275,46.89377],[8.11754,46.9031],[8.1298,46.91722],[8.13559,46.92279],[8.13917,46.92334],[8.14109,46.92557],[8.15411,46.9329],[8.16196,46.93646],[8.16485,46.9396],[8.1535,46.94995],[8.1511,46.95287],[8.15005,46.95742],[8.1566,46.96091],[8.159,46.96113],[8.16454,46.96467],[8.16852,46.96528],[8.17806,46.96873],[8.18193,46.96853],[8.18734,46.97175],[8.19499,46.9687],[8.20303,46.96693],[8.22026,46.96945],[8.22598,46.96906],[8.2289,46.97001],[8.22888,46.97315],[8.22306,46.97573],[8.2181,46.98109],[8.221,46.98315],[8.22807,46.99262],[8.23107,46.99256],[8.23953,46.98949],[8.24397,46.98602],[8.24838,46.98743],[8.25526,46.99414],[8.2655,46.99818],[8.27381,46.99744],[8.278,46.99798],[8.27996,46.99627],[8.28886,46.99459],[8.29696,46.9978],[8.30321,46.9984],[8.31067,46.99806],[8.31885,46.99957],[8.33446,46.98901],[8.36851,47.01995],[8.3838,47.01772],[8.38471,47.00292],[8.38283,47.00055],[8.38559,46.99832],[8.39635,47.00087],[8.39922,46.99991],[8.4056,47.00019],[8.41377,46.99823],[8.42601,46.99814],[8.42677,47.00225],[8.42798,47.01721],[8.46907,47.00929],[8.46817,46.99652],[8.4736,46.99555],[8.48312,46.99675],[8.49488,47.00053],[8.50077,47.00091],[8.50351,47.00315],[8.50905,47.00449],[8.51355,47.01256],[8.5135,47.02169],[8.51054,47.02342],[8.50061,47.02469],[8.49702,47.02864],[8.49443,47.02913],[8.48631,47.03509],[8.48378,47.03797],[8.47886,47.04005],[8.46993,47.04748],[8.46487,47.04842],[8.45356,47.05521],[8.44593,47.05826],[8.44599,47.06035],[8.43942,47.06373],[8.43407,47.06393],[8.43024,47.06542],[8.39924,47.05945],[8.39053,47.06133],[8.38875,47.06974],[8.38916,47.07068],[8.39483,47.07271],[8.40648,47.0789],[8.4071,47.08072],[8.41069,47.08594],[8.40914,47.08891],[8.41002,47.0935],[8.41362,47.09554],[8.41869,47.10039],[8.42424,47.10382],[8.43558,47.10637],[8.43715,47.10893],[8.43793,47.10955],[8.43834,47.10951],[8.43913,47.10982],[8.43931,47.11008],[8.43998,47.11067],[8.44862,47.11137],[8.45001,47.11442],[8.46435,47.11097],[8.4712,47.11169],[8.47535,47.11137],[8.47627,47.10614],[8.49305,47.10018],[8.49374,47.11373],[8.48038,47.12633],[8.46711,47.11882],[8.46586,47.11706],[8.4604,47.11599],[8.45412,47.11369],[8.45195,47.11998],[8.44945,47.13096],[8.44749,47.1293],[8.44135,47.12857],[8.4304,47.12332],[8.42209,47.12345],[8.42033,47.12263],[8.4154,47.12441],[8.41436,47.12619],[8.41677,47.13056],[8.41524,47.13558],[8.41222,47.14057],[8.40889,47.13858],[8.39818,47.13803],[8.38998,47.13977],[8.38275,47.14003],[8.37609,47.13925],[8.37397,47.14307],[8.36218,47.1461],[8.36065,47.15226],[8.35836,47.15329],[8.35836,47.15662],[8.35517,47.15864],[8.34605,47.16897],[8.34408,47.17302],[8.33867,47.17827],[8.33821,47.18858],[8.33383,47.1924],[8.32986,47.19852],[8.33009,47.20235],[8.32852,47.20441],[8.3252,47.21471],[8.31946,47.21562],[8.32073,47.22183],[8.317,47.22498],[8.31396,47.23727],[8.31484,47.23973],[8.31172,47.24546],[8.30486,47.25239],[8.30115,47.25226],[8.29603,47.25941],[8.29444,47.26557],[8.30026,47.27148],[8.2959,47.27239],[8.28967,47.27746],[8.28538,47.27999],[8.27953,47.28098],[8.27157,47.2809],[8.27069,47.28348],[8.26174,47.28254],[8.25948,47.28689],[8.25261,47.28653],[8.24895,47.28444],[8.24867,47.2812],[8.24463,47.28076],[8.241,47.27601],[8.24239,47.27232],[8.22858,47.27342],[8.21975,47.25216],[8.21253,47.2498],[8.20774,47.24734],[8.20449,47.24263],[8.20572,47.2414],[8.20359,47.23619],[8.20332,47.23144],[8.20506,47.22599],[8.19402,47.22631],[8.18618,47.22265],[8.18471,47.22237],[8.17599,47.2219],[8.17412,47.22749],[8.16558,47.22844],[8.15971,47.23314],[8.16187,47.23615],[8.15595,47.23942],[8.16166,47.24062],[8.16795,47.24088],[8.17508,47.2401],[8.18076,47.24739],[8.17955,47.25065],[8.17491,47.25354],[8.16516,47.25018],[8.15834,47.24974],[8.14669,47.2475],[8.13559,47.24694],[8.13117,47.24392],[8.12512,47.24138],[8.11958,47.24386],[8.10909,47.24455],[8.10578,47.24942],[8.10594,47.25211],[8.09878,47.26019],[8.08836,47.26288],[8.07838,47.26004],[8.07727,47.25758],[8.07267,47.25505],[8.06597,47.25494],[8.0627,47.25666],[8.05658,47.25544],[8.0577,47.25179],[8.06298,47.24667],[8.05107,47.24473],[8.0301,47.24222],[8.02195,47.24229],[8.0158,47.24413],[8.0169,47.25002],[8.01682,47.25932],[8.01034,47.26417],[8.00523,47.2693],[8.0048,47.27437],[7.9953,47.28155],[7.98689,47.27602],[7.97346,47.27449],[7.97167,47.27612],[7.95603,47.27686],[7.95064,47.27478],[7.94917,47.27254],[7.95453,47.26339],[7.95542,47.26056],[7.9585,47.25937],[7.95897,47.25623],[7.96189,47.25406],[7.95414,47.24978],[7.94598,47.24326],[7.93982,47.24044],[7.93349,47.2359],[7.92117,47.23791],[7.91011,47.24395],[7.89728,47.2431],[7.8674,47.2373],[7.85322,47.23243],[7.83867,47.23482],[7.83819,47.23304],[7.83649,47.22765],[7.83773,47.22285],[7.84168,47.22165],[7.84667,47.21498],[7.8559,47.20125],[7.85949,47.19908],[7.86055,47.19622],[7.8595,47.19333],[7.86299,47.19175],[7.86493,47.18839],[7.87615,47.18299],[7.8822,47.17429],[7.88272,47.17395],[7.88289,47.17212],[7.87926,47.16947],[7.87569,47.16186],[7.87605,47.1597],[7.87745,47.15356],[7.88018,47.14914],[7.88742,47.14364],[7.8901,47.14073],[7.89059,47.13763],[7.8865,47.13169],[7.88491,47.12763],[7.8702,47.12283],[7.86761,47.1206],[7.86693,47.1166],[7.86982,47.11556],[7.86815,47.11198],[7.87495,47.10944],[7.87299,47.10537],[7.8762,47.10166],[7.87481,47.09886],[7.87951,47.09552],[7.88072,47.0886],[7.87827,47.08198],[7.87934,47.08029],[7.87612,47.07345],[7.87728,47.07159],[7.87203,47.06535],[7.86955,47.05866],[7.86602,47.05342],[7.86645,47.04979],[7.87476,47.04096],[7.8816,47.04059],[7.88395,47.03717],[7.88381,47.03357],[7.88887,47.03089],[7.89179,47.0305],[7.8941,47.02762],[7.89328,47.02472],[7.90054,47.01798],[7.89693,47.01304],[7.8999,47.00765],[7.90183,47.00625],[7.91624,47.00852],[7.92202,47.01056],[7.92507,47.01037],[7.92685,47.00706],[7.93267,47.00425],[7.94491,47.00538],[7.95017,47.00677],[7.95621,47.00342],[7.95396,47.00201],[7.95203,46.99659],[7.94838,46.99407],[7.94974,46.98717],[7.95219,46.98296],[7.95244,46.98126],[7.95193,46.98104],[7.95009,46.9798],[7.94876,46.97988],[7.94475,46.97748],[7.94536,46.96784],[7.9401,46.96474],[7.93618,46.96441],[7.93224,46.96165],[7.93257,46.95738],[7.93166,46.95051],[7.92908,46.94819],[7.92168,46.94673],[7.92086,46.94182],[7.91803,46.93922],[7.91526,46.93464],[7.91252,46.93309],[7.90793,46.93269],[7.90239,46.93436],[7.8975,46.93464],[7.89356,46.93248],[7.87693,46.92737],[7.87266,46.92429],[7.86897,46.91694],[7.86703,46.91477],[7.87279,46.91295],[7.87468,46.91132],[7.88027,46.9108],[7.88267,46.90353],[7.87533,46.89576],[7.87296,46.8922],[7.87305,46.88967],[7.86584,46.88655],[7.8586,46.88529],[7.85616,46.88085],[7.85783,46.87709],[7.85727,46.87146],[7.86427,46.86956],[7.86469,46.86628],[7.8695,46.86435],[7.86771,46.86017],[7.86831,46.85392],[7.86762,46.85037],[7.87012,46.84757],[7.87045,46.84386],[7.87272,46.84261],[7.87708,46.83707],[7.89556,46.83101],[7.92239,46.82001],[7.92876,46.81647],[7.94171,46.80801],[7.94675,46.80525],[7.95384,46.79578],[7.95245,46.79315],[7.95781,46.78939],[7.96089,46.78874],[7.96871,46.78513],[7.96951,46.78247],[7.97348,46.77837],[7.98198,46.77642],[7.98458,46.77499],[7.98892,46.77645],[7.99492,46.77989],[7.99575,46.78177],[8.00487,46.78321],[8.01768,46.78792],[8.02559,46.78968],[8.03534,46.78937],[8.03899,46.78759],[8.04694,46.78711]]]},"properties":{"id":"CH-LU","name":"Luzern"}}
]}