{"type":"FeatureCollection", "features": [
{"type":"Feature","geometry":{"type":"Polygon","coordinates":[[[8.57105,46.99016],[8.5427,46.97959],[8.51937,46.97981],[8.49663,46.97643],[8.46524,46.98427],[8.46817,46.99652],[8.46907,47.00929],[8.42798,47.01721],[8.42677,47.00225],[8.42601,46.99814],[8.41377,46.99823],[8.4056,47.00019],[8.39922,46.99991],[8.39635,47.00087],[8.38559,46.99832],[8.38283,47.00055],[8.38471,47.00292],[8.3838,47.01772],[8.36851,47.01995],[8.33446,46.98901],[8.31885,46.99957],[8.31067,46.99806],[8.30321,46.9984],[8.29696,46.9978],[8.28886,46.99459],[8.27996,46.99627],[8.278,46.99798],[8.27381,46.99744],[8.2655,46.99818],[8.25526,46.99414],[8.24838,46.98743],[8.24397,46.98602],[8.23953,46.98949],[8.23107,46.99256],[8.22807,46.99262],[8.221,46.98315],[8.2181,46.98109],[8.22306,46.97573],[8.22888,46.97315],[8.23583,46.97451],[8.24057,46.97356],[8.24807,46.97615],[8.25426,46.98012],[8.25643,46.9795],[8.26168,46.97969],[8.26249,46.9781],[8.27252,46.9786],[8.28184,46.97581],[8.29006,46.97608],[8.30135,46.97766],[8.30717,46.97592],[8.3069,46.97415],[8.31098,46.96898],[8.30617,46.95572],[8.30991,46.95222],[8.30277,46.94874],[8.29747,46.94515],[8.29195,46.93977],[8.28829,46.93389],[8.30008,46.93024],[8.30153,46.92838],[8.30964,46.9243],[8.32302,46.92537],[8.32809,46.92694],[8.33975,46.92842],[8.3411,46.92673],[8.33936,46.91841],[8.34348,46.9149],[8.34111,46.9087],[8.33718,46.90626],[8.33629,46.90303],[8.33833,46.8984],[8.33814,46.89069],[8.33321,46.88617],[8.33305,46.88195],[8.32838,46.87798],[8.33005,46.8742],[8.32965,46.87143],[8.33343,46.86837],[8.33456,46.86124],[8.33084,46.85668],[8.33069,46.85153],[8.32791,46.84687],[8.32917,46.84218],[8.33258,46.83783],[8.33226,46.83365],[8.33594,46.83311],[8.33497,46.82755],[8.32562,46.82403],[8.32204,46.82102],[8.32214,46.82022],[8.32632,46.81488],[8.33168,46.81244],[8.33923,46.80538],[8.34329,46.80453],[8.34435,46.79998],[8.34923,46.79712],[8.35636,46.79476],[8.35897,46.79437],[8.36194,46.79319],[8.3665,46.79077],[8.36894,46.78792],[8.37081,46.78828],[8.37736,46.78582],[8.38232,46.78019],[8.39117,46.7778],[8.39523,46.77151],[8.41658,46.77839],[8.42641,46.77445],[8.42638,46.77715],[8.42306,46.78373],[8.41967,46.78651],[8.41955,46.78907],[8.40802,46.79078],[8.40165,46.79557],[8.39654,46.79545],[8.38763,46.80297],[8.38481,46.80369],[8.38866,46.80935],[8.38781,46.81256],[8.38026,46.8144],[8.37601,46.81659],[8.37533,46.81969],[8.37755,46.82349],[8.37415,46.83102],[8.37061,46.83602],[8.37156,46.83781],[8.37027,46.84484],[8.36832,46.84976],[8.37075,46.85184],[8.37082,46.85951],[8.36392,46.85948],[8.36131,46.86252],[8.36413,46.86733],[8.36792,46.86711],[8.36926,46.86935],[8.37342,46.87449],[8.37495,46.87459],[8.38074,46.87356],[8.38023,46.87037],[8.38468,46.86597],[8.37836,46.86256],[8.37506,46.85799],[8.37548,46.85314],[8.37846,46.85342],[8.38134,46.85658],[8.38428,46.85442],[8.38739,46.85724],[8.39179,46.8585],[8.39529,46.86247],[8.39871,46.86473],[8.40164,46.86409],[8.40601,46.86543],[8.40939,46.86867],[8.4114,46.8684],[8.4188,46.86276],[8.42043,46.85584],[8.42019,46.85198],[8.43,46.85023],[8.43912,46.85352],[8.44336,46.85303],[8.44883,46.8541],[8.45416,46.85376],[8.46602,46.8554],[8.46741,46.85545],[8.4678,46.85518],[8.47084,46.85485],[8.47089,46.85633],[8.46908,46.85803],[8.46791,46.86064],[8.47135,46.86813],[8.46721,46.8744],[8.4679,46.87714],[8.47184,46.8779],[8.4791,46.88252],[8.47668,46.8883],[8.47297,46.89147],[8.47172,46.89406],[8.46767,46.89756],[8.46129,46.8972],[8.45831,46.89878],[8.46329,46.90271],[8.47469,46.90717],[8.48127,46.90853],[8.48413,46.91196],[8.4861,46.91847],[8.49598,46.91789],[8.49812,46.91875],[8.50279,46.91443],[8.509,46.91569],[8.51885,46.92002],[8.51984,46.92284],[8.53172,46.92354],[8.54109,46.92641],[8.54746,46.93245],[8.5472,46.93588],[8.54438,46.93946],[8.55588,46.93923],[8.55561,46.94214],[8.55734,46.94752],[8.55565,46.95143],[8.55617,46.9599],[8.55498,46.96321],[8.56024,46.96558],[8.56306,46.97022],[8.56222,46.97292],[8.56849,46.97555],[8.57494,46.98306],[8.57105,46.99016]]]},"properties":{"id":"CH-NW","name":"Nidwalden"}}
]}