{"type":"FeatureCollection", "features": [
{"type":"Feature","geometry":{"type":"Polygon","coordinates":[[[7.02555,47.00582],[7.03095,47.01098],[7.03366,47.01833],[7.03319,47.02932],[7.03434,47.03168],[7.04036,47.03697],[7.05058,47.04231],[7.05398,47.04344],[7.06609,47.04532],[7.0719,47.04897],[7.07818,47.05193],[7.08765,47.05974],[7.08566,47.06277],[7.08033,47.06717],[7.08052,47.07321],[7.077,47.07596],[7.08705,47.08155],[7.08682,47.0857],[7.07568,47.09626],[7.06325,47.09955],[7.05714,47.09969],[7.04929,47.10499],[7.04061,47.10901],[7.02873,47.10368],[7.02349,47.1122],[7.03138,47.11963],[7.03996,47.12465],[7.03824,47.12644],[7.02853,47.12692],[7.02559,47.12414],[7.01588,47.12399],[7.0106,47.12323],[7.00776,47.12423],[6.99785,47.1194],[6.98862,47.11731],[6.96961,47.1146],[6.96032,47.11394],[6.94834,47.11242],[6.9399,47.10916],[6.93634,47.10873],[6.92983,47.1126],[6.92659,47.10915],[6.91573,47.10379],[6.90784,47.1013],[6.89426,47.09599],[6.88608,47.092],[6.86686,47.08512],[6.86838,47.09229],[6.87179,47.10286],[6.881,47.10839],[6.8888,47.13113],[6.88129,47.13958],[6.88013,47.14182],[6.87219,47.15129],[6.86149,47.16563],[6.85967,47.16554],[6.85154,47.15907],[6.8499,47.15644],[6.84039,47.1539],[6.8399,47.15062],[6.8304,47.14619],[6.82835,47.14649],[6.82536,47.14263],[6.82061,47.14064],[6.81618,47.13625],[6.80923,47.13569],[6.80605,47.13071],[6.80193,47.12939],[6.79689,47.12915],[6.79171,47.12678],[6.77937,47.12377],[6.77723,47.12199],[6.76745,47.12107],[6.7565,47.11701],[6.75206,47.11459],[6.74684,47.10999],[6.74054,47.10962],[6.74205,47.10353],[6.74654,47.09941],[6.74457,47.09269],[6.74157,47.09093],[6.73518,47.0896],[6.72958,47.09002],[6.72665,47.09195],[6.72271,47.08958],[6.71508,47.08841],[6.70791,47.08315],[6.7037,47.08253],[6.70355,47.08056],[6.70737,47.07831],[6.70008,47.06969],[6.69341,47.06894],[6.69151,47.06667],[6.69626,47.06357],[6.70186,47.0586],[6.70878,47.05775],[6.71116,47.05413],[6.71961,47.05203],[6.71151,47.04804],[6.70883,47.04498],[6.70582,47.04433],[6.69654,47.03731],[6.68585,47.03745],[6.67558,47.03475],[6.6592,47.02734],[6.65362,47.02234],[6.64837,47.01461],[6.64604,47.00956],[6.64036,47.00281],[6.63358,46.99815],[6.62757,46.99637],[6.61797,46.99165],[6.61046,46.99072],[6.60473,46.99105],[6.59995,46.99254],[6.59619,46.99238],[6.58638,46.98875],[6.57902,46.9849],[6.57188,46.98204],[6.5625,46.97937],[6.55302,46.97786],[6.5373,46.97347],[6.52395,46.97203],[6.51889,46.97098],[6.50481,46.96569],[6.49648,46.97414],[6.48574,46.96747],[6.47775,46.96178],[6.46946,46.95316],[6.46227,46.94714],[6.46034,46.94383],[6.44651,46.93407],[6.43906,46.93076],[6.43269,46.92868],[6.43588,46.92164],[6.4416,46.91756],[6.45793,46.90078],[6.46462,46.89036],[6.46003,46.8513],[6.46536,46.85083],[6.46652,46.84783],[6.47072,46.84713],[6.48211,46.84659],[6.51435,46.85479],[6.52331,46.85656],[6.52869,46.85906],[6.53776,46.86685],[6.54517,46.8686],[6.55317,46.87325],[6.5599,46.87407],[6.56489,46.87625],[6.57038,46.87882],[6.5748,46.88048],[6.58763,46.88431],[6.59862,46.88362],[6.60649,46.88665],[6.61463,46.88891],[6.62711,46.88871],[6.64549,46.90617],[6.64722,46.9107],[6.66852,46.92056],[6.68404,46.92557],[6.71562,46.93479],[6.72083,46.93609],[6.7204,46.93333],[6.7237,46.93112],[6.72086,46.92583],[6.71753,46.91586],[6.71776,46.91171],[6.7167,46.90608],[6.721,46.90538],[6.72667,46.90194],[6.74011,46.89481],[6.73801,46.88456],[6.73999,46.88438],[6.73939,46.87894],[6.7368,46.87382],[6.73386,46.87162],[6.73464,46.86906],[6.74,46.87198],[6.75526,46.87046],[6.77983,46.85296],[6.86569,46.90957],[6.89623,46.92549],[6.9282,46.9534],[7.00243,46.98691],[7.04034,46.97952],[7.02555,47.00582]]]},"properties":{"id":"CH-NE","name":"Neuenburg"}}
]}