{"type":"FeatureCollection", "features": [
{"type":"Feature","geometry":{"type":"MultiPolygon","coordinates":[[[[8.39523,46.77151],[8.39639,46.7655],[8.4008,46.76645],[8.40751,46.76955],[8.41464,46.77432],[8.42109,46.77279],[8.42268,46.77043],[8.42654,46.77138],[8.4285,46.77191],[8.43612,46.7725],[8.43844,46.77202],[8.44215,46.76988],[8.44662,46.77026],[8.44613,46.76642],[8.44833,46.76342],[8.46036,46.7691],[8.46892,46.7692],[8.47409,46.76771],[8.48293,46.76932],[8.49144,46.77253],[8.48861,46.78094],[8.48362,46.7863],[8.47856,46.78927],[8.48194,46.79389],[8.48114,46.79842],[8.47259,46.79545],[8.46688,46.79771],[8.46427,46.80053],[8.47232,46.79937],[8.47867,46.80134],[8.4833,46.8047],[8.48324,46.80875],[8.47822,46.81263],[8.48322,46.81898],[8.48342,46.82702],[8.48897,46.83566],[8.49371,46.83769],[8.50244,46.83998],[8.5058,46.84278],[8.50536,46.84601],[8.49788,46.85373],[8.49328,46.85274],[8.48236,46.85541],[8.48005,46.85725],[8.47747,46.85658],[8.47457,46.85454],[8.46929,46.85492],[8.4678,46.85518],[8.46741,46.85545],[8.46602,46.8554],[8.45416,46.85376],[8.44883,46.8541],[8.44336,46.85303],[8.43912,46.85352],[8.43,46.85023],[8.42019,46.85198],[8.42043,46.85584],[8.4188,46.86276],[8.4114,46.8684],[8.40939,46.86867],[8.40601,46.86543],[8.40164,46.86409],[8.39871,46.86473],[8.39529,46.86247],[8.39179,46.8585],[8.38739,46.85724],[8.38428,46.85442],[8.38134,46.85658],[8.37846,46.85342],[8.37548,46.85314],[8.37506,46.85799],[8.37836,46.86256],[8.38468,46.86597],[8.38023,46.87037],[8.38074,46.87356],[8.37495,46.87459],[8.37342,46.87449],[8.36926,46.86935],[8.36792,46.86711],[8.36413,46.86733],[8.36131,46.86252],[8.36392,46.85948],[8.37082,46.85951],[8.37075,46.85184],[8.36832,46.84976],[8.37027,46.84484],[8.37156,46.83781],[8.37061,46.83602],[8.37415,46.83102],[8.37755,46.82349],[8.37533,46.81969],[8.37601,46.81659],[8.38026,46.8144],[8.38781,46.81256],[8.38866,46.80935],[8.38481,46.80369],[8.38763,46.80297],[8.39654,46.79545],[8.40165,46.79557],[8.40802,46.79078],[8.41955,46.78907],[8.41967,46.78651],[8.42306,46.78373],[8.42638,46.77715],[8.42641,46.77445],[8.41658,46.77839],[8.39523,46.77151]]],[[[8.04694,46.78711],[8.05507,46.78844],[8.05983,46.78639],[8.06945,46.78819],[8.07733,46.78594],[8.08873,46.78756],[8.09078,46.78437],[8.09631,46.77953],[8.09956,46.77827],[8.10235,46.7738],[8.10687,46.77288],[8.11352,46.7734],[8.12183,46.77037],[8.12902,46.76653],[8.14695,46.75484],[8.14967,46.75699],[8.15846,46.75924],[8.16353,46.76165],[8.16794,46.76535],[8.1721,46.76414],[8.17414,46.76543],[8.18582,46.76858],[8.1898,46.77031],[8.19631,46.76793],[8.20324,46.76937],[8.208,46.76946],[8.21209,46.76636],[8.21936,46.76353],[8.22043,46.7615],[8.22979,46.761],[8.23392,46.76195],[8.23907,46.76961],[8.25189,46.76608],[8.26009,46.76335],[8.26668,46.75761],[8.26869,46.75431],[8.27552,46.75508],[8.28349,46.75317],[8.29693,46.76024],[8.30663,46.76418],[8.31156,46.76828],[8.3268,46.77613],[8.3337,46.78059],[8.35992,46.78296],[8.3638,46.78607],[8.36894,46.78792],[8.3665,46.79077],[8.36112,46.79356],[8.35852,46.79447],[8.35636,46.79476],[8.34923,46.79712],[8.34435,46.79998],[8.34329,46.80453],[8.33923,46.80538],[8.33168,46.81244],[8.32632,46.81488],[8.32214,46.82022],[8.32204,46.82102],[8.32562,46.82403],[8.33497,46.82755],[8.33594,46.83311],[8.33226,46.83365],[8.33258,46.83783],[8.32917,46.84218],[8.32791,46.84687],[8.33069,46.85153],[8.33084,46.85668],[8.33456,46.86124],[8.33343,46.86837],[8.32965,46.87143],[8.33005,46.8742],[8.32838,46.87798],[8.33305,46.88195],[8.33321,46.88617],[8.33814,46.89069],[8.33833,46.8984],[8.33629,46.90303],[8.33718,46.90626],[8.34111,46.9087],[8.34348,46.9149],[8.33936,46.91841],[8.3411,46.92673],[8.33975,46.92842],[8.32809,46.92694],[8.32302,46.92537],[8.30964,46.9243],[8.30153,46.92838],[8.30008,46.93024],[8.28829,46.93389],[8.29195,46.93977],[8.29747,46.94515],[8.30277,46.94874],[8.30991,46.95222],[8.30617,46.95572],[8.31098,46.96898],[8.3069,46.97415],[8.30717,46.97592],[8.30135,46.97766],[8.29006,46.97608],[8.28184,46.97581],[8.27252,46.9786],[8.26249,46.9781],[8.26168,46.97969],[8.25643,46.9795],[8.25426,46.98012],[8.24807,46.97615],[8.24057,46.97356],[8.23583,46.97451],[8.22888,46.97315],[8.2289,46.97001],[8.22598,46.96906],[8.22026,46.96945],[8.20303,46.96693],[8.19499,46.9687],[8.18734,46.97175],[8.18193,46.96853],[8.17806,46.96873],[8.16852,46.96528],[8.16454,46.96467],[8.159,46.96113],[8.1566,46.96091],[8.15005,46.95742],[8.1511,46.95287],[8.1535,46.94995],[8.16485,46.9396],[8.16196,46.93646],[8.15411,46.9329],[8.14109,46.92557],[8.13917,46.92334],[8.13559,46.92279],[8.1298,46.91722],[8.11754,46.9031],[8.11275,46.89377],[8.10761,46.89489],[8.10625,46.90135],[8.10855,46.90828],[8.1007,46.90909],[8.09479,46.91198],[8.09388,46.91033],[8.08912,46.90915],[8.08585,46.90607],[8.0861,46.90426],[8.0826,46.89918],[8.07961,46.89787],[8.07313,46.89712],[8.06983,46.89573],[8.06968,46.89077],[8.067,46.88783],[8.07013,46.8803],[8.0716,46.87372],[8.0699,46.86915],[8.06598,46.86697],[8.06728,46.86242],[8.06497,46.85874],[8.05954,46.85865],[8.05733,46.85601],[8.05847,46.85369],[8.05599,46.8493],[8.0498,46.84508],[8.04576,46.84418],[8.0422,46.83649],[8.0466,46.83203],[8.04708,46.82896],[8.05151,46.82518],[8.06449,46.80806],[8.06387,46.80298],[8.061,46.8028],[8.05531,46.79916],[8.05686,46.79548],[8.0561,46.79295],[8.04694,46.78711]]]]},"properties":{"id":"CH-OW","name":"Obwalden"}}
]}