{"type":"FeatureCollection", "features": [
{"type":"Feature","geometry":{"type":"MultiPolygon","coordinates":[[[[7.7008,47.16178],[7.69442,47.16201],[7.69095,47.16481],[7.68506,47.16509],[7.67954,47.16315],[7.67499,47.15644],[7.67527,47.15324],[7.68011,47.15433],[7.69016,47.15256],[7.69379,47.15813],[7.69566,47.15751],[7.7008,47.16178]]],[[[7.37595,47.4141],[7.3818,47.4133],[7.3876,47.41405],[7.40147,47.4119],[7.41371,47.41093],[7.42075,47.4111],[7.42749,47.41448],[7.4313,47.41414],[7.43669,47.41281],[7.43817,47.41275],[7.44114,47.41338],[7.44841,47.41507],[7.45037,47.41779],[7.4518,47.42276],[7.45559,47.42793],[7.45357,47.42993],[7.45205,47.43249],[7.45117,47.43463],[7.44841,47.43774],[7.43869,47.4442],[7.43785,47.44633],[7.42543,47.44329],[7.42091,47.44595],[7.41502,47.44284],[7.4067,47.4404],[7.40321,47.43868],[7.40305,47.43548],[7.39392,47.43517],[7.38559,47.43186],[7.38243,47.43141],[7.38235,47.43119],[7.38302,47.42998],[7.37964,47.4276],[7.37902,47.42126],[7.37595,47.4141]]],[[[7.51167,47.5027],[7.50876,47.50235],[7.51107,47.49703],[7.50114,47.49352],[7.49995,47.49102],[7.4938,47.48842],[7.49162,47.48467],[7.48728,47.48202],[7.47708,47.48008],[7.47201,47.48039],[7.46609,47.48476],[7.46239,47.48906],[7.45641,47.48851],[7.45083,47.49032],[7.44709,47.49341],[7.44109,47.49511],[7.43499,47.49811],[7.42976,47.49358],[7.429,47.49108],[7.42576,47.48846],[7.42151,47.48122],[7.42576,47.48129],[7.4294,47.48295],[7.43213,47.48101],[7.43622,47.48066],[7.44598,47.47684],[7.44841,47.47379],[7.45141,47.47514],[7.45634,47.47275],[7.45583,47.47071],[7.45021,47.46752],[7.44577,47.46198],[7.44717,47.45696],[7.45652,47.44926],[7.46814,47.45391],[7.48051,47.45549],[7.48473,47.4574],[7.49822,47.45969],[7.50983,47.45867],[7.51746,47.46102],[7.53069,47.46119],[7.52745,47.47391],[7.52912,47.47796],[7.53313,47.4783],[7.53633,47.48384],[7.53624,47.49106],[7.53261,47.49097],[7.53179,47.4974],[7.52029,47.49678],[7.51476,47.49777],[7.51223,47.49892],[7.51167,47.5027]]],[[[7.55835,47.32236],[7.54834,47.31636],[7.54695,47.30608],[7.53907,47.30198],[7.53985,47.29991],[7.53787,47.29706],[7.53287,47.29454],[7.52005,47.29385],[7.49834,47.28837],[7.4872,47.28386],[7.48535,47.28428],[7.47588,47.27632],[7.47357,47.27178],[7.4689,47.26647],[7.46585,47.26466],[7.46073,47.2645],[7.44856,47.2629],[7.44101,47.26292],[7.4268,47.25608],[7.41879,47.25456],[7.41633,47.25217],[7.41815,47.24538],[7.42088,47.24289],[7.41549,47.24021],[7.41183,47.24056],[7.40795,47.23913],[7.40169,47.2349],[7.3906,47.23123],[7.3803,47.2288],[7.3745,47.22685],[7.37052,47.2239],[7.36224,47.21961],[7.35724,47.22105],[7.34633,47.21916],[7.34042,47.21757],[7.34197,47.2124],[7.34483,47.20721],[7.34683,47.20722],[7.35448,47.19154],[7.36547,47.19446],[7.36717,47.19151],[7.37514,47.18857],[7.37953,47.1851],[7.38352,47.1803],[7.39192,47.16628],[7.38467,47.16611],[7.38218,47.16512],[7.38297,47.16083],[7.39313,47.16036],[7.40094,47.16285],[7.41182,47.16242],[7.41596,47.16538],[7.4184,47.17116],[7.42605,47.17298],[7.43159,47.17605],[7.43091,47.18245],[7.43329,47.18473],[7.43849,47.18435],[7.43992,47.18064],[7.44325,47.17925],[7.44763,47.18109],[7.44994,47.18398],[7.44882,47.1894],[7.45575,47.18883],[7.46657,47.19011],[7.47573,47.19065],[7.47659,47.18809],[7.47361,47.18619],[7.4752,47.18303],[7.47086,47.18133],[7.47814,47.17746],[7.4805,47.17174],[7.48632,47.17306],[7.49704,47.17009],[7.4902,47.16577],[7.49269,47.16327],[7.4885,47.16067],[7.48206,47.15817],[7.47863,47.15446],[7.46764,47.15129],[7.46302,47.15369],[7.45463,47.15633],[7.44779,47.15508],[7.43996,47.1505],[7.44116,47.14589],[7.43962,47.14399],[7.4345,47.14375],[7.42663,47.1411],[7.42668,47.13847],[7.42375,47.13499],[7.42646,47.13134],[7.42971,47.13164],[7.43326,47.12618],[7.42471,47.12201],[7.41463,47.12144],[7.40375,47.11768],[7.395,47.1217],[7.38997,47.11952],[7.38894,47.12341],[7.38675,47.1259],[7.38368,47.12333],[7.37893,47.1241],[7.3705,47.12094],[7.37197,47.11735],[7.37044,47.11538],[7.37363,47.11286],[7.37589,47.10837],[7.37924,47.10621],[7.38263,47.09671],[7.38945,47.09513],[7.39011,47.09225],[7.40161,47.09376],[7.4122,47.09566],[7.42028,47.09967],[7.42326,47.09746],[7.434,47.1005],[7.43743,47.09421],[7.43504,47.09366],[7.43325,47.08956],[7.43338,47.08692],[7.43542,47.08017],[7.44024,47.07629],[7.44045,47.07451],[7.44586,47.07434],[7.454,47.07598],[7.45803,47.07759],[7.46619,47.07856],[7.4684,47.07979],[7.47105,47.08383],[7.47388,47.08565],[7.4751,47.08671],[7.47083,47.09047],[7.46424,47.09905],[7.46133,47.10824],[7.49232,47.11709],[7.49864,47.12144],[7.50467,47.12272],[7.50972,47.12554],[7.51379,47.13001],[7.51371,47.13318],[7.51914,47.14043],[7.52292,47.14254],[7.52534,47.14758],[7.52975,47.14874],[7.52959,47.15072],[7.52431,47.1536],[7.52056,47.15977],[7.5314,47.163],[7.53524,47.16247],[7.54068,47.16364],[7.54434,47.16037],[7.55689,47.16672],[7.55784,47.16803],[7.56347,47.16836],[7.56552,47.16436],[7.56966,47.16289],[7.57491,47.16445],[7.58209,47.15828],[7.58614,47.14755],[7.58836,47.15089],[7.59244,47.15268],[7.5979,47.15161],[7.60785,47.15285],[7.61454,47.15453],[7.61554,47.15658],[7.62196,47.15306],[7.62909,47.15239],[7.63996,47.15356],[7.64078,47.1515],[7.64511,47.14892],[7.65085,47.14985],[7.65261,47.1515],[7.65127,47.15748],[7.65432,47.16327],[7.66009,47.1684],[7.67287,47.1684],[7.67389,47.1743],[7.67618,47.17614],[7.67781,47.18268],[7.67111,47.18452],[7.67464,47.1909],[7.66275,47.19866],[7.66233,47.20096],[7.65782,47.20069],[7.64723,47.20179],[7.65123,47.20671],[7.64606,47.21471],[7.64665,47.21758],[7.64476,47.22046],[7.64105,47.22113],[7.63918,47.22339],[7.64395,47.22545],[7.64056,47.2298],[7.63529,47.22724],[7.62619,47.22632],[7.62352,47.22936],[7.61911,47.22905],[7.61832,47.23143],[7.61397,47.2365],[7.60951,47.23955],[7.60639,47.23905],[7.59877,47.24521],[7.59594,47.24557],[7.59773,47.25414],[7.59614,47.26075],[7.5937,47.26622],[7.58693,47.2697],[7.58011,47.27635],[7.61421,47.28115],[7.64828,47.28199],[7.65435,47.28375],[7.66051,47.28665],[7.67052,47.28757],[7.67982,47.29013],[7.68497,47.2935],[7.68856,47.29045],[7.70086,47.28655],[7.70557,47.28046],[7.70891,47.27945],[7.71271,47.27383],[7.71562,47.2764],[7.72514,47.26931],[7.72483,47.26624],[7.73267,47.25912],[7.73832,47.2599],[7.74467,47.25702],[7.74929,47.25876],[7.75683,47.2581],[7.76484,47.26669],[7.77461,47.26787],[7.77581,47.26144],[7.78453,47.25727],[7.78769,47.25792],[7.79378,47.26149],[7.80021,47.26757],[7.80458,47.2684],[7.80705,47.26326],[7.81478,47.26131],[7.8182,47.26215],[7.82004,47.26342],[7.82642,47.26609],[7.83318,47.26788],[7.84181,47.27447],[7.84383,47.27703],[7.84479,47.28202],[7.84877,47.28761],[7.85367,47.29277],[7.85597,47.29764],[7.85819,47.3004],[7.85895,47.30199],[7.85951,47.30396],[7.85988,47.30476],[7.86048,47.3056],[7.86126,47.30624],[7.86364,47.30754],[7.86704,47.30841],[7.86886,47.30915],[7.87272,47.31138],[7.87396,47.31179],[7.8759,47.31194],[7.87903,47.31176],[7.88383,47.31103],[7.88983,47.31233],[7.89125,47.31535],[7.8981,47.31983],[7.89609,47.32393],[7.89686,47.32766],[7.9037,47.3362],[7.90935,47.34096],[7.91819,47.33532],[7.91922,47.33395],[7.93772,47.33248],[7.94713,47.33234],[7.94883,47.32957],[7.94709,47.32225],[7.94834,47.31811],[7.95863,47.32027],[7.97651,47.32344],[7.97783,47.32598],[7.98732,47.32957],[7.99095,47.33281],[7.99562,47.33323],[8.0052,47.33675],[8.00737,47.33931],[8.00385,47.34532],[8.01183,47.34982],[8.01283,47.35433],[8.01048,47.35695],[8.01674,47.36061],[8.01944,47.3638],[8.02398,47.36523],[8.02616,47.36867],[8.0271,47.37066],[8.03138,47.38369],[8.02657,47.39562],[8.02034,47.39581],[8.01998,47.39399],[8.01472,47.39479],[8.00981,47.3957],[8.01005,47.39617],[8.01019,47.397],[8.01006,47.4012],[8.00727,47.40659],[8.00177,47.40946],[7.99148,47.4112],[7.98948,47.41415],[7.98228,47.41356],[7.97228,47.41895],[7.96321,47.42236],[7.98015,47.42755],[7.98385,47.42831],[7.98548,47.42277],[7.98728,47.42874],[7.98533,47.43186],[7.98369,47.43745],[7.98377,47.44324],[7.98062,47.44891],[7.97489,47.452],[7.97661,47.45421],[7.97429,47.45955],[7.96792,47.46249],[7.96292,47.45964],[7.96045,47.45731],[7.96053,47.45606],[7.95955,47.45505],[7.95959,47.45479],[7.95839,47.45533],[7.95684,47.45521],[7.95852,47.45287],[7.95052,47.4469],[7.94679,47.4432],[7.95195,47.43279],[7.95004,47.43172],[7.96184,47.42184],[7.95658,47.41968],[7.95427,47.4173],[7.9484,47.41627],[7.94502,47.41453],[7.93888,47.41365],[7.93494,47.41177],[7.93673,47.40806],[7.93267,47.40528],[7.92544,47.40298],[7.91311,47.40025],[7.90975,47.39852],[7.90384,47.40247],[7.90084,47.40075],[7.89023,47.40714],[7.88334,47.4061],[7.88345,47.40121],[7.87771,47.40126],[7.87528,47.3976],[7.86914,47.39552],[7.87195,47.39125],[7.87611,47.39038],[7.87944,47.38799],[7.87611,47.38448],[7.86857,47.38128],[7.86266,47.38199],[7.85873,47.37975],[7.84998,47.37835],[7.84898,47.37734],[7.84013,47.37476],[7.83693,47.37271],[7.83363,47.36749],[7.83055,47.36512],[7.82209,47.36321],[7.80539,47.36239],[7.80217,47.3611],[7.79767,47.35579],[7.79501,47.34977],[7.79538,47.34646],[7.79357,47.33905],[7.78529,47.33788],[7.78238,47.33957],[7.76897,47.33892],[7.76923,47.34145],[7.76643,47.34274],[7.7542,47.34317],[7.74283,47.34971],[7.73416,47.35776],[7.72792,47.36886],[7.70196,47.37245],[7.67894,47.3705],[7.66448,47.36888],[7.64421,47.36721],[7.64319,47.37547],[7.64105,47.37829],[7.64177,47.38047],[7.63559,47.3806],[7.63331,47.38534],[7.63726,47.38607],[7.63509,47.40032],[7.63273,47.41003],[7.63969,47.41003],[7.65755,47.40908],[7.66406,47.41002],[7.67385,47.41506],[7.67981,47.41752],[7.68659,47.43367],[7.68298,47.43873],[7.68501,47.44758],[7.69228,47.45422],[7.69825,47.45535],[7.69993,47.46193],[7.70301,47.46402],[7.7066,47.46856],[7.70867,47.46955],[7.70539,47.47585],[7.69977,47.48064],[7.69622,47.48179],[7.69103,47.48161],[7.68402,47.48291],[7.67699,47.48505],[7.67173,47.48453],[7.66833,47.48635],[7.66543,47.4915],[7.66613,47.49687],[7.65818,47.49531],[7.65337,47.49608],[7.64865,47.49183],[7.65304,47.48895],[7.65367,47.48637],[7.64729,47.48481],[7.64443,47.48564],[7.64097,47.48274],[7.63619,47.48403],[7.62965,47.48432],[7.62415,47.48667],[7.61494,47.48924],[7.60731,47.4894],[7.60884,47.4834],[7.60605,47.4806],[7.6062,47.47557],[7.6045,47.47045],[7.61104,47.47002],[7.61888,47.46746],[7.62483,47.4632],[7.62218,47.46196],[7.62261,47.45715],[7.61647,47.44524],[7.61614,47.43762],[7.61403,47.43336],[7.60743,47.43267],[7.60216,47.43125],[7.59208,47.43272],[7.58491,47.42863],[7.58121,47.42878],[7.57766,47.43244],[7.57843,47.43491],[7.57562,47.43675],[7.56889,47.43691],[7.56916,47.4304],[7.56747,47.42595],[7.56947,47.42075],[7.57437,47.41948],[7.57903,47.41711],[7.58075,47.41471],[7.56608,47.41341],[7.55632,47.41426],[7.54308,47.41404],[7.52606,47.4119],[7.52732,47.40851],[7.5312,47.40492],[7.53044,47.4021],[7.5263,47.3984],[7.51862,47.38823],[7.51072,47.38956],[7.50306,47.38502],[7.50082,47.38459],[7.49233,47.38524],[7.48104,47.3888],[7.47838,47.39053],[7.47817,47.39146],[7.47679,47.39603],[7.47738,47.40121],[7.47134,47.40037],[7.46464,47.40255],[7.46168,47.40079],[7.45764,47.40122],[7.45619,47.40347],[7.45251,47.40382],[7.44783,47.39954],[7.44295,47.402],[7.44134,47.39819],[7.44362,47.38897],[7.43904,47.38602],[7.43733,47.38089],[7.44498,47.37832],[7.44679,47.37661],[7.45284,47.37458],[7.45483,47.37222],[7.46328,47.3703],[7.471,47.37026],[7.47942,47.37141],[7.48743,47.36969],[7.49992,47.37198],[7.52373,47.37207],[7.52464,47.36981],[7.52175,47.36515],[7.52774,47.36274],[7.53324,47.36196],[7.53383,47.35966],[7.53965,47.36012],[7.54146,47.35574],[7.53687,47.35019],[7.5389,47.34763],[7.54495,47.34744],[7.55221,47.34531],[7.55981,47.34266],[7.57215,47.32895],[7.56873,47.32435],[7.56171,47.32143],[7.55835,47.32236]]]]},"properties":{"id":"CH-SO","name":"Solothurn"}}
]}