{"type":"FeatureCollection", "features": [
{"type":"Feature","geometry":{"type":"Polygon","coordinates":[[[8.93605,46.92029],[8.93994,46.92229],[8.94319,46.92212],[8.9482,46.92538],[8.95321,46.92516],[8.96319,46.92672],[8.96268,46.931],[8.95993,46.93121],[8.95721,46.93383],[8.95773,46.93582],[8.95533,46.93892],[8.95832,46.94441],[8.96127,46.94725],[8.96237,46.95381],[8.96734,46.95761],[8.96543,46.96095],[8.95744,46.96221],[8.94998,46.96702],[8.9457,46.96716],[8.93225,46.9823],[8.94092,46.98471],[8.94157,46.98705],[8.93639,46.98796],[8.93225,46.99108],[8.92866,46.99733],[8.92209,47.00132],[8.91706,47.00344],[8.91554,47.00742],[8.91163,47.00877],[8.91048,47.01704],[8.90013,47.02103],[8.89495,47.0209],[8.89299,47.02364],[8.89537,47.02533],[8.90362,47.02726],[8.90083,47.03202],[8.90089,47.03713],[8.9094,47.03969],[8.9181,47.03791],[8.92201,47.03829],[8.93055,47.04208],[8.93692,47.04366],[8.94092,47.04762],[8.94807,47.04936],[8.95111,47.06085],[8.95439,47.06527],[8.96177,47.07137],[8.9622,47.07649],[8.96804,47.0815],[8.97599,47.08571],[8.9686,47.08713],[8.95388,47.09148],[8.95415,47.09426],[8.95678,47.09581],[8.95969,47.10021],[8.97064,47.10377],[8.96925,47.10868],[8.97369,47.1151],[8.9719,47.11812],[8.96714,47.11918],[8.9653,47.12148],[8.9693,47.1305],[8.96739,47.13663],[8.97379,47.14037],[8.97531,47.14391],[8.99329,47.16378],[9.00473,47.17326],[9.00257,47.17478],[8.9976,47.17785],[8.9916,47.18051],[8.98791,47.18173],[8.98242,47.18301],[8.97996,47.18331],[8.97886,47.18265],[8.97397,47.18229],[8.97037,47.1788],[8.96199,47.17946],[8.96031,47.18876],[8.95749,47.19944],[8.96534,47.19816],[8.96922,47.21183],[8.9743,47.2128],[8.97291,47.21497],[8.97212,47.21586],[8.97074,47.21677],[8.96941,47.21726],[8.96794,47.21751],[8.96642,47.2175],[8.95571,47.21627],[8.94142,47.21814],[8.93639,47.21762],[8.84836,47.20848],[8.84549,47.20825],[8.84116,47.20817],[8.83703,47.20838],[8.83351,47.20879],[8.83006,47.20941],[8.82604,47.21042],[8.82105,47.21216],[8.81634,47.21442],[8.8122,47.21705],[8.80861,47.22009],[8.79338,47.22256],[8.7772,47.21885],[8.74054,47.21158],[8.71702,47.20354],[8.71311,47.20304],[8.7101,47.20042],[8.70615,47.20229],[8.70291,47.20151],[8.70256,47.1981],[8.69419,47.19636],[8.68557,47.18654],[8.68107,47.18407],[8.68044,47.17868],[8.68311,47.17349],[8.69136,47.16902],[8.6922,47.1634],[8.69358,47.16341],[8.69583,47.16294],[8.69674,47.16055],[8.69921,47.15501],[8.69857,47.15373],[8.70087,47.1514],[8.69587,47.15008],[8.69005,47.14701],[8.68791,47.14506],[8.68421,47.14024],[8.68506,47.13838],[8.68643,47.13711],[8.68536,47.13135],[8.68131,47.12482],[8.67829,47.12452],[8.67121,47.11788],[8.67144,47.1158],[8.65981,47.11468],[8.65978,47.11092],[8.65378,47.10786],[8.64549,47.09963],[8.64492,47.09586],[8.63725,47.09333],[8.62595,47.09387],[8.623,47.09471],[8.61179,47.09497],[8.60871,47.09445],[8.60746,47.092],[8.59995,47.09054],[8.5949,47.0909],[8.59241,47.0896],[8.59011,47.0864],[8.5811,47.084],[8.5776,47.08448],[8.5735,47.08203],[8.56955,47.08121],[8.56567,47.08103],[8.56302,47.0819],[8.56483,47.08673],[8.56247,47.09375],[8.54716,47.09371],[8.54421,47.09446],[8.54079,47.09227],[8.52571,47.09165],[8.52195,47.08986],[8.47627,47.10614],[8.47535,47.11137],[8.4712,47.11169],[8.46435,47.11097],[8.45001,47.11442],[8.44862,47.11137],[8.43998,47.11067],[8.43931,47.11008],[8.43913,47.10982],[8.43834,47.10951],[8.43793,47.10955],[8.43715,47.10893],[8.43558,47.10637],[8.42424,47.10382],[8.41869,47.10039],[8.41362,47.09554],[8.41002,47.0935],[8.40914,47.08891],[8.41069,47.08594],[8.4071,47.08072],[8.40648,47.0789],[8.39483,47.07271],[8.38916,47.07068],[8.38875,47.06974],[8.39053,47.06133],[8.39924,47.05945],[8.43024,47.06542],[8.43407,47.06393],[8.43942,47.06373],[8.44599,47.06035],[8.44593,47.05826],[8.45356,47.05521],[8.46487,47.04842],[8.46993,47.04748],[8.47886,47.04005],[8.48378,47.03797],[8.48631,47.03509],[8.49443,47.02913],[8.49702,47.02864],[8.50061,47.02469],[8.51054,47.02342],[8.5135,47.02169],[8.51355,47.01256],[8.50905,47.00449],[8.50351,47.00315],[8.50077,47.00091],[8.49488,47.00053],[8.48312,46.99675],[8.4736,46.99555],[8.46817,46.99652],[8.46524,46.98427],[8.49663,46.97643],[8.51937,46.97981],[8.5427,46.97959],[8.57105,46.99016],[8.58243,46.99341],[8.59715,46.99021],[8.60315,46.98684],[8.60414,46.98233],[8.60119,46.97523],[8.60351,46.96855],[8.6044,46.95196],[8.62371,46.95251],[8.62894,46.9499],[8.64079,46.94962],[8.64544,46.94903],[8.65692,46.94586],[8.65884,46.94642],[8.66958,46.94407],[8.68117,46.94613],[8.68431,46.94545],[8.69296,46.94698],[8.69641,46.94304],[8.69658,46.9403],[8.70032,46.93265],[8.69654,46.9288],[8.69957,46.92298],[8.70659,46.91875],[8.70882,46.91714],[8.71265,46.91862],[8.7155,46.91809],[8.72057,46.92045],[8.72051,46.92184],[8.72542,46.92527],[8.73743,46.93238],[8.74363,46.93236],[8.74515,46.93521],[8.74913,46.93367],[8.7563,46.93658],[8.76521,46.93873],[8.77093,46.9415],[8.77431,46.93826],[8.77784,46.93313],[8.78775,46.93035],[8.79197,46.93078],[8.79797,46.93673],[8.80419,46.93832],[8.8107,46.94145],[8.81419,46.93863],[8.82113,46.93624],[8.82677,46.93571],[8.82985,46.93161],[8.82963,46.928],[8.82751,46.92241],[8.82779,46.91934],[8.83014,46.91673],[8.83612,46.90768],[8.84269,46.90946],[8.84713,46.91317],[8.84939,46.90866],[8.84824,46.90523],[8.84921,46.90011],[8.84784,46.89099],[8.85318,46.8854],[8.85621,46.88862],[8.86123,46.89178],[8.86128,46.89451],[8.86853,46.89421],[8.87443,46.89497],[8.88103,46.89789],[8.8835,46.90079],[8.89098,46.9031],[8.89518,46.90292],[8.89879,46.90634],[8.90297,46.90823],[8.90964,46.9087],[8.91132,46.91073],[8.91496,46.91108],[8.92145,46.91409],[8.93466,46.91929],[8.93605,46.92029]]]},"properties":{"id":"CH-SZ","name":"Schwyz"}}
]}