{"type":"FeatureCollection", "features": [
{"type":"Feature","geometry":{"type":"MultiPolygon","coordinates":[[[[8.56308,47.59945],[8.55582,47.59672],[8.55587,47.59463],[8.55045,47.59226],[8.54776,47.59274],[8.53535,47.58712],[8.53701,47.58343],[8.53577,47.58077],[8.53755,47.57796],[8.53498,47.57528],[8.54639,47.57417],[8.54622,47.57131],[8.5416,47.56993],[8.54558,47.56733],[8.54651,47.56649],[8.54821,47.56452],[8.54971,47.56195],[8.55064,47.55694],[8.55101,47.55605],[8.55171,47.55525],[8.55443,47.55291],[8.5558,47.55241],[8.55769,47.55249],[8.55914,47.55316],[8.56104,47.55496],[8.5671,47.56192],[8.56775,47.56296],[8.56921,47.56631],[8.56973,47.57011],[8.57001,47.57107],[8.57071,47.57247],[8.57202,47.57437],[8.57308,47.57513],[8.57408,47.57552],[8.5787,47.57611],[8.58011,47.57845],[8.5771,47.58559],[8.58021,47.59129],[8.58279,47.59293],[8.58529,47.59387],[8.59254,47.59546],[8.59355,47.59589],[8.59481,47.59709],[8.59435,47.60144],[8.59573,47.60561],[8.59274,47.60616],[8.59018,47.60121],[8.58432,47.59979],[8.58258,47.59614],[8.57152,47.59815],[8.56664,47.59715],[8.56308,47.59945]]],[[[8.8754,47.65495],[8.87617,47.66044],[8.87345,47.67021],[8.87066,47.6717],[8.86789,47.67589],[8.86058,47.68031],[8.85056,47.68117],[8.85111,47.68501],[8.85636,47.68909],[8.85772,47.69265],[8.85474,47.69449],[8.85081,47.69465],[8.85154,47.69762],[8.85483,47.69704],[8.85808,47.69874],[8.86322,47.69843],[8.86631,47.69638],[8.86606,47.69382],[8.87106,47.69342],[8.87472,47.69448],[8.87615,47.69685],[8.871,47.70149],[8.87274,47.70408],[8.8683,47.70538],[8.86104,47.70413],[8.85471,47.70487],[8.84834,47.70337],[8.84587,47.70856],[8.84577,47.71115],[8.83359,47.71456],[8.83009,47.71187],[8.82553,47.711],[8.81894,47.7133],[8.82556,47.71702],[8.82538,47.71871],[8.81854,47.71764],[8.81271,47.72377],[8.80562,47.7259],[8.80979,47.72755],[8.81218,47.73042],[8.80855,47.73121],[8.80758,47.73714],[8.79945,47.73612],[8.79657,47.73455],[8.7992,47.72712],[8.79182,47.7288],[8.78661,47.72633],[8.78364,47.72616],[8.78078,47.72166],[8.77632,47.72272],[8.7748,47.71907],[8.7697,47.71782],[8.77031,47.71503],[8.77287,47.71322],[8.76934,47.70685],[8.78658,47.70462],[8.79075,47.70527],[8.79684,47.70275],[8.7985,47.70045],[8.7976,47.69721],[8.80634,47.69651],[8.81011,47.69335],[8.80539,47.69154],[8.80011,47.69185],[8.79709,47.68843],[8.79353,47.6801],[8.79383,47.67878],[8.79606,47.67534],[8.79821,47.67591],[8.80217,47.67808],[8.80417,47.67836],[8.80539,47.67815],[8.80891,47.67684],[8.81677,47.67782],[8.82633,47.67502],[8.82927,47.6748],[8.8356,47.67212],[8.83841,47.67023],[8.84066,47.66516],[8.85457,47.66067],[8.84628,47.65226],[8.85795,47.65008],[8.86065,47.65395],[8.86533,47.6561],[8.87245,47.65395],[8.8754,47.65495]]],[[[8.66314,47.6853],[8.66405,47.68815],[8.65969,47.68948],[8.65987,47.69133],[8.66839,47.69209],[8.67641,47.69809],[8.67358,47.70489],[8.66602,47.70786],[8.66466,47.71336],[8.67138,47.711],[8.67422,47.71269],[8.68134,47.71242],[8.67993,47.71056],[8.68384,47.70873],[8.69032,47.70945],[8.68968,47.71171],[8.70129,47.71519],[8.70464,47.71343],[8.70893,47.70414],[8.71181,47.70174],[8.7114,47.69633],[8.71763,47.69493],[8.71787,47.69069],[8.72021,47.69158],[8.72272,47.69223],[8.72534,47.69262],[8.72802,47.69276],[8.7265,47.69661],[8.73107,47.70757],[8.7322,47.71176],[8.73631,47.71633],[8.73303,47.71851],[8.71794,47.72162],[8.71381,47.72773],[8.71116,47.73014],[8.71461,47.73859],[8.72024,47.741],[8.72363,47.74565],[8.73954,47.74652],[8.74144,47.74818],[8.74114,47.75198],[8.72896,47.75796],[8.73081,47.75961],[8.72733,47.76227],[8.72139,47.76309],[8.71407,47.7654],[8.70954,47.76315],[8.70699,47.76368],[8.69734,47.75664],[8.69284,47.75621],[8.68871,47.75836],[8.68681,47.76526],[8.68359,47.7706],[8.68863,47.77352],[8.68321,47.7773],[8.68237,47.7837],[8.67113,47.78759],[8.66758,47.7877],[8.66,47.794],[8.66031,47.79632],[8.65686,47.80044],[8.6496,47.79846],[8.64693,47.79471],[8.64546,47.78722],[8.64916,47.78429],[8.65007,47.78134],[8.64811,47.77406],[8.65297,47.7734],[8.64535,47.76852],[8.64757,47.76696],[8.6424,47.76521],[8.63394,47.76024],[8.63167,47.75819],[8.6277,47.75939],[8.62504,47.76389],[8.61945,47.76766],[8.62337,47.77728],[8.61879,47.77814],[8.61509,47.78397],[8.61577,47.78714],[8.6205,47.78894],[8.62215,47.79486],[8.61791,47.79604],[8.6186,47.79832],[8.61142,47.8019],[8.60086,47.80301],[8.59825,47.80241],[8.59286,47.7987],[8.58775,47.80265],[8.57989,47.80011],[8.57593,47.80172],[8.5731,47.80607],[8.56803,47.80845],[8.56381,47.80539],[8.56252,47.80231],[8.562,47.79259],[8.57496,47.78962],[8.57446,47.78689],[8.57733,47.78167],[8.574,47.78036],[8.56289,47.77789],[8.56193,47.78053],[8.55635,47.78387],[8.55292,47.78463],[8.53565,47.77978],[8.53246,47.77803],[8.52648,47.77801],[8.5219,47.77385],[8.52021,47.77052],[8.51641,47.77328],[8.50961,47.77462],[8.50231,47.77364],[8.49537,47.77074],[8.48902,47.77321],[8.48315,47.77029],[8.48155,47.76832],[8.47351,47.76431],[8.47056,47.76127],[8.46546,47.75285],[8.45798,47.75044],[8.45619,47.74878],[8.45585,47.7428],[8.45078,47.74016],[8.4498,47.73812],[8.45138,47.73318],[8.45365,47.73049],[8.45425,47.72352],[8.44534,47.72307],[8.4261,47.71129],[8.42015,47.70951],[8.41712,47.71018],[8.41431,47.70676],[8.40811,47.7021],[8.40465,47.69803],[8.40641,47.69557],[8.41198,47.69441],[8.4182,47.68819],[8.42079,47.68387],[8.4162,47.67979],[8.40803,47.67822],[8.4056,47.67419],[8.41221,47.66633],[8.42365,47.66686],[8.432,47.66213],[8.43528,47.65948],[8.44512,47.65386],[8.45367,47.65477],[8.45729,47.65274],[8.46364,47.65631],[8.46714,47.65603],[8.46373,47.64846],[8.46711,47.64154],[8.47772,47.64466],[8.4734,47.64734],[8.47643,47.6501],[8.4804,47.64924],[8.48281,47.6441],[8.48742,47.64507],[8.49054,47.64238],[8.49369,47.64302],[8.49403,47.64664],[8.50317,47.64732],[8.50902,47.64669],[8.51332,47.6475],[8.52297,47.64485],[8.52984,47.64594],[8.5334,47.64787],[8.53351,47.65098],[8.52901,47.65549],[8.52694,47.66045],[8.53346,47.66312],[8.53372,47.65999],[8.54088,47.65875],[8.53887,47.66353],[8.54683,47.6675],[8.56089,47.67032],[8.56918,47.66419],[8.57767,47.66152],[8.58727,47.66625],[8.59331,47.66679],[8.59798,47.67272],[8.60661,47.67215],[8.60614,47.66913],[8.60809,47.6726],[8.6136,47.67854],[8.62032,47.67515],[8.62634,47.67782],[8.62735,47.68062],[8.62405,47.68968],[8.62703,47.69185],[8.63736,47.69312],[8.64151,47.69445],[8.64597,47.69361],[8.65419,47.68892],[8.66314,47.6853]]]]},"properties":{"id":"CH-SH","name":"Schaffhausen"}}
]}