{"type":"FeatureCollection", "features": [
{"type":"Feature","geometry":{"type":"Polygon","coordinates":[[[9.47579,47.05175],[9.47179,47.06151],[9.47187,47.0642],[9.4751,47.06697],[9.49228,47.07384],[9.51354,47.08563],[9.51561,47.08785],[9.51876,47.09479],[9.51962,47.10013],[9.51886,47.1055],[9.51184,47.13202],[9.50721,47.14238],[9.49973,47.14977],[9.49067,47.1645],[9.48598,47.18052],[9.48633,47.18414],[9.48976,47.19649],[9.49961,47.21128],[9.50165,47.22017],[9.50465,47.22512],[9.51802,47.24064],[9.52046,47.24396],[9.53012,47.26249],[9.5304,47.26968],[9.53295,47.27299],[9.54616,47.28001],[9.55129,47.28674],[9.55461,47.29595],[9.55643,47.29835],[9.56559,47.30412],[9.57881,47.30979],[9.58365,47.31271],[9.58924,47.31908],[9.59946,47.34512],[9.60577,47.35186],[9.62446,47.36614],[9.62628,47.36508],[9.63538,47.36737],[9.65054,47.36754],[9.65675,47.36882],[9.66241,47.37108],[9.67061,47.37779],[9.67314,47.38106],[9.67409,47.39015],[9.67061,47.39368],[9.66245,47.39639],[9.65734,47.40015],[9.65438,47.4044],[9.65162,47.40462],[9.65187,47.40872],[9.6503,47.42108],[9.64519,47.43181],[9.64435,47.43574],[9.6466,47.43967],[9.65799,47.44779],[9.65944,47.45138],[9.65537,47.45405],[9.64568,47.45565],[9.62633,47.45668],[9.62066,47.45842],[9.61697,47.46195],[9.6118,47.46924],[9.60662,47.46981],[9.60502,47.46397],[9.60048,47.46163],[9.59507,47.46337],[9.59296,47.46585],[9.58346,47.48111],[9.57923,47.48506],[9.56564,47.49245],[9.5613,47.49855],[9.56183,47.50456],[9.55872,47.54189],[9.50695,47.54974],[9.44697,47.51131],[9.43561,47.50651],[9.42511,47.5015],[9.42128,47.49617],[9.41354,47.49752],[9.41276,47.49549],[9.40647,47.49249],[9.40076,47.48246],[9.39931,47.47792],[9.39324,47.47598],[9.38879,47.48156],[9.38495,47.48213],[9.37961,47.48547],[9.37505,47.48706],[9.37314,47.48531],[9.36822,47.48474],[9.3682,47.48804],[9.37279,47.49046],[9.36844,47.49208],[9.36995,47.4945],[9.37408,47.49536],[9.37447,47.49966],[9.3678,47.50044],[9.36191,47.50286],[9.3561,47.50341],[9.35591,47.50087],[9.34657,47.50194],[9.34181,47.50372],[9.33636,47.50227],[9.33831,47.50683],[9.34328,47.50644],[9.34617,47.50802],[9.35048,47.5154],[9.35584,47.51636],[9.35316,47.51922],[9.34392,47.52075],[9.34141,47.52236],[9.33996,47.52986],[9.33692,47.52872],[9.32968,47.52964],[9.32414,47.52928],[9.31865,47.53152],[9.31234,47.52756],[9.31369,47.52475],[9.31276,47.52212],[9.30704,47.52585],[9.30275,47.52643],[9.30137,47.52412],[9.2963,47.52451],[9.29348,47.52291],[9.28229,47.52068],[9.28483,47.51851],[9.28267,47.51465],[9.27539,47.51315],[9.27154,47.51137],[9.27157,47.50783],[9.27362,47.50701],[9.28341,47.50608],[9.2864,47.50763],[9.29157,47.50666],[9.29535,47.50961],[9.29774,47.50917],[9.30193,47.51412],[9.30748,47.51314],[9.31275,47.50999],[9.3084,47.50529],[9.30953,47.49774],[9.31352,47.50022],[9.31742,47.50042],[9.32004,47.49714],[9.31901,47.49054],[9.31514,47.48631],[9.30905,47.48423],[9.30847,47.48199],[9.29865,47.47723],[9.29618,47.47874],[9.28894,47.4795],[9.287,47.48223],[9.28119,47.48307],[9.27837,47.47939],[9.27491,47.47912],[9.26186,47.47447],[9.24706,47.47583],[9.24461,47.48028],[9.23221,47.48105],[9.23232,47.48323],[9.22471,47.48455],[9.21829,47.48381],[9.21327,47.48037],[9.20897,47.48017],[9.20641,47.48668],[9.20762,47.48862],[9.19878,47.48898],[9.19675,47.49052],[9.18828,47.49257],[9.18287,47.49134],[9.18109,47.49652],[9.17743,47.49484],[9.16918,47.4983],[9.17197,47.50332],[9.16588,47.50408],[9.16073,47.49998],[9.16258,47.49723],[9.15795,47.48912],[9.15392,47.48697],[9.14921,47.4871],[9.14139,47.48481],[9.13727,47.48579],[9.1252,47.48371],[9.12463,47.48172],[9.11847,47.47972],[9.11443,47.48294],[9.09944,47.48522],[9.09754,47.48397],[9.08987,47.48277],[9.08818,47.48625],[9.08441,47.48894],[9.08355,47.49376],[9.07964,47.49488],[9.07618,47.49274],[9.07138,47.49257],[9.06469,47.49103],[9.05987,47.49123],[9.05949,47.48878],[9.05583,47.48741],[9.05123,47.49151],[9.04423,47.4928],[9.04106,47.49473],[9.03018,47.49041],[9.02832,47.48867],[9.01958,47.48892],[9.01249,47.48997],[9.01022,47.48774],[9.01079,47.48546],[9.00682,47.48282],[9.0088,47.47975],[9.00822,47.47237],[9.0175,47.46965],[9.02655,47.46782],[9.02918,47.46265],[9.02642,47.46014],[9.02736,47.45767],[9.03855,47.45467],[9.05042,47.45286],[9.05434,47.45057],[9.05459,47.44852],[9.0622,47.4465],[9.0573,47.44295],[9.05302,47.44256],[9.04747,47.44423],[9.04269,47.44014],[9.0381,47.44145],[9.03712,47.43907],[9.03289,47.43969],[9.03162,47.43762],[9.02648,47.43723],[9.02216,47.44167],[9.01966,47.44033],[9.01875,47.43677],[9.01198,47.43346],[9.0086,47.43441],[9.0033,47.43397],[8.99986,47.43214],[8.99204,47.42969],[8.98946,47.42497],[8.99348,47.42293],[8.99108,47.41857],[8.98873,47.41126],[8.9818,47.41249],[8.97658,47.41067],[8.97228,47.40371],[8.97567,47.39924],[8.97426,47.39813],[8.97149,47.39129],[8.96806,47.39127],[8.96636,47.3857],[8.965,47.38484],[8.96404,47.38594],[8.96265,47.38596],[8.95745,47.38643],[8.95379,47.38089],[8.94862,47.37987],[8.94579,47.37811],[8.94481,47.37497],[8.94831,47.37468],[8.95123,47.37172],[8.95181,47.36838],[8.96089,47.35398],[8.96702,47.3543],[8.97164,47.35193],[8.97442,47.34738],[8.97331,47.34621],[8.97311,47.33987],[8.97929,47.33795],[8.97668,47.32929],[8.98087,47.32267],[8.98495,47.31939],[8.97496,47.30702],[8.96705,47.30577],[8.96439,47.30634],[8.95653,47.30426],[8.95194,47.29651],[8.94903,47.29442],[8.94891,47.29217],[8.93549,47.28919],[8.93808,47.28547],[8.94058,47.28436],[8.94365,47.2796],[8.94563,47.28204],[8.94883,47.28094],[8.94715,47.27494],[8.94091,47.27166],[8.94446,47.26949],[8.94294,47.26738],[8.93773,47.26428],[8.93708,47.26155],[8.93311,47.25888],[8.92838,47.25888],[8.90861,47.25441],[8.90513,47.25566],[8.89767,47.25422],[8.88458,47.25266],[8.8735,47.25199],[8.87377,47.24766],[8.87031,47.24667],[8.86976,47.24504],[8.86661,47.24396],[8.86,47.24398],[8.85253,47.24687],[8.85209,47.25077],[8.84475,47.24862],[8.84473,47.24697],[8.8373,47.24767],[8.82682,47.25151],[8.82157,47.25076],[8.80251,47.24667],[8.80279,47.24537],[8.79653,47.24252],[8.79572,47.23912],[8.80861,47.22009],[8.81078,47.21815],[8.81319,47.21635],[8.81582,47.21471],[8.82105,47.21216],[8.82418,47.211],[8.82736,47.21005],[8.83075,47.20927],[8.83421,47.20869],[8.83774,47.20833],[8.84116,47.20817],[8.84693,47.20835],[8.93639,47.21762],[8.94142,47.21814],[8.95548,47.21628],[8.95708,47.21636],[8.9668,47.21753],[8.96869,47.21742],[8.97042,47.21691],[8.97161,47.21626],[8.97255,47.21543],[8.9743,47.2128],[8.96922,47.21183],[8.96534,47.19816],[8.95749,47.19944],[8.96031,47.18876],[8.96199,47.17946],[8.97037,47.1788],[8.97397,47.18229],[8.97886,47.18265],[8.97956,47.18315],[8.98011,47.18333],[8.98452,47.1826],[8.98791,47.18173],[8.9916,47.18051],[8.9976,47.17785],[9.00257,47.17478],[9.0056,47.17399],[9.05381,47.13922],[9.06947,47.12981],[9.09394,47.13175],[9.10192,47.13316],[9.1098,47.13143],[9.11543,47.13275],[9.13592,47.13198],[9.1477,47.12891],[9.18988,47.1237],[9.18884,47.11535],[9.19002,47.10992],[9.18851,47.10783],[9.18862,47.10394],[9.18688,47.10224],[9.1863,47.09754],[9.19022,47.09006],[9.18879,47.08548],[9.19083,47.07756],[9.1903,47.06989],[9.18526,47.06423],[9.18375,47.05962],[9.17454,47.05292],[9.17134,47.05257],[9.1689,47.04999],[9.15969,47.04906],[9.15336,47.04727],[9.13807,47.03913],[9.1563,47.03018],[9.15795,47.03062],[9.1696,47.02663],[9.17521,47.0288],[9.18053,47.02592],[9.19186,47.03116],[9.20166,47.03512],[9.20919,47.03563],[9.21286,47.03356],[9.22194,47.03258],[9.22815,47.02839],[9.23005,47.02582],[9.23636,47.02398],[9.24284,47.01465],[9.24234,47.00875],[9.24968,46.99795],[9.24988,46.99521],[9.24556,46.9922],[9.24658,46.98703],[9.24394,46.98087],[9.24654,46.97874],[9.24681,46.97564],[9.24405,46.97117],[9.24274,46.96579],[9.24607,46.95874],[9.24471,46.95647],[9.23755,46.95494],[9.23656,46.95283],[9.23715,46.94781],[9.23631,46.94485],[9.23914,46.93938],[9.25026,46.93463],[9.25258,46.92703],[9.25023,46.92417],[9.25138,46.9216],[9.24883,46.9168],[9.2489,46.91627],[9.25436,46.91323],[9.2575,46.90839],[9.2634,46.90548],[9.26815,46.90328],[9.27348,46.90653],[9.28046,46.90723],[9.28692,46.90506],[9.29074,46.90696],[9.30106,46.90548],[9.30994,46.90576],[9.31763,46.90123],[9.32191,46.9006],[9.32913,46.90169],[9.33868,46.90203],[9.34311,46.89848],[9.34704,46.89967],[9.36551,46.89692],[9.36801,46.89772],[9.3817,46.89763],[9.38729,46.89661],[9.3943,46.89341],[9.4006,46.89234],[9.40995,46.89197],[9.4199,46.88956],[9.42532,46.88766],[9.42821,46.88554],[9.43326,46.88457],[9.43781,46.87973],[9.44065,46.87877],[9.44887,46.87288],[9.45255,46.87461],[9.45595,46.88121],[9.45426,46.88605],[9.46421,46.88644],[9.46778,46.88727],[9.46975,46.89147],[9.46726,46.89988],[9.47101,46.90142],[9.47543,46.90642],[9.48228,46.90821],[9.488,46.91229],[9.47858,46.91568],[9.47779,46.92056],[9.48044,46.92598],[9.48573,46.93038],[9.48653,46.93552],[9.49372,46.93771],[9.49287,46.93921],[9.49863,46.94508],[9.50021,46.94959],[9.50293,46.94934],[9.50461,46.95367],[9.5155,46.955],[9.51883,46.9565],[9.51871,46.9651],[9.51731,46.96744],[9.51895,46.97035],[9.52303,46.97256],[9.52865,46.97387],[9.5422,46.97463],[9.54558,46.97657],[9.52159,46.99762],[9.51864,47.00054],[9.51157,47.00805],[9.51053,47.00944],[9.50834,47.0151],[9.50607,47.01869],[9.48148,47.04408],[9.47579,47.05175]],[[9.44943,47.4922],[9.44817,47.49361],[9.45037,47.49699],[9.44848,47.50073],[9.45756,47.50725],[9.47197,47.50173],[9.48355,47.49377],[9.47843,47.49032],[9.46438,47.48414],[9.46451,47.48704],[9.45918,47.48936],[9.45303,47.49001],[9.44943,47.4922]],[[9.34327,47.24939],[9.33236,47.24961],[9.3238,47.24702],[9.31864,47.24788],[9.31439,47.25215],[9.30785,47.2553],[9.3088,47.2589],[9.30465,47.25978],[9.29717,47.25741],[9.29315,47.26039],[9.28971,47.26033],[9.2841,47.26566],[9.2791,47.26667],[9.2755,47.26855],[9.26717,47.2685],[9.2631,47.26564],[9.25644,47.26334],[9.25141,47.26566],[9.2475,47.26608],[9.24142,47.26467],[9.23273,47.26556],[9.22207,47.26899],[9.20626,47.27639],[9.20822,47.28014],[9.21335,47.28337],[9.21711,47.28451],[9.22236,47.28948],[9.22432,47.29287],[9.21732,47.3003],[9.21599,47.30251],[9.21776,47.30801],[9.21427,47.31327],[9.21301,47.3197],[9.21035,47.32168],[9.21614,47.32487],[9.22268,47.326],[9.22347,47.32719],[9.23272,47.33089],[9.23055,47.33633],[9.22744,47.33863],[9.22495,47.34237],[9.21099,47.34107],[9.20653,47.33904],[9.20569,47.3423],[9.19865,47.34778],[9.20186,47.35041],[9.20441,47.35459],[9.20227,47.35607],[9.19656,47.35363],[9.19268,47.36264],[9.19913,47.36144],[9.21017,47.36305],[9.21304,47.36512],[9.21302,47.36785],[9.21811,47.37109],[9.22089,47.37454],[9.22179,47.3779],[9.21877,47.38483],[9.22307,47.38764],[9.2292,47.38693],[9.23249,47.38841],[9.2323,47.39599],[9.23764,47.39641],[9.24439,47.39932],[9.25643,47.40058],[9.25755,47.39873],[9.2659,47.40115],[9.26936,47.39931],[9.27188,47.40103],[9.27942,47.39824],[9.28329,47.39869],[9.29628,47.39643],[9.29842,47.39619],[9.30199,47.39516],[9.30296,47.39522],[9.30862,47.39658],[9.32028,47.39819],[9.32473,47.40065],[9.32934,47.4013],[9.33264,47.39949],[9.34249,47.40001],[9.35477,47.4034],[9.35984,47.4034],[9.36627,47.4047],[9.37168,47.40771],[9.37915,47.40666],[9.38098,47.40652],[9.38509,47.40567],[9.38933,47.40445],[9.3903,47.40286],[9.39156,47.40166],[9.39193,47.40127],[9.39506,47.40124],[9.40187,47.40084],[9.40591,47.4023],[9.40924,47.40255],[9.41282,47.40544],[9.41405,47.40515],[9.41411,47.40494],[9.41664,47.40507],[9.41972,47.40595],[9.42649,47.40751],[9.42788,47.41045],[9.43297,47.41397],[9.43026,47.41819],[9.43504,47.42083],[9.43515,47.42473],[9.43285,47.4289],[9.43501,47.43429],[9.44143,47.43328],[9.44419,47.43405],[9.45053,47.43087],[9.45311,47.43268],[9.46394,47.43528],[9.47081,47.43894],[9.48043,47.43896],[9.48679,47.44133],[9.4951,47.4423],[9.5036,47.44541],[9.50965,47.44955],[9.51423,47.44931],[9.51954,47.45183],[9.52394,47.45136],[9.52543,47.45293],[9.53104,47.45433],[9.52746,47.45648],[9.52564,47.46137],[9.53109,47.46563],[9.53249,47.46784],[9.5424,47.46904],[9.54732,47.46544],[9.55408,47.46381],[9.55662,47.46479],[9.56343,47.46295],[9.57015,47.46351],[9.58135,47.46178],[9.58879,47.45965],[9.5903,47.45771],[9.59619,47.45854],[9.59692,47.45654],[9.60467,47.45238],[9.61442,47.44833],[9.62056,47.4479],[9.62971,47.44436],[9.62974,47.43984],[9.62795,47.43933],[9.62059,47.43809],[9.61783,47.43767],[9.6184,47.43655],[9.61645,47.43664],[9.61464,47.43568],[9.61295,47.43418],[9.60849,47.43332],[9.60623,47.43151],[9.5983,47.42916],[9.58866,47.42531],[9.58876,47.42162],[9.59706,47.41839],[9.60482,47.41437],[9.60231,47.41411],[9.59632,47.41154],[9.58987,47.41168],[9.58567,47.4106],[9.58308,47.4094],[9.58291,47.40929],[9.58166,47.40838],[9.57761,47.40697],[9.57638,47.40627],[9.56565,47.40042],[9.55624,47.39676],[9.55537,47.39592],[9.55383,47.39456],[9.55327,47.39401],[9.5493,47.39308],[9.54539,47.3943],[9.54536,47.39846],[9.54191,47.39957],[9.5366,47.3994],[9.52951,47.39758],[9.5112,47.39507],[9.50907,47.39459],[9.50457,47.38632],[9.5033,47.3809],[9.50303,47.37499],[9.499,47.36933],[9.50108,47.36813],[9.49886,47.36355],[9.50146,47.35454],[9.50264,47.35382],[9.50281,47.3478],[9.50303,47.34494],[9.50268,47.3344],[9.50203,47.33207],[9.50232,47.33148],[9.50068,47.32965],[9.50114,47.32818],[9.49841,47.3187],[9.49343,47.31453],[9.4929,47.31067],[9.49626,47.30601],[9.48887,47.3018],[9.49069,47.30076],[9.48934,47.2947],[9.48685,47.29071],[9.48776,47.28829],[9.48334,47.28267],[9.48052,47.28069],[9.48021,47.28013],[9.47653,47.27669],[9.4729,47.27166],[9.46655,47.26824],[9.46435,47.26584],[9.46125,47.2641],[9.45773,47.26346],[9.45111,47.26003],[9.45005,47.25842],[9.44199,47.25328],[9.43671,47.25098],[9.42983,47.24921],[9.42624,47.24711],[9.41892,47.24761],[9.40992,47.24394],[9.40244,47.23769],[9.39621,47.23735],[9.38202,47.23399],[9.37493,47.23707],[9.36489,47.24331],[9.35861,47.24431],[9.351,47.24436],[9.34369,47.24774],[9.34327,47.24939]]]},"properties":{"id":"CH-SG","name":"St. Gallen"}}
]}