{"type":"FeatureCollection", "features": [
{"type":"Feature","geometry":{"type":"MultiPolygon","coordinates":[[[[9.44943,47.4922],[9.45303,47.49001],[9.45918,47.48936],[9.46451,47.48704],[9.46438,47.48414],[9.47843,47.49032],[9.48355,47.49377],[9.47197,47.50173],[9.45756,47.50725],[9.44848,47.50073],[9.45037,47.49699],[9.44817,47.49361],[9.44943,47.4922]]],[[[8.8754,47.65495],[8.87245,47.65395],[8.86533,47.6561],[8.86065,47.65395],[8.85795,47.65008],[8.84628,47.65226],[8.85457,47.66067],[8.84066,47.66516],[8.83841,47.67023],[8.8356,47.67212],[8.82927,47.6748],[8.82633,47.67502],[8.81677,47.67782],[8.80891,47.67684],[8.80539,47.67815],[8.80388,47.67836],[8.80191,47.67798],[8.79852,47.67605],[8.79682,47.67548],[8.79299,47.67489],[8.78785,47.67569],[8.77448,47.68084],[8.76531,47.68671],[8.75897,47.68902],[8.75166,47.6907],[8.74258,47.69113],[8.73477,47.69279],[8.73223,47.6929],[8.72468,47.69255],[8.72083,47.69176],[8.71511,47.68969],[8.70516,47.6902],[8.69911,47.69311],[8.69172,47.69528],[8.68804,47.69457],[8.68489,47.69138],[8.67844,47.68749],[8.66943,47.68485],[8.66962,47.68103],[8.66799,47.67714],[8.66944,47.67467],[8.67688,47.67177],[8.6777,47.66258],[8.68038,47.65815],[8.68671,47.6536],[8.68807,47.64998],[8.69316,47.64802],[8.69837,47.64771],[8.7028,47.64507],[8.70816,47.64232],[8.71108,47.64361],[8.71419,47.64438],[8.71723,47.64181],[8.72351,47.64185],[8.72964,47.64282],[8.73493,47.64117],[8.74316,47.64215],[8.74337,47.63977],[8.75519,47.64202],[8.76236,47.64617],[8.76485,47.64882],[8.76884,47.65018],[8.77619,47.64885],[8.78228,47.65236],[8.78541,47.65511],[8.78854,47.66536],[8.79299,47.66468],[8.80237,47.66529],[8.80494,47.6604],[8.80486,47.65223],[8.80994,47.65163],[8.81581,47.64909],[8.81893,47.64892],[8.82451,47.64761],[8.82656,47.64615],[8.82633,47.6461],[8.82645,47.6436],[8.82682,47.64252],[8.82732,47.64138],[8.82752,47.6401],[8.82469,47.63389],[8.82024,47.6293],[8.81796,47.62981],[8.81315,47.62744],[8.81171,47.62264],[8.81317,47.61653],[8.80853,47.61409],[8.80505,47.61373],[8.80402,47.60813],[8.80169,47.60296],[8.79654,47.60259],[8.78879,47.60344],[8.78981,47.60941],[8.78676,47.60954],[8.77946,47.6127],[8.76957,47.6151],[8.76219,47.61809],[8.75837,47.61838],[8.75633,47.61662],[8.75087,47.61973],[8.74813,47.62304],[8.74586,47.62017],[8.74582,47.61295],[8.74018,47.6119],[8.73941,47.60804],[8.74211,47.60462],[8.74804,47.59962],[8.74725,47.59578],[8.74823,47.59231],[8.75637,47.59289],[8.76528,47.59255],[8.80605,47.58315],[8.80241,47.58285],[8.80107,47.58054],[8.80621,47.5795],[8.80475,47.57506],[8.8081,47.57433],[8.80742,47.57157],[8.8166,47.57017],[8.82382,47.57249],[8.83002,47.5711],[8.83123,47.57339],[8.83882,47.57119],[8.8392,47.56535],[8.84485,47.56614],[8.8443,47.56325],[8.85098,47.56361],[8.8511,47.5608],[8.84164,47.56002],[8.83802,47.55726],[8.82946,47.5576],[8.8279,47.55598],[8.83274,47.54876],[8.83442,47.54291],[8.83995,47.53933],[8.84117,47.53687],[8.84077,47.53271],[8.84743,47.53126],[8.85578,47.53041],[8.86962,47.5303],[8.87989,47.5276],[8.88346,47.52942],[8.88631,47.52784],[8.89676,47.52561],[8.89777,47.52401],[8.89531,47.51925],[8.8971,47.51768],[8.89635,47.51367],[8.89734,47.50826],[8.8936,47.50065],[8.89282,47.48841],[8.89679,47.4879],[8.89771,47.48511],[8.88531,47.48171],[8.88432,47.46967],[8.89073,47.4693],[8.89172,47.46437],[8.89562,47.46277],[8.89578,47.45937],[8.90035,47.4546],[8.90701,47.45075],[8.90899,47.44773],[8.90559,47.44678],[8.90266,47.44424],[8.90704,47.43956],[8.91097,47.43664],[8.91882,47.43626],[8.92165,47.43488],[8.93113,47.4353],[8.93004,47.43159],[8.92587,47.43152],[8.9221,47.43299],[8.91701,47.43317],[8.91362,47.43153],[8.91095,47.43372],[8.90775,47.43133],[8.90872,47.42953],[8.91462,47.42773],[8.91116,47.42357],[8.91394,47.41827],[8.9127,47.41284],[8.90449,47.40456],[8.90348,47.40205],[8.91557,47.39989],[8.92082,47.39946],[8.92598,47.3969],[8.93187,47.39148],[8.93608,47.39026],[8.94156,47.38732],[8.94367,47.38412],[8.94013,47.37975],[8.94354,47.37591],[8.94579,47.37811],[8.94862,47.37987],[8.95379,47.38089],[8.95745,47.38643],[8.96265,47.38596],[8.96404,47.38594],[8.965,47.38484],[8.96636,47.3857],[8.96806,47.39127],[8.97149,47.39129],[8.97426,47.39813],[8.97567,47.39924],[8.97228,47.40371],[8.97658,47.41067],[8.9818,47.41249],[8.98873,47.41126],[8.99108,47.41857],[8.99348,47.42293],[8.98946,47.42497],[8.99204,47.42969],[8.99986,47.43214],[9.0033,47.43397],[9.0086,47.43441],[9.01198,47.43346],[9.01875,47.43677],[9.01966,47.44033],[9.02216,47.44167],[9.02648,47.43723],[9.03162,47.43762],[9.03289,47.43969],[9.03712,47.43907],[9.0381,47.44145],[9.04269,47.44014],[9.04747,47.44423],[9.05302,47.44256],[9.0573,47.44295],[9.0622,47.4465],[9.05459,47.44852],[9.05434,47.45057],[9.05042,47.45286],[9.03855,47.45467],[9.02736,47.45767],[9.02642,47.46014],[9.02918,47.46265],[9.02655,47.46782],[9.0175,47.46965],[9.00822,47.47237],[9.0088,47.47975],[9.00682,47.48282],[9.01079,47.48546],[9.01022,47.48774],[9.01249,47.48997],[9.01958,47.48892],[9.02832,47.48867],[9.03018,47.49041],[9.04106,47.49473],[9.04423,47.4928],[9.05123,47.49151],[9.05583,47.48741],[9.05949,47.48878],[9.05987,47.49123],[9.06469,47.49103],[9.07138,47.49257],[9.07618,47.49274],[9.07964,47.49488],[9.08355,47.49376],[9.08441,47.48894],[9.08818,47.48625],[9.08987,47.48277],[9.09754,47.48397],[9.09944,47.48522],[9.11443,47.48294],[9.11847,47.47972],[9.12463,47.48172],[9.1252,47.48371],[9.13727,47.48579],[9.14139,47.48481],[9.14921,47.4871],[9.15392,47.48697],[9.15795,47.48912],[9.16258,47.49723],[9.16073,47.49998],[9.16588,47.50408],[9.17197,47.50332],[9.16918,47.4983],[9.17743,47.49484],[9.18109,47.49652],[9.18287,47.49134],[9.18828,47.49257],[9.19675,47.49052],[9.19878,47.48898],[9.20762,47.48862],[9.20641,47.48668],[9.20897,47.48017],[9.21327,47.48037],[9.21829,47.48381],[9.22471,47.48455],[9.23232,47.48323],[9.23221,47.48105],[9.24461,47.48028],[9.24706,47.47583],[9.26186,47.47447],[9.27491,47.47912],[9.27837,47.47939],[9.28119,47.48307],[9.287,47.48223],[9.28894,47.4795],[9.29618,47.47874],[9.29865,47.47723],[9.30847,47.48199],[9.30905,47.48423],[9.31514,47.48631],[9.31901,47.49054],[9.32004,47.49714],[9.31742,47.50042],[9.31352,47.50022],[9.30953,47.49774],[9.3084,47.50529],[9.31275,47.50999],[9.30748,47.51314],[9.30193,47.51412],[9.29774,47.50917],[9.29535,47.50961],[9.29157,47.50666],[9.2864,47.50763],[9.28341,47.50608],[9.27362,47.50701],[9.27157,47.50783],[9.27154,47.51137],[9.27539,47.51315],[9.28267,47.51465],[9.28483,47.51851],[9.28229,47.52068],[9.29348,47.52291],[9.2963,47.52451],[9.30137,47.52412],[9.30275,47.52643],[9.30704,47.52585],[9.31276,47.52212],[9.31369,47.52475],[9.31234,47.52756],[9.31865,47.53152],[9.32414,47.52928],[9.32968,47.52964],[9.33692,47.52872],[9.33996,47.52986],[9.34141,47.52236],[9.34392,47.52075],[9.35316,47.51922],[9.35584,47.51636],[9.35048,47.5154],[9.34617,47.50802],[9.34328,47.50644],[9.33831,47.50683],[9.33636,47.50227],[9.34181,47.50372],[9.34657,47.50194],[9.35591,47.50087],[9.3561,47.50341],[9.36191,47.50286],[9.3678,47.50044],[9.37447,47.49966],[9.37408,47.49536],[9.36995,47.4945],[9.36844,47.49208],[9.37279,47.49046],[9.3682,47.48804],[9.36822,47.48474],[9.37314,47.48531],[9.37505,47.48706],[9.37961,47.48547],[9.38495,47.48213],[9.38879,47.48156],[9.39324,47.47598],[9.39931,47.47792],[9.40076,47.48246],[9.40647,47.49249],[9.41276,47.49549],[9.41354,47.49752],[9.42128,47.49617],[9.42511,47.5015],[9.43561,47.50651],[9.44697,47.51131],[9.50695,47.54974],[9.4956,47.55145],[9.39471,47.62033],[9.25656,47.65871],[9.21483,47.6551],[9.20304,47.65533],[9.1871,47.65745],[9.17788,47.65484],[9.16974,47.65602],[9.16066,47.66225],[9.15784,47.66576],[9.15078,47.66764],[9.13922,47.66417],[9.13281,47.66602],[9.1217,47.66777],[9.11428,47.67029],[9.10434,47.67613],[9.0942,47.67942],[9.08803,47.67992],[9.07589,47.67862],[9.07153,47.67957],[9.04862,47.68265],[9.02867,47.68651],[9.01943,47.68648],[9.01259,47.68438],[8.99932,47.67826],[8.99007,47.67528],[8.98015,47.67351],[8.97485,47.66898],[8.96908,47.6677],[8.96158,47.66426],[8.95573,47.66299],[8.95041,47.66043],[8.94606,47.6595],[8.94244,47.65671],[8.93711,47.6557],[8.92655,47.65516],[8.92153,47.65316],[8.9072,47.65062],[8.90247,47.6487],[8.89475,47.64817],[8.88999,47.65006],[8.88566,47.65307],[8.87914,47.65502],[8.8754,47.65495]]]]},"properties":{"id":"CH-TG","name":"Thurgau"}}
]}