{"type":"FeatureCollection", "features": [
{"type":"Feature","geometry":{"type":"Polygon","coordinates":[[[8.47746,46.52741],[8.47852,46.52558],[8.47282,46.52324],[8.47073,46.51985],[8.46613,46.51757],[8.4618,46.51262],[8.45494,46.50788],[8.4517,46.5078],[8.44581,46.49869],[8.44307,46.49538],[8.43446,46.49706],[8.41968,46.49262],[8.41442,46.49473],[8.41108,46.49279],[8.40142,46.49245],[8.39882,46.49418],[8.39238,46.49465],[8.39158,46.49186],[8.39401,46.48842],[8.39429,46.4837],[8.39147,46.4826],[8.38599,46.47568],[8.38956,46.47259],[8.38997,46.46973],[8.38546,46.46557],[8.38575,46.46182],[8.38233,46.45992],[8.38423,46.45377],[8.38472,46.45216],[8.38923,46.45277],[8.39296,46.45158],[8.39595,46.45456],[8.40223,46.45474],[8.40458,46.45721],[8.40842,46.45874],[8.41812,46.45902],[8.42114,46.46093],[8.42736,46.46164],[8.4316,46.46345],[8.43841,46.46279],[8.4461,46.46366],[8.45001,46.46184],[8.45315,46.45817],[8.4528,46.45535],[8.45555,46.45336],[8.46199,46.45071],[8.46175,46.44598],[8.46594,46.44437],[8.46398,46.4392],[8.45928,46.43704],[8.45753,46.43476],[8.46076,46.4284],[8.45737,46.42549],[8.45687,46.42318],[8.45883,46.41948],[8.46303,46.41792],[8.46832,46.41174],[8.46703,46.40899],[8.46305,46.40487],[8.46366,46.4026],[8.47117,46.39592],[8.46228,46.38893],[8.46194,46.38606],[8.46651,46.38006],[8.46742,46.37269],[8.4668,46.36864],[8.46938,46.3609],[8.46467,46.35833],[8.46156,46.35326],[8.46454,46.34723],[8.46329,46.33681],[8.46542,46.33392],[8.46042,46.32841],[8.45566,46.32725],[8.45385,46.32126],[8.44419,46.3199],[8.44141,46.31563],[8.44179,46.31014],[8.43912,46.30805],[8.44053,46.30412],[8.43302,46.30221],[8.42774,46.2983],[8.43399,46.29182],[8.43401,46.28848],[8.43631,46.28567],[8.44977,46.27432],[8.45588,46.26376],[8.4495,46.26089],[8.44228,46.25415],[8.44338,46.25024],[8.44699,46.24796],[8.45018,46.24816],[8.46411,46.24455],[8.46582,46.24201],[8.46622,46.2363],[8.46868,46.23289],[8.47753,46.23037],[8.48686,46.23027],[8.49238,46.2291],[8.50192,46.22607],[8.51091,46.22116],[8.51758,46.22023],[8.52169,46.22185],[8.52874,46.22005],[8.53244,46.21828],[8.53267,46.21557],[8.5364,46.20427],[8.54048,46.19781],[8.54552,46.19613],[8.55359,46.19203],[8.55498,46.18722],[8.5637,46.18395],[8.5641,46.18256],[8.56985,46.1769],[8.57212,46.16692],[8.57364,46.16431],[8.57822,46.16166],[8.58431,46.16287],[8.58806,46.16102],[8.58954,46.15694],[8.59451,46.15569],[8.60318,46.15533],[8.60017,46.1533],[8.60016,46.1498],[8.59663,46.1487],[8.59306,46.14599],[8.59308,46.14317],[8.59583,46.14257],[8.60257,46.13827],[8.60471,46.13524],[8.6097,46.13288],[8.60965,46.1271],[8.61228,46.1225],[8.61975,46.12142],[8.62814,46.12279],[8.63085,46.12221],[8.64002,46.12266],[8.64597,46.12376],[8.65324,46.11894],[8.65635,46.11594],[8.65771,46.11269],[8.66752,46.11035],[8.67027,46.10883],[8.67523,46.11052],[8.68077,46.10959],[8.68129,46.10574],[8.68794,46.10159],[8.69657,46.10201],[8.71399,46.09723],[8.71774,46.10132],[8.72427,46.11021],[8.73628,46.11879],[8.74234,46.12231],[8.7561,46.10472],[8.76002,46.10157],[8.76733,46.1004],[8.78303,46.09417],[8.79171,46.09483],[8.79978,46.0947],[8.80604,46.10128],[8.81529,46.09732],[8.81765,46.0943],[8.82115,46.09327],[8.82447,46.08891],[8.82636,46.08946],[8.83292,46.0834],[8.84243,46.07992],[8.84752,46.07575],[8.85211,46.07564],[8.85413,46.06857],[8.85459,46.06159],[8.84418,46.0485],[8.83453,46.05136],[8.83044,46.04735],[8.83547,46.04379],[8.83271,46.04056],[8.83003,46.0416],[8.82715,46.03227],[8.81968,46.02549],[8.80591,46.02193],[8.80443,46.01914],[8.79309,46.0081],[8.7872,45.99134],[8.78588,45.98908],[8.79083,45.98859],[8.79372,45.99209],[8.81391,45.99038],[8.81796,45.98805],[8.82762,45.98727],[8.83132,45.98802],[8.83413,45.98522],[8.83923,45.98422],[8.8427,45.98147],[8.84343,45.97761],[8.84777,45.97523],[8.86069,45.96611],[8.86473,45.96546],[8.86761,45.96113],[8.8745,45.95914],[8.87821,45.95664],[8.88709,45.95758],[8.89366,45.95898],[8.89665,45.95475],[8.89672,45.95134],[8.8986,45.94626],[8.89797,45.9437],[8.8935,45.93739],[8.89331,45.93118],[8.89757,45.92584],[8.90402,45.92204],[8.90745,45.91779],[8.91429,45.9178],[8.92025,45.90896],[8.92413,45.90564],[8.92494,45.90085],[8.9224,45.89672],[8.92414,45.89222],[8.92732,45.89171],[8.93155,45.88581],[8.93328,45.88011],[8.93317,45.87483],[8.93703,45.86731],[8.94161,45.87027],[8.9453,45.86698],[8.94038,45.86408],[8.93487,45.86268],[8.93254,45.86096],[8.92069,45.84935],[8.91423,45.84223],[8.91273,45.838],[8.91215,45.83044],[8.91841,45.83356],[8.92381,45.83411],[8.92903,45.83338],[8.93285,45.83868],[8.94881,45.84343],[8.96028,45.83996],[8.96123,45.83672],[8.96687,45.83475],[8.96998,45.83235],[8.97335,45.83245],[8.97617,45.83663],[8.98166,45.83574],[8.98667,45.83852],[8.99083,45.8354],[8.99749,45.83494],[8.99291,45.82314],[8.99844,45.82292],[9.00424,45.82024],[9.00977,45.81974],[9.01472,45.81821],[9.02212,45.82187],[9.03157,45.82089],[9.03412,45.82335],[9.03093,45.82469],[9.03473,45.82996],[9.03445,45.83229],[9.03786,45.83547],[9.03531,45.83908],[9.03865,45.84203],[9.04063,45.84649],[9.04381,45.84659],[9.04909,45.85366],[9.05183,45.85443],[9.04938,45.85846],[9.04937,45.8631],[9.05544,45.87181],[9.05479,45.87355],[9.06564,45.87606],[9.06983,45.87889],[9.07215,45.88227],[9.07784,45.88507],[9.07935,45.88833],[9.07795,45.89203],[9.08164,45.8918],[9.0888,45.8969],[9.08684,45.90221],[9.07693,45.8993],[9.07547,45.90608],[9.07734,45.90918],[9.07658,45.91142],[9.07264,45.91284],[9.06955,45.91173],[9.06417,45.91482],[9.05906,45.91648],[9.06004,45.92082],[9.04908,45.92042],[9.04943,45.92208],[9.04254,45.92736],[9.03679,45.92634],[9.02984,45.9265],[9.02652,45.9287],[9.01991,45.92913],[9.02204,45.93809],[9.01977,45.9397],[9.01357,45.94151],[9.01371,45.94452],[9.01713,45.94901],[9.01532,45.95081],[9.01396,45.96055],[9.00921,45.96238],[8.99403,45.96655],[8.98899,45.97034],[8.99235,45.97256],[8.99582,45.97284],[8.99602,45.97875],[9.00833,45.98076],[9.01115,45.98318],[9.01136,45.9879],[9.01808,45.98765],[9.0225,45.98954],[9.02289,45.99276],[9.02846,45.99363],[9.02451,46.00076],[9.02254,46.01686],[9.01345,46.02458],[9.00907,46.02684],[9.00759,46.0298],[9.00881,46.03157],[9.00953,46.03729],[9.01689,46.0431],[9.01595,46.04675],[9.01721,46.04973],[9.02372,46.05278],[9.02876,46.05302],[9.03937,46.05894],[9.04477,46.05897],[9.05023,46.06236],[9.05541,46.06213],[9.06042,46.06066],[9.07033,46.06264],[9.07382,46.06251],[9.07714,46.06412],[9.07867,46.06689],[9.07789,46.06934],[9.07862,46.07493],[9.08325,46.0778],[9.08943,46.08569],[9.08915,46.09007],[9.08127,46.10216],[9.07763,46.11057],[9.07387,46.11413],[9.07242,46.11796],[9.07605,46.12033],[9.08526,46.12283],[9.08998,46.12558],[9.09959,46.12738],[9.10458,46.13164],[9.11221,46.1347],[9.11707,46.13541],[9.12097,46.13453],[9.12705,46.1433],[9.12902,46.1474],[9.1324,46.14943],[9.13448,46.15331],[9.14077,46.15495],[9.14452,46.1584],[9.14953,46.16051],[9.15536,46.16149],[9.15864,46.16493],[9.15822,46.16991],[9.15644,46.16982],[9.15034,46.17179],[9.14186,46.17793],[9.13555,46.18037],[9.1313,46.1848],[9.13109,46.18839],[9.12505,46.19503],[9.12074,46.19838],[9.11983,46.19971],[9.11123,46.20498],[9.10834,46.20565],[9.08906,46.21237],[9.08689,46.21428],[9.08395,46.21985],[9.08285,46.2253],[9.07961,46.23328],[9.07457,46.23172],[9.07141,46.23606],[9.07603,46.23787],[9.07722,46.25866],[9.07777,46.2603],[9.07222,46.26771],[9.06364,46.27305],[9.06223,46.27771],[9.05813,46.2813],[9.05371,46.29304],[9.05563,46.29603],[9.06048,46.29739],[9.06834,46.3074],[9.07218,46.30856],[9.07511,46.3146],[9.07258,46.31884],[9.06736,46.32373],[9.06433,46.32537],[9.06445,46.32787],[9.06965,46.33253],[9.06645,46.33636],[9.06958,46.34118],[9.07637,46.34672],[9.08193,46.34902],[9.08827,46.3492],[9.0887,46.3529],[9.09161,46.35547],[9.09445,46.36407],[9.09267,46.36763],[9.09296,46.37083],[9.09563,46.373],[9.09307,46.377],[9.09314,46.37971],[9.08726,46.38883],[9.09123,46.3957],[9.09622,46.39987],[9.09184,46.40282],[9.09067,46.40678],[9.10106,46.41024],[9.1031,46.41166],[9.10092,46.41754],[9.09787,46.42075],[9.09541,46.42532],[9.08902,46.43215],[9.08958,46.43693],[9.08702,46.44369],[9.09172,46.44876],[9.09206,46.45326],[9.09508,46.46039],[9.08984,46.46712],[9.08506,46.47095],[9.08543,46.4754],[9.07356,46.48027],[9.06524,46.4783],[9.06055,46.4763],[9.05377,46.47688],[9.05104,46.47931],[9.04534,46.48135],[9.04789,46.48381],[9.04507,46.48815],[9.04025,46.48956],[9.04016,46.49395],[9.03469,46.50079],[9.02898,46.5032],[9.02417,46.50791],[9.02202,46.51297],[9.02316,46.51908],[9.02066,46.52353],[9.02093,46.52691],[9.01719,46.52904],[9.01664,46.53204],[9.02164,46.53394],[9.02296,46.53788],[9.01926,46.54754],[9.02417,46.55463],[9.02324,46.55824],[9.02703,46.56332],[9.0267,46.56598],[9.02991,46.57134],[9.03565,46.5759],[9.03769,46.58236],[9.04242,46.58353],[9.04376,46.58725],[9.04107,46.59016],[9.03536,46.59197],[9.03416,46.5938],[9.0341,46.60002],[9.0272,46.59942],[9.02525,46.60148],[9.0208,46.60325],[9.01623,46.60321],[9.01171,46.60796],[9.00421,46.61133],[8.99535,46.61173],[8.98375,46.60881],[8.9731,46.60266],[8.96604,46.60377],[8.96221,46.60264],[8.9597,46.6107],[8.963,46.61814],[8.95783,46.62987],[8.95299,46.63225],[8.95086,46.62992],[8.9513,46.62576],[8.94146,46.61849],[8.93314,46.62093],[8.92096,46.62209],[8.91863,46.61981],[8.91169,46.61879],[8.9073,46.61571],[8.90542,46.612],[8.9072,46.60621],[8.90961,46.60321],[8.91538,46.59921],[8.91676,46.59687],[8.91626,46.59268],[8.91257,46.58966],[8.90368,46.5841],[8.89394,46.58196],[8.8893,46.57916],[8.87944,46.57762],[8.87695,46.57467],[8.86739,46.57317],[8.86295,46.57305],[8.86166,46.57113],[8.85568,46.57024],[8.84323,46.56336],[8.83339,46.56342],[8.83076,46.56474],[8.82967,46.57137],[8.80074,46.56328],[8.76196,46.57426],[8.75516,46.57417],[8.75075,46.57622],[8.74422,46.57232],[8.73921,46.57216],[8.73738,46.5734],[8.72913,46.57588],[8.72794,46.57709],[8.72642,46.57567],[8.71944,46.57182],[8.71538,46.57124],[8.71178,46.57219],[8.7053,46.5738],[8.70515,46.57552],[8.70477,46.57713],[8.69867,46.57976],[8.6984,46.58105],[8.69632,46.58099],[8.69257,46.57967],[8.68564,46.58045],[8.68203,46.57856],[8.67875,46.57919],[8.67264,46.5785],[8.66686,46.57659],[8.66285,46.57383],[8.65996,46.57365],[8.65794,46.56975],[8.65129,46.56669],[8.64075,46.56413],[8.63466,46.56438],[8.63088,46.5658],[8.62891,46.57078],[8.62955,46.57374],[8.62656,46.57637],[8.6204,46.57809],[8.6147,46.57702],[8.61133,46.57524],[8.59978,46.57351],[8.59054,46.57341],[8.58373,46.5771],[8.58139,46.57705],[8.5774,46.58163],[8.57244,46.58374],[8.56521,46.58133],[8.55869,46.58158],[8.55092,46.58069],[8.54502,46.58401],[8.53894,46.58642],[8.53649,46.5849],[8.53139,46.58457],[8.52633,46.58153],[8.52501,46.57783],[8.52118,46.57725],[8.52191,46.57458],[8.51997,46.57266],[8.52101,46.56692],[8.51814,46.56544],[8.51417,46.56011],[8.51355,46.55663],[8.51587,46.55447],[8.51446,46.55153],[8.51771,46.54519],[8.52044,46.5425],[8.51947,46.53892],[8.51382,46.53818],[8.50542,46.53518],[8.49506,46.53455],[8.49135,46.53304],[8.48264,46.53239],[8.47902,46.52846],[8.47746,46.52741]],[[8.96415,45.97615],[8.96708,45.98415],[8.97725,45.98304],[8.97633,45.97586],[8.97758,45.97161],[8.97693,45.96375],[8.97563,45.96163],[8.95854,45.96482],[8.96148,45.97236],[8.96415,45.97615]]]},"properties":{"id":"CH-TI","name":"Tessin"}}
]}