{"type":"FeatureCollection", "features": [
{"type":"Feature","geometry":{"type":"Polygon","coordinates":[[[8.47764,46.52761],[8.47902,46.52846],[8.48264,46.53239],[8.49135,46.53304],[8.49506,46.53455],[8.50542,46.53518],[8.51382,46.53818],[8.51947,46.53892],[8.52044,46.5425],[8.51771,46.54519],[8.51446,46.55153],[8.51587,46.55447],[8.51355,46.55663],[8.51417,46.56011],[8.51814,46.56544],[8.52101,46.56692],[8.51997,46.57266],[8.52191,46.57458],[8.52118,46.57725],[8.52501,46.57783],[8.52633,46.58153],[8.53139,46.58457],[8.53649,46.5849],[8.53894,46.58642],[8.54502,46.58401],[8.55092,46.58069],[8.55869,46.58158],[8.56521,46.58133],[8.57244,46.58374],[8.5774,46.58163],[8.58139,46.57705],[8.58373,46.5771],[8.59054,46.57341],[8.59978,46.57351],[8.61133,46.57524],[8.6147,46.57702],[8.6204,46.57809],[8.62656,46.57637],[8.62955,46.57374],[8.62891,46.57078],[8.63088,46.5658],[8.63466,46.56438],[8.64075,46.56413],[8.65129,46.56669],[8.65794,46.56975],[8.65996,46.57365],[8.66285,46.57383],[8.66686,46.57659],[8.67264,46.5785],[8.67875,46.57919],[8.68192,46.58853],[8.68061,46.59505],[8.67672,46.59937],[8.67961,46.60534],[8.67775,46.60936],[8.67875,46.61599],[8.67668,46.61997],[8.67134,46.61961],[8.66403,46.62168],[8.65926,46.62493],[8.65659,46.63133],[8.65107,46.63458],[8.65188,46.63794],[8.6557,46.63972],[8.65821,46.64777],[8.65488,46.64997],[8.6614,46.65602],[8.66622,46.65597],[8.67155,46.65891],[8.67542,46.66287],[8.67861,46.66426],[8.67714,46.66809],[8.67348,46.67263],[8.67422,46.67833],[8.67285,46.68122],[8.67503,46.68405],[8.67365,46.69091],[8.67633,46.69421],[8.68059,46.69505],[8.68629,46.69418],[8.6893,46.69616],[8.69259,46.70184],[8.70116,46.70339],[8.70899,46.69896],[8.7172,46.70258],[8.71771,46.70608],[8.72763,46.70744],[8.73319,46.71185],[8.7408,46.7146],[8.74753,46.71838],[8.74907,46.72074],[8.7444,46.72888],[8.74764,46.73591],[8.75298,46.73814],[8.75667,46.74104],[8.76612,46.74478],[8.76907,46.74456],[8.77017,46.74032],[8.77278,46.73976],[8.77737,46.73223],[8.78054,46.73121],[8.78199,46.72831],[8.7861,46.72984],[8.79475,46.73172],[8.79952,46.73145],[8.80678,46.73505],[8.81298,46.73731],[8.81044,46.74492],[8.81415,46.74998],[8.81372,46.75282],[8.8161,46.75713],[8.81857,46.7584],[8.81855,46.76248],[8.82259,46.7636],[8.82542,46.76603],[8.83172,46.76433],[8.83458,46.76685],[8.83036,46.77115],[8.83045,46.77331],[8.8279,46.7792],[8.8291,46.78183],[8.82631,46.78835],[8.82815,46.79214],[8.83447,46.79521],[8.84109,46.79373],[8.84822,46.79344],[8.8473,46.79801],[8.85255,46.79969],[8.85989,46.8057],[8.87034,46.80754],[8.87424,46.80889],[8.87705,46.81291],[8.87557,46.81596],[8.88017,46.82008],[8.88164,46.82907],[8.87437,46.8352],[8.8727,46.84209],[8.87529,46.84368],[8.88399,46.8462],[8.88884,46.84825],[8.89567,46.84957],[8.90017,46.85448],[8.90759,46.86022],[8.91782,46.86048],[8.92313,46.8633],[8.93338,46.86534],[8.94172,46.87089],[8.95038,46.87318],[8.95592,46.87533],[8.95781,46.8795],[8.95729,46.8879],[8.95282,46.89835],[8.95342,46.90069],[8.94859,46.90161],[8.94357,46.90616],[8.94235,46.90971],[8.93988,46.91225],[8.93538,46.91985],[8.93466,46.91929],[8.92145,46.91409],[8.91496,46.91108],[8.91132,46.91073],[8.90964,46.9087],[8.90297,46.90823],[8.89879,46.90634],[8.89518,46.90292],[8.89098,46.9031],[8.8835,46.90079],[8.88103,46.89789],[8.87443,46.89497],[8.86853,46.89421],[8.86128,46.89451],[8.86123,46.89178],[8.85621,46.88862],[8.85318,46.8854],[8.84784,46.89099],[8.84921,46.90011],[8.84824,46.90523],[8.84939,46.90866],[8.84713,46.91317],[8.84269,46.90946],[8.83612,46.90768],[8.83014,46.91673],[8.82779,46.91934],[8.82751,46.92241],[8.82963,46.928],[8.82985,46.93161],[8.82677,46.93571],[8.82113,46.93624],[8.81419,46.93863],[8.8107,46.94145],[8.80419,46.93832],[8.79797,46.93673],[8.79197,46.93078],[8.78775,46.93035],[8.77784,46.93313],[8.77431,46.93826],[8.77093,46.9415],[8.76521,46.93873],[8.7563,46.93658],[8.74913,46.93367],[8.74515,46.93521],[8.74363,46.93236],[8.73743,46.93238],[8.72542,46.92527],[8.72051,46.92184],[8.72057,46.92045],[8.7155,46.91809],[8.71265,46.91862],[8.70882,46.91714],[8.70659,46.91875],[8.69957,46.92298],[8.69654,46.9288],[8.70032,46.93265],[8.69658,46.9403],[8.69641,46.94304],[8.69296,46.94698],[8.68431,46.94545],[8.68117,46.94613],[8.66958,46.94407],[8.65884,46.94642],[8.65692,46.94586],[8.64544,46.94903],[8.64079,46.94962],[8.62894,46.9499],[8.62371,46.95251],[8.6044,46.95196],[8.60351,46.96855],[8.60119,46.97523],[8.60414,46.98233],[8.60315,46.98684],[8.59715,46.99021],[8.58243,46.99341],[8.57105,46.99016],[8.57494,46.98306],[8.56849,46.97555],[8.56222,46.97292],[8.56306,46.97022],[8.56024,46.96558],[8.55498,46.96321],[8.55617,46.9599],[8.55565,46.95143],[8.55734,46.94752],[8.55561,46.94214],[8.55588,46.93923],[8.54438,46.93946],[8.5472,46.93588],[8.54746,46.93245],[8.54109,46.92641],[8.53172,46.92354],[8.51984,46.92284],[8.51885,46.92002],[8.509,46.91569],[8.50279,46.91443],[8.49812,46.91875],[8.49598,46.91789],[8.4861,46.91847],[8.48413,46.91196],[8.48127,46.90853],[8.47469,46.90717],[8.46329,46.90271],[8.45831,46.89878],[8.46129,46.8972],[8.46767,46.89756],[8.47172,46.89406],[8.47297,46.89147],[8.47668,46.8883],[8.4791,46.88252],[8.47184,46.8779],[8.4679,46.87714],[8.46721,46.8744],[8.47135,46.86813],[8.46791,46.86064],[8.46908,46.85803],[8.47089,46.85633],[8.47084,46.85485],[8.47457,46.85454],[8.47747,46.85658],[8.48005,46.85725],[8.48236,46.85541],[8.49328,46.85274],[8.49788,46.85373],[8.50536,46.84601],[8.5058,46.84278],[8.50244,46.83998],[8.49371,46.83769],[8.48897,46.83566],[8.48342,46.82702],[8.48322,46.81898],[8.47822,46.81263],[8.48324,46.80875],[8.4833,46.8047],[8.47867,46.80134],[8.47232,46.79937],[8.46427,46.80053],[8.46688,46.79771],[8.47259,46.79545],[8.48114,46.79842],[8.48194,46.79389],[8.47856,46.78927],[8.48362,46.7863],[8.48861,46.78094],[8.49144,46.77253],[8.48293,46.76932],[8.47409,46.76771],[8.46892,46.7692],[8.46036,46.7691],[8.44833,46.76342],[8.44698,46.75886],[8.44356,46.75388],[8.43989,46.75336],[8.43928,46.75254],[8.44377,46.7471],[8.44071,46.74444],[8.4407,46.73804],[8.442,46.73568],[8.4469,46.73299],[8.44972,46.72984],[8.44708,46.72706],[8.44726,46.71491],[8.44813,46.71294],[8.45364,46.71087],[8.45215,46.7042],[8.45507,46.69752],[8.45272,46.69269],[8.45229,46.68874],[8.44081,46.68551],[8.43164,46.68689],[8.42819,46.68606],[8.41995,46.68739],[8.41481,46.68744],[8.41223,46.69071],[8.40833,46.69051],[8.39962,46.69287],[8.39959,46.68824],[8.39736,46.68425],[8.3989,46.68155],[8.39806,46.67422],[8.40053,46.67253],[8.40297,46.66815],[8.40716,46.66679],[8.40907,46.66325],[8.40897,46.65944],[8.4093,46.65676],[8.41027,46.65294],[8.41823,46.65219],[8.42046,46.64865],[8.42137,46.6445],[8.42031,46.63718],[8.41881,46.63592],[8.42092,46.6295],[8.42041,46.61635],[8.41698,46.61256],[8.41614,46.60683],[8.4105,46.60219],[8.40799,46.60119],[8.41033,46.59689],[8.40901,46.59539],[8.40741,46.5877],[8.40614,46.58596],[8.41048,46.57968],[8.40996,46.57748],[8.41703,46.5711],[8.41963,46.56357],[8.42343,46.55966],[8.42303,46.556],[8.42632,46.54732],[8.42926,46.54331],[8.43287,46.54293],[8.43557,46.54013],[8.43919,46.54014],[8.44529,46.53684],[8.45816,46.53355],[8.46554,46.53548],[8.47224,46.5304],[8.47351,46.52855],[8.47764,46.52761]]]},"properties":{"id":"CH-UR","name":"Uri"}}
]}