{"type":"FeatureCollection", "features": [
{"type":"Feature","geometry":{"type":"Polygon","coordinates":[[[8.47764,46.52761],[8.47351,46.52855],[8.47224,46.5304],[8.46554,46.53548],[8.45816,46.53355],[8.44529,46.53684],[8.43919,46.54014],[8.43557,46.54013],[8.43287,46.54293],[8.42926,46.54331],[8.42632,46.54732],[8.42303,46.556],[8.42343,46.55966],[8.41963,46.56357],[8.41703,46.5711],[8.40996,46.57748],[8.41048,46.57968],[8.40614,46.58596],[8.40741,46.5877],[8.40901,46.59539],[8.41033,46.59689],[8.40799,46.60119],[8.4105,46.60219],[8.41614,46.60683],[8.41698,46.61256],[8.42041,46.61635],[8.42092,46.6295],[8.41881,46.63592],[8.42031,46.63718],[8.42137,46.6445],[8.42046,46.64865],[8.41823,46.65219],[8.39898,46.65405],[8.39438,46.64569],[8.39007,46.64387],[8.37924,46.63363],[8.37411,46.63277],[8.36931,46.62871],[8.36912,46.62031],[8.37098,46.6178],[8.36853,46.60919],[8.36579,46.60671],[8.36512,46.60401],[8.3619,46.60178],[8.36165,46.59852],[8.36331,46.59161],[8.3606,46.5863],[8.36468,46.58248],[8.36042,46.57776],[8.35152,46.57174],[8.35184,46.56946],[8.34395,46.56421],[8.33661,46.56112],[8.32731,46.5599],[8.32423,46.56032],[8.31663,46.55903],[8.31019,46.55126],[8.30446,46.54628],[8.29974,46.54481],[8.28738,46.54309],[8.284,46.53866],[8.27959,46.5361],[8.27325,46.53646],[8.26846,46.53418],[8.26298,46.53348],[8.25806,46.5294],[8.25282,46.52959],[8.24311,46.52678],[8.21689,46.52629],[8.21053,46.52528],[8.20494,46.52293],[8.20285,46.52388],[8.19117,46.52305],[8.18475,46.52036],[8.18072,46.52034],[8.17899,46.52279],[8.17449,46.52422],[8.17451,46.53141],[8.16957,46.53096],[8.16339,46.53206],[8.14976,46.53165],[8.14049,46.53495],[8.1264,46.53717],[8.12272,46.54065],[8.1178,46.54322],[8.11417,46.54669],[8.10503,46.54861],[8.10183,46.54799],[8.09539,46.5489],[8.09367,46.55143],[8.08697,46.5513],[8.0758,46.55555],[8.07207,46.55378],[8.06209,46.55278],[8.05467,46.55571],[8.04313,46.55687],[8.03502,46.55999],[8.03259,46.56218],[8.02487,46.56189],[8.01607,46.56331],[8.01304,46.56227],[8.00742,46.56071],[8.00045,46.55775],[7.9973,46.55851],[7.98588,46.54774],[7.97958,46.54799],[7.9698,46.54489],[7.96777,46.54143],[7.96368,46.53988],[7.96257,46.53676],[7.96655,46.53063],[7.97294,46.52418],[7.97062,46.52115],[7.97054,46.51629],[7.96759,46.51279],[7.96418,46.51268],[7.95349,46.50797],[7.94177,46.50772],[7.93452,46.50328],[7.93264,46.49822],[7.9275,46.49727],[7.92346,46.49507],[7.92363,46.4919],[7.91679,46.49155],[7.91114,46.48659],[7.90677,46.48689],[7.90228,46.48554],[7.89766,46.48243],[7.89085,46.48333],[7.88706,46.48087],[7.87836,46.47868],[7.86993,46.47783],[7.86367,46.47833],[7.85032,46.47726],[7.84819,46.47879],[7.84429,46.47811],[7.83818,46.47478],[7.8285,46.47095],[7.82547,46.46708],[7.79963,46.45902],[7.79263,46.4539],[7.78599,46.45147],[7.78452,46.44907],[7.77941,46.44673],[7.77797,46.44313],[7.77221,46.4423],[7.76811,46.43943],[7.75623,46.43454],[7.75488,46.43306],[7.74422,46.42842],[7.7408,46.4257],[7.73605,46.4249],[7.73138,46.42213],[7.72187,46.42101],[7.7156,46.41482],[7.70852,46.4139],[7.70401,46.417],[7.69883,46.41923],[7.69361,46.42494],[7.69032,46.42467],[7.67845,46.42893],[7.63721,46.44051],[7.62609,46.44508],[7.62444,46.4417],[7.61848,46.43807],[7.61002,46.43695],[7.60835,46.43455],[7.61023,46.42858],[7.60801,46.42531],[7.60294,46.42255],[7.59739,46.42068],[7.60019,46.41597],[7.59575,46.41122],[7.58645,46.4137],[7.58353,46.41732],[7.57691,46.41713],[7.57209,46.41479],[7.56088,46.41331],[7.55418,46.41362],[7.55127,46.41201],[7.5394,46.41175],[7.53433,46.40992],[7.52861,46.40029],[7.53385,46.39737],[7.54381,46.39412],[7.54699,46.39401],[7.55527,46.38898],[7.54127,46.3841],[7.53857,46.3802],[7.53909,46.37785],[7.52922,46.37564],[7.52696,46.37462],[7.51275,46.37617],[7.50741,46.37591],[7.50245,46.37046],[7.49906,46.36986],[7.49473,46.37199],[7.49041,46.37031],[7.48512,46.37253],[7.48462,46.37915],[7.48142,46.38415],[7.4794,46.38527],[7.47329,46.38363],[7.47333,46.38156],[7.46974,46.37812],[7.45903,46.37819],[7.45911,46.38101],[7.45433,46.38321],[7.44403,46.38372],[7.43863,46.38615],[7.43339,46.38508],[7.42742,46.38058],[7.41686,46.38017],[7.40923,46.37713],[7.40235,46.37535],[7.3994,46.37646],[7.39391,46.37377],[7.38701,46.36919],[7.38006,46.36377],[7.37817,46.36407],[7.37383,46.36042],[7.36766,46.35754],[7.36264,46.35667],[7.35492,46.35075],[7.35094,46.35103],[7.33806,46.34696],[7.3316,46.34639],[7.32628,46.34468],[7.31523,46.34386],[7.31019,46.34849],[7.30783,46.35209],[7.31,46.35567],[7.30823,46.35877],[7.31255,46.36322],[7.31277,46.37088],[7.31029,46.37516],[7.29906,46.36645],[7.29551,46.36556],[7.29052,46.36714],[7.28805,46.36572],[7.2623,46.35824],[7.26063,46.35435],[7.26245,46.34939],[7.26023,46.34415],[7.26272,46.33865],[7.25552,46.33251],[7.25017,46.33023],[7.24642,46.328],[7.23243,46.32647],[7.22149,46.32925],[7.18906,46.3039],[7.18925,46.29517],[7.19695,46.28913],[7.19388,46.28838],[7.19484,46.28568],[7.19029,46.28501],[7.18631,46.28284],[7.18941,46.27291],[7.18842,46.27067],[7.18372,46.26847],[7.17815,46.26858],[7.17197,46.26264],[7.1606,46.25322],[7.15523,46.25275],[7.15177,46.24808],[7.15017,46.24313],[7.14488,46.24144],[7.14096,46.2379],[7.13514,46.23656],[7.12648,46.23723],[7.12417,46.23593],[7.12122,46.22932],[7.12252,46.22348],[7.11995,46.2228],[7.11569,46.21769],[7.11393,46.21674],[7.11275,46.21605],[7.10628,46.21102],[7.09626,46.20754],[7.08844,46.20159],[7.07697,46.19897],[7.07124,46.20101],[7.06454,46.19962],[7.05899,46.196],[7.05623,46.1957],[7.04553,46.19068],[7.03747,46.18802],[7.03226,46.1881],[7.02497,46.19771],[7.02039,46.20153],[7.01287,46.20474],[7.00799,46.22052],[7.00268,46.22496],[7.00206,46.23296],[6.99549,46.2372],[6.99397,46.24012],[6.98954,46.24403],[6.98808,46.25118],[6.98596,46.25364],[6.97497,46.26008],[6.96652,46.26729],[6.96431,46.27036],[6.96111,46.28183],[6.95855,46.28522],[6.95018,46.2909],[6.94178,46.29427],[6.93702,46.29758],[6.93581,46.30445],[6.93191,46.31606],[6.93239,46.32373],[6.93007,46.33002],[6.9213,46.33781],[6.91562,46.33964],[6.90443,46.33855],[6.89788,46.33955],[6.89352,46.34268],[6.88697,46.35031],[6.88182,46.35449],[6.88194,46.35658],[6.88573,46.36222],[6.88688,46.36765],[6.88561,46.37471],[6.88036,46.37939],[6.87439,46.38196],[6.86878,46.38693],[6.86247,46.39095],[6.85789,46.39571],[6.82486,46.42462],[6.82168,46.42697],[6.82107,46.42716],[6.8053,46.39413],[6.80309,46.39239],[6.80186,46.38583],[6.80651,46.38296],[6.80625,46.38013],[6.80372,46.37648],[6.79838,46.3738],[6.79575,46.37008],[6.79105,46.36685],[6.7809,46.36662],[6.77144,46.3611],[6.77058,46.35544],[6.77209,46.35027],[6.77453,46.34727],[6.77908,46.34463],[6.78034,46.34128],[6.78452,46.33683],[6.78423,46.33313],[6.78645,46.33208],[6.79639,46.333],[6.79899,46.32908],[6.79742,46.32667],[6.80037,46.32004],[6.80704,46.32075],[6.81298,46.31812],[6.8157,46.31587],[6.81891,46.31575],[6.82152,46.31296],[6.82535,46.31196],[6.82906,46.30656],[6.8281,46.3025],[6.83104,46.29976],[6.83396,46.29968],[6.83964,46.29509],[6.84391,46.29429],[6.84737,46.28988],[6.8509,46.29028],[6.85435,46.29252],[6.85922,46.29031],[6.85913,46.28849],[6.86437,46.2831],[6.86494,46.2802],[6.8589,46.27388],[6.86019,46.26623],[6.85445,46.2593],[6.85541,46.25521],[6.85198,46.25214],[6.84293,46.2486],[6.8398,46.24822],[6.83784,46.24489],[6.83715,46.2408],[6.83065,46.23439],[6.82676,46.23413],[6.82121,46.23231],[6.82159,46.22312],[6.81654,46.22014],[6.81348,46.21535],[6.80988,46.21384],[6.80726,46.20791],[6.8033,46.20328],[6.80868,46.19253],[6.81257,46.18141],[6.80696,46.17852],[6.80534,46.17258],[6.79978,46.16839],[6.79456,46.16582],[6.79172,46.16293],[6.79265,46.15973],[6.79027,46.15401],[6.79461,46.14759],[6.79654,46.13868],[6.7981,46.13621],[6.80143,46.13531],[6.8079,46.13617],[6.81389,46.13148],[6.82383,46.13129],[6.83102,46.13261],[6.83819,46.13295],[6.84202,46.13198],[6.84238,46.12947],[6.84815,46.12723],[6.86951,46.12514],[6.87364,46.12595],[6.88243,46.12288],[6.89071,46.12556],[6.89599,46.12383],[6.89775,46.12181],[6.89701,46.11901],[6.89297,46.11269],[6.89548,46.10871],[6.89299,46.10476],[6.88768,46.10061],[6.88543,46.09676],[6.88222,46.09516],[6.88476,46.09302],[6.88878,46.08693],[6.89165,46.08507],[6.89036,46.08061],[6.88824,46.07855],[6.8918,46.07374],[6.88774,46.07325],[6.88029,46.06928],[6.87901,46.06526],[6.87641,46.06288],[6.8751,46.05814],[6.87291,46.05486],[6.87275,46.05193],[6.87575,46.04753],[6.88338,46.04441],[6.89127,46.04269],[6.89177,46.04573],[6.8942,46.04779],[6.90861,46.05017],[6.91115,46.05206],[6.91448,46.05678],[6.92459,46.06524],[6.92862,46.06466],[6.93399,46.06599],[6.93732,46.06428],[6.93676,46.0599],[6.93471,46.05678],[6.93932,46.05286],[6.94393,46.05061],[6.95014,46.05159],[6.95452,46.04167],[6.96289,46.03043],[6.96653,46.03115],[6.97102,46.02553],[6.98132,46.01957],[6.98097,46.01693],[6.98355,46.01274],[6.98332,46.00993],[6.9855,46.00416],[6.98866,46.0038],[6.99539,46.00008],[7.00058,45.99893],[7.00565,46.00112],[7.01066,45.99717],[7.0103,45.99441],[7.01252,45.99208],[7.01221,45.98726],[7.01572,45.98676],[7.0199,45.98391],[7.02362,45.97905],[7.02148,45.97637],[7.01526,45.97516],[7.01015,45.97323],[7.00849,45.96903],[7.01051,45.96844],[7.01538,45.96249],[7.02241,45.95855],[7.03491,45.95614],[7.03854,45.94763],[7.0385,45.9451],[7.03573,45.9383],[7.03843,45.93341],[7.04265,45.92968],[7.04447,45.92248],[7.04723,45.92122],[7.05309,45.9156],[7.06057,45.91339],[7.06448,45.90928],[7.06374,45.90596],[7.0642,45.90008],[7.06784,45.89893],[7.07153,45.89598],[7.0766,45.89518],[7.07643,45.8903],[7.08181,45.884],[7.0854,45.88304],[7.09511,45.87578],[7.09378,45.87135],[7.09801,45.86381],[7.09746,45.8624],[7.1015,45.85918],[7.10881,45.85818],[7.11202,45.85942],[7.11845,45.85944],[7.12301,45.8633],[7.12865,45.86537],[7.13349,45.86862],[7.1352,45.87267],[7.1408,45.87534],[7.14695,45.87615],[7.15354,45.87925],[7.16162,45.87812],[7.16459,45.87574],[7.16195,45.87127],[7.17532,45.8629],[7.17898,45.86367],[7.18443,45.86004],[7.19028,45.85884],[7.19649,45.86026],[7.20063,45.86308],[7.19844,45.86593],[7.19764,45.87032],[7.2003,45.87525],[7.20351,45.87637],[7.20606,45.88016],[7.20987,45.88057],[7.21546,45.88403],[7.21638,45.8888],[7.22304,45.89031],[7.22582,45.88975],[7.22831,45.892],[7.23941,45.88992],[7.25042,45.8929],[7.2531,45.88851],[7.25683,45.88816],[7.26035,45.8913],[7.26668,45.89532],[7.27147,45.89997],[7.27689,45.90073],[7.27996,45.90712],[7.2847,45.91284],[7.2858,45.91623],[7.28946,45.91757],[7.29029,45.92005],[7.29369,45.92157],[7.29692,45.92107],[7.30182,45.91715],[7.30672,45.91757],[7.31245,45.91631],[7.3163,45.91652],[7.31782,45.91203],[7.3239,45.91021],[7.33072,45.91052],[7.3443,45.91524],[7.35053,45.91159],[7.35646,45.91064],[7.35646,45.9072],[7.36121,45.90331],[7.36607,45.90414],[7.3738,45.90076],[7.37572,45.90076],[7.38239,45.89645],[7.38633,45.89715],[7.39126,45.90004],[7.39776,45.90559],[7.39782,45.90845],[7.40175,45.91151],[7.40492,45.9093],[7.41083,45.90864],[7.41596,45.91142],[7.42117,45.91251],[7.43184,45.91826],[7.43662,45.92384],[7.4415,45.92714],[7.44459,45.93169],[7.45641,45.93242],[7.45897,45.93556],[7.46435,45.93536],[7.47145,45.93399],[7.47473,45.93583],[7.47427,45.94058],[7.47138,45.94719],[7.47729,45.95211],[7.48436,45.9541],[7.48745,45.95581],[7.49177,45.95526],[7.49576,45.95732],[7.49584,45.95975],[7.49919,45.96242],[7.50753,45.95797],[7.51186,45.95934],[7.51605,45.9624],[7.52798,45.95649],[7.53546,45.95686],[7.53843,45.95495],[7.54272,45.95696],[7.54528,45.9597],[7.54463,45.96858],[7.54332,45.96972],[7.54148,45.97617],[7.54578,45.9817],[7.5457,45.98377],[7.55013,45.98656],[7.56079,45.98617],[7.56847,45.98771],[7.5747,45.98757],[7.57861,45.98601],[7.58228,45.97788],[7.58125,45.97514],[7.58352,45.97232],[7.58863,45.9705],[7.604,45.97041],[7.61035,45.96934],[7.61958,45.97238],[7.62667,45.97093],[7.63954,45.97011],[7.64954,45.97403],[7.65371,45.97428],[7.6578,45.97667],[7.66427,45.97566],[7.66827,45.97382],[7.67056,45.96989],[7.67705,45.96508],[7.67832,45.95884],[7.68102,45.957],[7.69034,45.9545],[7.69882,45.9545],[7.70062,45.95247],[7.70988,45.9481],[7.70856,45.94441],[7.70915,45.94164],[7.70732,45.93489],[7.71127,45.93291],[7.71267,45.92823],[7.71633,45.92773],[7.7189,45.92421],[7.72233,45.92349],[7.73474,45.92407],[7.73615,45.92752],[7.74355,45.93263],[7.74723,45.93739],[7.74775,45.94101],[7.75708,45.93871],[7.76927,45.93712],[7.77177,45.93395],[7.77615,45.93134],[7.7862,45.92758],[7.79174,45.92419],[7.79398,45.92],[7.79912,45.91754],[7.80539,45.91917],[7.80868,45.92229],[7.81419,45.92355],[7.81916,45.92656],[7.82177,45.92696],[7.83284,45.92446],[7.83672,45.92172],[7.84292,45.92196],[7.84752,45.92078],[7.85594,45.92117],[7.85967,45.92033],[7.86095,45.91787],[7.86408,45.91675],[7.86634,45.91957],[7.87307,45.92047],[7.87705,45.92719],[7.87144,45.93213],[7.87095,45.93487],[7.86841,45.93671],[7.8701,45.94261],[7.87037,45.94736],[7.87713,45.94905],[7.87889,45.95428],[7.87538,45.95697],[7.87784,45.95913],[7.87757,45.9614],[7.88181,45.96401],[7.88151,45.9678],[7.87757,45.97129],[7.87923,45.97368],[7.88714,45.97665],[7.89228,45.9775],[7.89628,45.98343],[7.90109,45.98571],[7.90868,45.99694],[7.91898,45.99589],[7.92448,45.99719],[7.93263,45.99598],[7.94152,45.99742],[7.95272,45.99741],[7.95833,45.99615],[7.96544,45.99701],[7.97711,45.99945],[7.98592,45.99635],[7.98909,45.99593],[7.99435,46.00049],[7.99982,46.00845],[8.00108,46.01221],[8.00642,46.01137],[8.01241,46.01197],[8.01325,46.01586],[8.01089,46.01857],[8.01245,46.02131],[8.0175,46.0247],[8.01422,46.03009],[8.01876,46.03652],[8.02315,46.03944],[8.03099,46.0416],[8.03518,46.04379],[8.03214,46.04779],[8.03047,46.0529],[8.02387,46.06298],[8.02466,46.06536],[8.02166,46.06937],[8.02243,46.0742],[8.02615,46.07901],[8.02869,46.08035],[8.03037,46.0875],[8.02958,46.0896],[8.0339,46.09525],[8.03476,46.10084],[8.04306,46.09992],[8.04913,46.10228],[8.05369,46.1013],[8.05781,46.10207],[8.064,46.10487],[8.07733,46.10627],[8.08051,46.10535],[8.08656,46.10685],[8.09677,46.10847],[8.10986,46.11317],[8.11285,46.1162],[8.1153,46.12222],[8.11424,46.12414],[8.11593,46.12735],[8.11542,46.13035],[8.12177,46.13269],[8.1266,46.13551],[8.13634,46.13696],[8.14223,46.13605],[8.14626,46.13776],[8.15017,46.14153],[8.15398,46.14702],[8.15312,46.15396],[8.14974,46.15694],[8.1496,46.16151],[8.15109,46.16526],[8.1557,46.16799],[8.15757,46.17283],[8.15976,46.17494],[8.16528,46.17692],[8.16504,46.18288],[8.15724,46.18953],[8.15329,46.1911],[8.15154,46.19887],[8.15139,46.20282],[8.14353,46.2116],[8.13888,46.22615],[8.13361,46.22646],[8.12427,46.22962],[8.11953,46.23645],[8.11533,46.236],[8.11141,46.2426],[8.11197,46.24532],[8.11016,46.2495],[8.10162,46.24947],[8.10175,46.25219],[8.08992,46.25335],[8.08624,46.25428],[8.08164,46.25756],[8.08041,46.26063],[8.08606,46.26211],[8.08593,46.26662],[8.08996,46.26775],[8.09666,46.27124],[8.10369,46.27654],[8.10545,46.27965],[8.11152,46.28023],[8.11497,46.28243],[8.11869,46.28681],[8.12086,46.29187],[8.12516,46.29452],[8.12886,46.29475],[8.13089,46.29731],[8.13738,46.3017],[8.14511,46.30194],[8.15249,46.29948],[8.15549,46.29737],[8.16142,46.29588],[8.16529,46.29695],[8.1789,46.29739],[8.18592,46.30091],[8.19444,46.30344],[8.198,46.30212],[8.21162,46.30929],[8.21124,46.31259],[8.21493,46.31623],[8.21532,46.32026],[8.22339,46.32428],[8.22287,46.33057],[8.22802,46.33572],[8.23651,46.34062],[8.24042,46.33962],[8.25004,46.34076],[8.25185,46.34592],[8.25711,46.34649],[8.25998,46.34887],[8.26588,46.35184],[8.26503,46.35711],[8.26114,46.35992],[8.26447,46.36443],[8.27308,46.36686],[8.28428,46.36363],[8.28541,46.36595],[8.28979,46.36914],[8.29514,46.37047],[8.30001,46.37407],[8.3129,46.37707],[8.31482,46.38059],[8.31495,46.38395],[8.31807,46.38584],[8.31409,46.39066],[8.31729,46.394],[8.31471,46.39916],[8.31023,46.40241],[8.30355,46.40245],[8.29909,46.40488],[8.29556,46.4047],[8.28895,46.40827],[8.29895,46.41425],[8.29886,46.41733],[8.30292,46.42081],[8.30377,46.42334],[8.30665,46.42441],[8.31496,46.42363],[8.32452,46.42537],[8.33151,46.42969],[8.33953,46.4333],[8.3429,46.4367],[8.35246,46.44164],[8.35576,46.44696],[8.36693,46.45192],[8.37529,46.45313],[8.3793,46.45078],[8.38472,46.45216],[8.38423,46.45377],[8.38233,46.45992],[8.38575,46.46182],[8.38546,46.46557],[8.38997,46.46973],[8.38956,46.47259],[8.38599,46.47568],[8.39147,46.4826],[8.39429,46.4837],[8.39401,46.48842],[8.39158,46.49186],[8.39238,46.49465],[8.39882,46.49418],[8.40142,46.49245],[8.41108,46.49279],[8.41442,46.49473],[8.41968,46.49262],[8.43446,46.49706],[8.44307,46.49538],[8.44581,46.49869],[8.4517,46.5078],[8.45494,46.50788],[8.4618,46.51262],[8.46613,46.51757],[8.47073,46.51985],[8.47282,46.52324],[8.47852,46.52558],[8.47746,46.52741],[8.47764,46.52761]]]},"properties":{"id":"CH-VS","name":"Wallis"}}
]}