{"type":"FeatureCollection", "features": [
{"type":"Feature","geometry":{"type":"MultiPolygon","coordinates":[[[[7.00243,46.98691],[6.9282,46.9534],[6.96172,46.92748],[6.9649,46.92439],[6.97422,46.92112],[6.97811,46.92341],[6.98485,46.92076],[6.98749,46.91817],[6.98177,46.91358],[6.98447,46.91198],[6.98116,46.90942],[6.98693,46.9046],[6.99633,46.89786],[7.0095,46.88904],[6.9999,46.88188],[6.9938,46.87897],[6.99933,46.87433],[7.00703,46.873],[7.01533,46.87848],[7.02129,46.87668],[7.03218,46.87586],[7.03578,46.873],[7.02989,46.86617],[7.03905,46.85926],[7.03482,46.85813],[7.03333,46.85706],[7.0341,46.85532],[7.02971,46.85268],[7.02982,46.85024],[7.03745,46.84554],[7.03959,46.8483],[7.0443,46.84837],[7.04908,46.85487],[7.05397,46.85624],[7.05766,46.86161],[7.06253,46.86706],[7.06648,46.86825],[7.071,46.87335],[7.06667,46.87975],[7.06167,46.87962],[7.06196,46.88377],[7.06426,46.8871],[7.07207,46.88872],[7.07594,46.89173],[7.07911,46.89617],[7.08709,46.8971],[7.08884,46.89972],[7.08623,46.90192],[7.09341,46.90579],[7.08827,46.90892],[7.08498,46.91235],[7.05788,46.93861],[7.06129,46.94227],[7.06062,46.94902],[7.05874,46.9538],[7.05961,46.95581],[7.05964,46.96308],[7.0579,46.96541],[7.06304,46.97111],[7.06027,46.97324],[7.05214,46.97713],[7.00243,46.98691]]],[[[6.77983,46.85296],[6.75526,46.87046],[6.74,46.87198],[6.73464,46.86906],[6.73386,46.87162],[6.7368,46.87382],[6.73939,46.87894],[6.73999,46.88438],[6.73801,46.88456],[6.74011,46.89481],[6.72667,46.90194],[6.721,46.90538],[6.7167,46.90608],[6.71776,46.91171],[6.71753,46.91586],[6.72086,46.92583],[6.7237,46.93112],[6.7204,46.93333],[6.72083,46.93609],[6.71562,46.93479],[6.68404,46.92557],[6.66852,46.92056],[6.64722,46.9107],[6.64549,46.90617],[6.62711,46.88871],[6.61463,46.88891],[6.60649,46.88665],[6.59862,46.88362],[6.58763,46.88431],[6.57262,46.87973],[6.56489,46.87625],[6.5599,46.87407],[6.55317,46.87325],[6.54517,46.8686],[6.53776,46.86685],[6.52869,46.85906],[6.52331,46.85656],[6.51435,46.85479],[6.48211,46.84659],[6.47072,46.84713],[6.46652,46.84783],[6.46536,46.85083],[6.46003,46.8513],[6.44316,46.83271],[6.43951,46.82398],[6.44083,46.81582],[6.43104,46.81236],[6.43479,46.80148],[6.45841,46.78878],[6.45167,46.77863],[6.45226,46.77422],[6.44889,46.77326],[6.43844,46.76668],[6.43819,46.76178],[6.43032,46.75679],[6.41934,46.75314],[6.3952,46.74847],[6.3884,46.7433],[6.39202,46.73897],[6.38944,46.73507],[6.38393,46.73103],[6.379,46.73038],[6.37105,46.73069],[6.3717,46.72412],[6.36508,46.72258],[6.36016,46.72309],[6.3573,46.71972],[6.35376,46.7182],[6.35214,46.71486],[6.34936,46.71444],[6.34123,46.71012],[6.32713,46.70624],[6.32511,46.70647],[6.31556,46.70264],[6.29706,46.69428],[6.28199,46.69067],[6.27904,46.6875],[6.26913,46.68255],[6.26725,46.67621],[6.25321,46.66725],[6.24235,46.66087],[6.23276,46.65446],[6.22757,46.64819],[6.21902,46.64509],[6.21287,46.64105],[6.2074,46.63562],[6.20405,46.63629],[6.20058,46.63362],[6.1965,46.62866],[6.19084,46.62545],[6.18555,46.62368],[6.18344,46.62139],[6.1795,46.6201],[6.17897,46.61575],[6.16532,46.61007],[6.1612,46.60997],[6.15383,46.60398],[6.14802,46.60218],[6.14184,46.59809],[6.1396,46.59762],[6.12652,46.58992],[6.12185,46.58401],[6.11047,46.57644],[6.12755,46.56479],[6.15666,46.5453],[6.14858,46.53936],[6.15347,46.53679],[6.14368,46.52774],[6.13796,46.53099],[6.12131,46.51746],[6.1126,46.50957],[6.10998,46.50413],[6.10364,46.49415],[6.0969,46.4813],[6.07687,46.46737],[6.07279,46.46544],[6.07345,46.45988],[6.07691,46.4576],[6.07442,46.45351],[6.0786,46.45036],[6.08439,46.44745],[6.08641,46.44388],[6.08562,46.44083],[6.07457,46.43217],[6.07389,46.42836],[6.07058,46.42552],[6.06386,46.41639],[6.06759,46.4149],[6.09763,46.40904],[6.10008,46.40474],[6.10568,46.39942],[6.11298,46.39994],[6.13171,46.38999],[6.1347,46.3887],[6.14669,46.38011],[6.14967,46.37752],[6.16028,46.37848],[6.16113,46.37489],[6.16572,46.37209],[6.16974,46.36783],[6.16993,46.36608],[6.16147,46.35992],[6.15845,46.35591],[6.1577,46.34991],[6.15442,46.34815],[6.14941,46.34271],[6.1408,46.34042],[6.13792,46.33873],[6.13524,46.32943],[6.13151,46.32405],[6.12693,46.32123],[6.12579,46.31747],[6.12594,46.31618],[6.13469,46.30889],[6.14074,46.30474],[6.15063,46.30098],[6.15338,46.29916],[6.16692,46.29523],[6.1703,46.29478],[6.19874,46.28443],[6.21955,46.31188],[6.23232,46.33044],[6.20595,46.33914],[6.20358,46.33882],[6.19313,46.34372],[6.19489,46.34862],[6.18627,46.34954],[6.18032,46.35277],[6.17548,46.35374],[6.17264,46.35485],[6.1711,46.3584],[6.17625,46.36005],[6.17441,46.36238],[6.18025,46.36458],[6.18693,46.36054],[6.19454,46.3608],[6.20206,46.35477],[6.20706,46.35506],[6.24143,46.34367],[6.25297,46.36042],[6.3352,46.40372],[6.42563,46.41581],[6.51912,46.45637],[6.68187,46.45433],[6.82107,46.42716],[6.82168,46.42697],[6.82486,46.42462],[6.85789,46.39571],[6.86247,46.39095],[6.86878,46.38693],[6.87439,46.38196],[6.88036,46.37939],[6.88561,46.37471],[6.88688,46.36765],[6.88573,46.36222],[6.88194,46.35658],[6.88182,46.35449],[6.88697,46.35031],[6.89352,46.34268],[6.89788,46.33955],[6.90443,46.33855],[6.91562,46.33964],[6.9213,46.33781],[6.93007,46.33002],[6.93239,46.32373],[6.93191,46.31606],[6.93581,46.30445],[6.93702,46.29758],[6.94178,46.29427],[6.95018,46.2909],[6.95855,46.28522],[6.96111,46.28183],[6.96431,46.27036],[6.96652,46.26729],[6.97497,46.26008],[6.98596,46.25364],[6.98808,46.25118],[6.98954,46.24403],[6.99397,46.24012],[6.99549,46.2372],[7.00206,46.23296],[7.00268,46.22496],[7.00799,46.22052],[7.01287,46.20474],[7.02039,46.20153],[7.02497,46.19771],[7.03226,46.1881],[7.03747,46.18802],[7.04553,46.19068],[7.05623,46.1957],[7.05899,46.196],[7.06454,46.19962],[7.07124,46.20101],[7.07697,46.19897],[7.08844,46.20159],[7.09626,46.20754],[7.10628,46.21102],[7.11275,46.21605],[7.11393,46.21674],[7.11569,46.21769],[7.11995,46.2228],[7.12252,46.22348],[7.12122,46.22932],[7.12417,46.23593],[7.12648,46.23723],[7.13514,46.23656],[7.14096,46.2379],[7.14488,46.24144],[7.15017,46.24313],[7.15177,46.24808],[7.15523,46.25275],[7.1606,46.25322],[7.17197,46.26264],[7.17815,46.26858],[7.18372,46.26847],[7.18842,46.27067],[7.18941,46.27291],[7.18631,46.28284],[7.19029,46.28501],[7.19484,46.28568],[7.19388,46.28838],[7.19695,46.28913],[7.18925,46.29517],[7.18906,46.3039],[7.22149,46.32925],[7.2227,46.34857],[7.21885,46.35754],[7.2262,46.35909],[7.22901,46.36235],[7.22564,46.36459],[7.21965,46.36207],[7.2163,46.36177],[7.21095,46.3676],[7.20963,46.37225],[7.20723,46.37349],[7.20832,46.37867],[7.19372,46.37893],[7.19494,46.3849],[7.20374,46.39721],[7.20453,46.40042],[7.20778,46.40298],[7.20693,46.40839],[7.20987,46.41628],[7.20361,46.42207],[7.20039,46.42597],[7.19915,46.42926],[7.19282,46.43376],[7.19495,46.44062],[7.20051,46.4408],[7.20515,46.43915],[7.21314,46.43951],[7.22257,46.44201],[7.22515,46.44428],[7.22703,46.44948],[7.22597,46.45165],[7.23233,46.45394],[7.22636,46.45747],[7.22889,46.45892],[7.2289,46.46233],[7.23086,46.46652],[7.22498,46.47748],[7.22414,46.48689],[7.23619,46.48803],[7.23437,46.49407],[7.24133,46.49704],[7.24463,46.50127],[7.24499,46.50522],[7.24873,46.51287],[7.24897,46.51724],[7.24682,46.53095],[7.24473,46.53319],[7.24603,46.53747],[7.2389,46.5455],[7.23715,46.54635],[7.23707,46.55379],[7.2367,46.55379],[7.23409,46.55263],[7.23338,46.55206],[7.23187,46.55109],[7.22956,46.55072],[7.22555,46.54927],[7.22437,46.54826],[7.22255,46.54697],[7.21688,46.54049],[7.20991,46.53415],[7.20765,46.53291],[7.20107,46.54],[7.20081,46.54169],[7.19342,46.54614],[7.18732,46.54259],[7.18233,46.53837],[7.17284,46.53334],[7.15892,46.52691],[7.14835,46.52846],[7.14501,46.52686],[7.14367,46.52211],[7.13708,46.51311],[7.13626,46.50861],[7.13096,46.50465],[7.12654,46.50277],[7.12279,46.4987],[7.10966,46.49434],[7.10616,46.49023],[7.10036,46.48699],[7.09802,46.48841],[7.0889,46.48693],[7.07758,46.48883],[7.0724,46.4864],[7.06582,46.48904],[7.06108,46.48727],[7.05909,46.48523],[7.05092,46.48183],[7.04406,46.47658],[7.03851,46.47432],[7.02845,46.46682],[7.02023,46.45945],[7.02119,46.4586],[7.0198,46.45256],[7.0172,46.44792],[7.0025,46.44344],[6.99619,46.44058],[6.99282,46.43888],[6.98745,46.43794],[6.98361,46.43873],[6.99211,46.44891],[6.98971,46.45286],[6.97906,46.46107],[6.97782,46.47289],[6.98132,46.47539],[6.97581,46.4784],[6.97237,46.48568],[6.97348,46.48923],[6.96559,46.49316],[6.96341,46.49625],[6.95614,46.4995],[6.9542,46.50191],[6.946,46.50128],[6.94128,46.50176],[6.93674,46.50096],[6.9333,46.50189],[6.92517,46.50769],[6.92178,46.50818],[6.91006,46.51235],[6.90416,46.5132],[6.89685,46.50888],[6.89499,46.50928],[6.89766,46.51483],[6.8953,46.51928],[6.88167,46.51257],[6.87243,46.50431],[6.86634,46.50079],[6.86276,46.49385],[6.85728,46.49305],[6.8489,46.49338],[6.84554,46.49667],[6.84173,46.49675],[6.83783,46.49949],[6.83239,46.50544],[6.83108,46.51051],[6.83034,46.51247],[6.82429,46.51208],[6.8181,46.51651],[6.81533,46.5214],[6.81214,46.52402],[6.811,46.52538],[6.81277,46.52616],[6.81737,46.53187],[6.81827,46.5365],[6.82494,46.54203],[6.82561,46.54292],[6.82665,46.54352],[6.82518,46.53802],[6.83639,46.5377],[6.84445,46.53896],[6.85087,46.54112],[6.855,46.54144],[6.85679,46.53829],[6.86245,46.53517],[6.86924,46.54334],[6.87235,46.54483],[6.88486,46.55472],[6.88885,46.55835],[6.89402,46.55958],[6.89905,46.55965],[6.90227,46.56139],[6.89966,46.56349],[6.89918,46.56671],[6.90165,46.56973],[6.89797,46.57059],[6.89029,46.56746],[6.88816,46.5677],[6.8845,46.56195],[6.87943,46.56713],[6.87446,46.56497],[6.87026,46.5721],[6.86553,46.57725],[6.84856,46.58331],[6.84239,46.58244],[6.83986,46.579],[6.83485,46.57534],[6.82371,46.57748],[6.82059,46.58368],[6.8141,46.58567],[6.81152,46.58099],[6.80794,46.57761],[6.80489,46.57793],[6.80256,46.57492],[6.79948,46.57407],[6.7949,46.57532],[6.79611,46.57932],[6.79894,46.58206],[6.8002,46.59362],[6.79833,46.59987],[6.80194,46.60074],[6.80389,46.60903],[6.80185,46.61556],[6.80346,46.62237],[6.80228,46.62775],[6.79837,46.63016],[6.79692,46.63314],[6.79763,46.63556],[6.79819,46.63565],[6.79882,46.63786],[6.80171,46.64421],[6.80367,46.64567],[6.79878,46.64781],[6.80494,46.65013],[6.80858,46.65018],[6.81343,46.64954],[6.81458,46.64747],[6.82088,46.6518],[6.82741,46.65982],[6.83139,46.65983],[6.83338,46.66223],[6.83838,46.66258],[6.84411,46.66084],[6.84217,46.65884],[6.84522,46.65839],[6.85352,46.65546],[6.85938,46.65995],[6.86302,46.65839],[6.86587,46.65894],[6.86801,46.66077],[6.86833,46.66297],[6.86439,46.66476],[6.8675,46.66932],[6.87171,46.67325],[6.86412,46.67677],[6.86269,46.68095],[6.86533,46.68127],[6.8684,46.68573],[6.87312,46.68332],[6.88101,46.69006],[6.88369,46.69001],[6.8879,46.69433],[6.88959,46.69388],[6.8944,46.70124],[6.89231,46.70258],[6.89905,46.70963],[6.90379,46.71339],[6.91139,46.71791],[6.92,46.72058],[6.92248,46.72388],[6.9304,46.73018],[6.93559,46.73322],[6.9366,46.73441],[6.93594,46.73667],[6.93953,46.7416],[6.9405,46.74374],[6.93796,46.74947],[6.93499,46.75052],[6.93088,46.75405],[6.92925,46.75406],[6.92002,46.7513],[6.91668,46.75462],[6.91475,46.75327],[6.90824,46.75722],[6.90919,46.75876],[6.91443,46.76273],[6.92011,46.75986],[6.93212,46.77016],[6.93124,46.77251],[6.93407,46.77659],[6.9411,46.7831],[6.94346,46.78419],[6.95012,46.78278],[6.95154,46.78521],[6.95756,46.7883],[6.95599,46.79342],[6.96666,46.8027],[6.96469,46.80545],[6.95779,46.81121],[6.95651,46.81494],[6.96105,46.82392],[6.96514,46.82824],[6.97101,46.82406],[6.9783,46.82292],[6.98009,46.82286],[6.98499,46.82202],[6.98511,46.82301],[6.9897,46.82641],[6.99237,46.8304],[6.99236,46.83317],[6.98599,46.83516],[6.98599,46.84007],[6.98866,46.84358],[6.98442,46.84672],[6.97789,46.84997],[6.97932,46.85327],[6.97781,46.85496],[6.98058,46.85802],[6.97694,46.86053],[6.97923,46.86577],[6.98648,46.87074],[6.9889,46.87346],[6.97774,46.88422],[6.9764,46.88407],[6.97531,46.88517],[6.97108,46.8851],[6.96333,46.88281],[6.96175,46.88398],[6.95811,46.88145],[6.95911,46.87894],[6.96116,46.8772],[6.96944,46.86734],[6.96488,46.86539],[6.96023,46.87144],[6.9579,46.87078],[6.95437,46.87452],[6.95054,46.8758],[6.94572,46.88305],[6.94246,46.88374],[6.93837,46.88997],[6.93601,46.88879],[6.93313,46.89254],[6.92549,46.89273],[6.92373,46.89533],[6.92901,46.89791],[6.92677,46.90106],[6.92141,46.90557],[6.89623,46.92549],[6.86569,46.90957],[6.89171,46.88673],[6.90107,46.88213],[6.90366,46.87943],[6.90695,46.87862],[6.9108,46.88063],[6.92101,46.87133],[6.91176,46.86715],[6.90953,46.86951],[6.90076,46.86637],[6.89187,46.86496],[6.89647,46.86123],[6.91287,46.86594],[6.91993,46.86044],[6.92416,46.85946],[6.92715,46.85454],[6.93063,46.85324],[6.9204,46.84808],[6.91017,46.83877],[6.9074,46.83419],[6.90697,46.82857],[6.9053,46.82597],[6.90513,46.82425],[6.90768,46.8199],[6.9085,46.81624],[6.91085,46.81253],[6.90494,46.80648],[6.91134,46.80313],[6.92,46.81057],[6.92247,46.80869],[6.92815,46.80754],[6.93063,46.80649],[6.93136,46.80586],[6.93159,46.80489],[6.93112,46.80371],[6.93005,46.80269],[6.92733,46.80134],[6.92654,46.7991],[6.926,46.79849],[6.92167,46.79716],[6.92112,46.79681],[6.92097,46.79646],[6.92083,46.79478],[6.91654,46.78868],[6.91721,46.78532],[6.91544,46.78313],[6.91099,46.77971],[6.90824,46.78202],[6.89912,46.78159],[6.8942,46.7773],[6.88813,46.77827],[6.87955,46.7753],[6.86486,46.78057],[6.86189,46.78317],[6.86389,46.78441],[6.85909,46.788],[6.84922,46.78405],[6.85049,46.78235],[6.84321,46.77872],[6.83949,46.78096],[6.83633,46.7761],[6.83308,46.77454],[6.82806,46.77663],[6.82622,46.77426],[6.81344,46.78027],[6.80922,46.78373],[6.80465,46.78564],[6.79794,46.78288],[6.79308,46.78567],[6.78301,46.79339],[6.77858,46.79389],[6.78668,46.7984],[6.78355,46.80266],[6.77881,46.80057],[6.77696,46.80243],[6.76732,46.80879],[6.74187,46.82788],[6.77983,46.85296]],[[6.16679,46.34309],[6.1718,46.34984],[6.17556,46.35133],[6.18443,46.34585],[6.18169,46.34369],[6.17453,46.34692],[6.17224,46.34445],[6.1713,46.34057],[6.16679,46.34309]],[[6.77301,46.75137],[6.77611,46.7494],[6.7788,46.75121],[6.78573,46.74733],[6.7827,46.73299],[6.7768,46.7287],[6.77622,46.72532],[6.77066,46.72066],[6.76241,46.71737],[6.76026,46.7231],[6.75782,46.72607],[6.75173,46.72823],[6.7487,46.73181],[6.75265,46.73656],[6.75905,46.73747],[6.75959,46.73906],[6.76827,46.74449],[6.77301,46.75137]],[[6.80621,46.72693],[6.79298,46.72556],[6.78846,46.72796],[6.79351,46.73574],[6.79811,46.73406],[6.80401,46.73687],[6.80595,46.73539],[6.8105,46.73744],[6.81459,46.73728],[6.81548,46.7404],[6.82105,46.74444],[6.82362,46.74809],[6.82907,46.75308],[6.82932,46.75607],[6.83665,46.76104],[6.84547,46.76586],[6.84552,46.76766],[6.85041,46.77313],[6.85442,46.77202],[6.85702,46.76792],[6.86017,46.7664],[6.86064,46.76293],[6.86539,46.76257],[6.8693,46.75869],[6.87699,46.75588],[6.87563,46.75389],[6.88209,46.74981],[6.86616,46.73302],[6.86792,46.72842],[6.86453,46.72521],[6.86187,46.72459],[6.85721,46.72602],[6.85203,46.72641],[6.84418,46.72922],[6.83256,46.73502],[6.82167,46.73433],[6.81748,46.73329],[6.81184,46.72853],[6.80621,46.72693]]]]},"properties":{"id":"CH-VD","name":"Waadt"}}
]}