{"type":"FeatureCollection", "features": [
{"type":"Feature","geometry":{"type":"Polygon","coordinates":[[[8.94354,47.37591],[8.94013,47.37975],[8.94367,47.38412],[8.94156,47.38732],[8.93608,47.39026],[8.93187,47.39148],[8.92598,47.3969],[8.92082,47.39946],[8.91557,47.39989],[8.90348,47.40205],[8.90449,47.40456],[8.9127,47.41284],[8.91394,47.41827],[8.91116,47.42357],[8.91462,47.42773],[8.90872,47.42953],[8.90775,47.43133],[8.91095,47.43372],[8.91362,47.43153],[8.91701,47.43317],[8.9221,47.43299],[8.92587,47.43152],[8.93004,47.43159],[8.93113,47.4353],[8.92165,47.43488],[8.91882,47.43626],[8.91097,47.43664],[8.90704,47.43956],[8.90266,47.44424],[8.90559,47.44678],[8.90899,47.44773],[8.90701,47.45075],[8.90035,47.4546],[8.89578,47.45937],[8.89562,47.46277],[8.89172,47.46437],[8.89073,47.4693],[8.88432,47.46967],[8.88531,47.48171],[8.89771,47.48511],[8.89679,47.4879],[8.89282,47.48841],[8.8936,47.50065],[8.89734,47.50826],[8.89635,47.51367],[8.8971,47.51768],[8.89531,47.51925],[8.89777,47.52401],[8.89676,47.52561],[8.88631,47.52784],[8.88346,47.52942],[8.87989,47.5276],[8.86962,47.5303],[8.85578,47.53041],[8.84743,47.53126],[8.84077,47.53271],[8.84117,47.53687],[8.83995,47.53933],[8.83442,47.54291],[8.83274,47.54876],[8.8279,47.55598],[8.82946,47.5576],[8.83802,47.55726],[8.84164,47.56002],[8.8511,47.5608],[8.85098,47.56361],[8.8443,47.56325],[8.84485,47.56614],[8.8392,47.56535],[8.83882,47.57119],[8.83123,47.57339],[8.83002,47.5711],[8.82382,47.57249],[8.8166,47.57017],[8.80742,47.57157],[8.8081,47.57433],[8.80475,47.57506],[8.80621,47.5795],[8.80107,47.58054],[8.80241,47.58285],[8.80605,47.58315],[8.76528,47.59255],[8.75637,47.59289],[8.74823,47.59231],[8.74725,47.59578],[8.74804,47.59962],[8.74211,47.60462],[8.73941,47.60804],[8.74018,47.6119],[8.74582,47.61295],[8.74586,47.62017],[8.74813,47.62304],[8.75087,47.61973],[8.75633,47.61662],[8.75837,47.61838],[8.76219,47.61809],[8.76957,47.6151],[8.77946,47.6127],[8.78676,47.60954],[8.78981,47.60941],[8.78879,47.60344],[8.79654,47.60259],[8.80169,47.60296],[8.80402,47.60813],[8.80505,47.61373],[8.80853,47.61409],[8.81317,47.61653],[8.81171,47.62264],[8.81315,47.62744],[8.81796,47.62981],[8.82024,47.6293],[8.82469,47.63389],[8.82752,47.6401],[8.82732,47.64138],[8.82682,47.64252],[8.82645,47.6436],[8.82633,47.6461],[8.82656,47.64615],[8.82451,47.64761],[8.81893,47.64892],[8.81581,47.64909],[8.80994,47.65163],[8.80486,47.65223],[8.80494,47.6604],[8.80237,47.66529],[8.79299,47.66468],[8.78854,47.66536],[8.78541,47.65511],[8.78228,47.65236],[8.77619,47.64885],[8.76884,47.65018],[8.76485,47.64882],[8.76236,47.64617],[8.75519,47.64202],[8.74337,47.63977],[8.74316,47.64215],[8.73493,47.64117],[8.72964,47.64282],[8.72351,47.64185],[8.71723,47.64181],[8.71419,47.64438],[8.71108,47.64361],[8.70816,47.64232],[8.7028,47.64507],[8.69837,47.64771],[8.69316,47.64802],[8.68807,47.64998],[8.68671,47.6536],[8.68038,47.65815],[8.6777,47.66258],[8.67688,47.67177],[8.66944,47.67467],[8.66799,47.67714],[8.66962,47.68103],[8.66943,47.68485],[8.66314,47.6853],[8.65419,47.68892],[8.64597,47.69361],[8.64151,47.69445],[8.63736,47.69312],[8.62703,47.69185],[8.62405,47.68968],[8.62735,47.68062],[8.62634,47.67782],[8.62032,47.67515],[8.6136,47.67854],[8.60809,47.6726],[8.60614,47.66913],[8.6088,47.66342],[8.61454,47.66156],[8.62171,47.65801],[8.62768,47.65377],[8.62871,47.64905],[8.625,47.64273],[8.6219,47.63989],[8.61556,47.63771],[8.60703,47.63707],[8.60338,47.63883],[8.6055,47.64163],[8.61207,47.6424],[8.61407,47.64471],[8.61283,47.64944],[8.61068,47.65125],[8.60579,47.65232],[8.60266,47.64715],[8.59716,47.64409],[8.5954,47.64201],[8.5971,47.63005],[8.59842,47.62616],[8.60441,47.61767],[8.60524,47.61475],[8.60305,47.61067],[8.59573,47.60561],[8.59435,47.60144],[8.59481,47.59709],[8.59355,47.59589],[8.59254,47.59546],[8.58619,47.59409],[8.58358,47.59329],[8.58204,47.59253],[8.58021,47.59129],[8.5771,47.58559],[8.58011,47.57845],[8.5787,47.57611],[8.57481,47.57568],[8.57373,47.57541],[8.57278,47.57496],[8.57188,47.57421],[8.57044,47.57201],[8.57001,47.57107],[8.56973,47.57011],[8.56924,47.5664],[8.56753,47.56256],[8.56104,47.55496],[8.55894,47.55302],[8.55799,47.55257],[8.55707,47.55239],[8.55521,47.55254],[8.55428,47.55303],[8.55144,47.5555],[8.55101,47.55605],[8.55064,47.55694],[8.54971,47.56195],[8.54847,47.56416],[8.54591,47.56706],[8.5416,47.56993],[8.54622,47.57131],[8.54639,47.57417],[8.53498,47.57528],[8.53755,47.57796],[8.53577,47.58077],[8.53701,47.58343],[8.53535,47.58712],[8.54776,47.59274],[8.55045,47.59226],[8.55587,47.59463],[8.55582,47.59672],[8.56308,47.59945],[8.56166,47.60131],[8.56642,47.60609],[8.56639,47.60986],[8.57123,47.61248],[8.56934,47.6172],[8.56293,47.6167],[8.56199,47.61927],[8.5579,47.62445],[8.55052,47.62535],[8.54434,47.62515],[8.54293,47.62705],[8.5387,47.62629],[8.53895,47.63096],[8.53174,47.63191],[8.52564,47.63171],[8.52077,47.63432],[8.51566,47.63379],[8.51492,47.62822],[8.51089,47.62328],[8.50825,47.62206],[8.50835,47.61752],[8.5031,47.61727],[8.49333,47.61444],[8.48847,47.61505],[8.4833,47.61367],[8.47921,47.61521],[8.47814,47.61098],[8.47504,47.60772],[8.47145,47.607],[8.46855,47.60386],[8.46365,47.60226],[8.45669,47.60231],[8.45704,47.59738],[8.46124,47.59267],[8.46054,47.58838],[8.46482,47.58801],[8.46687,47.58425],[8.48104,47.5852],[8.48328,47.58692],[8.48871,47.58783],[8.49415,47.58224],[8.48675,47.57757],[8.47667,47.57781],[8.4649,47.57234],[8.45623,47.57244],[8.43919,47.56746],[8.43139,47.56657],[8.42568,47.56786],[8.41875,47.56516],[8.41454,47.55216],[8.41694,47.55027],[8.41271,47.54625],[8.41041,47.54549],[8.40606,47.54035],[8.4024,47.53738],[8.40443,47.53431],[8.39486,47.53148],[8.39573,47.52832],[8.39333,47.52572],[8.38665,47.52887],[8.3842,47.5282],[8.3814,47.52491],[8.38037,47.51597],[8.3788,47.51367],[8.37466,47.51218],[8.36123,47.5101],[8.36165,47.50782],[8.35907,47.5061],[8.35769,47.50252],[8.36216,47.49956],[8.35828,47.49748],[8.36085,47.49561],[8.36266,47.49061],[8.362,47.48575],[8.36328,47.48086],[8.37327,47.48147],[8.3736,47.47486],[8.37533,47.47114],[8.3678,47.47036],[8.36954,47.4634],[8.37284,47.45918],[8.37889,47.45927],[8.3802,47.45614],[8.38443,47.45491],[8.38666,47.44973],[8.38176,47.4487],[8.38102,47.44637],[8.38196,47.44049],[8.38504,47.43594],[8.38287,47.4329],[8.3771,47.43383],[8.37467,47.43225],[8.3776,47.42932],[8.38763,47.42796],[8.39138,47.42342],[8.39145,47.41977],[8.38755,47.41636],[8.3838,47.41803],[8.38176,47.41627],[8.38497,47.41447],[8.38114,47.40938],[8.38462,47.40622],[8.37926,47.40241],[8.37609,47.4048],[8.36583,47.40251],[8.36329,47.401],[8.36639,47.39882],[8.37991,47.39963],[8.38249,47.39541],[8.38976,47.39465],[8.39191,47.39584],[8.39657,47.39386],[8.39469,47.38998],[8.39495,47.38072],[8.39639,47.37704],[8.40077,47.3742],[8.40056,47.37152],[8.40298,47.37],[8.40704,47.37023],[8.4082,47.36665],[8.4054,47.36498],[8.40727,47.36002],[8.40738,47.35554],[8.40387,47.34657],[8.40732,47.34157],[8.41372,47.33804],[8.41674,47.3338],[8.41243,47.32713],[8.41904,47.32473],[8.42944,47.32736],[8.43478,47.32532],[8.43673,47.32675],[8.44208,47.32742],[8.44354,47.32922],[8.44985,47.33049],[8.45101,47.33362],[8.45474,47.33301],[8.44852,47.32597],[8.44917,47.32335],[8.4458,47.31999],[8.44053,47.31785],[8.44132,47.31583],[8.43596,47.31416],[8.43205,47.31154],[8.43208,47.30838],[8.42798,47.30035],[8.42158,47.29778],[8.41723,47.29386],[8.40704,47.29247],[8.39723,47.2879],[8.39271,47.29091],[8.38865,47.29003],[8.39113,47.28745],[8.39415,47.27967],[8.3965,47.27672],[8.40083,47.27385],[8.40227,47.27039],[8.40062,47.26601],[8.4036,47.26206],[8.4043,47.25905],[8.40274,47.25649],[8.40263,47.25568],[8.40276,47.25494],[8.4032,47.25411],[8.4038,47.25348],[8.40764,47.25074],[8.41008,47.24838],[8.41234,47.24705],[8.41564,47.24013],[8.41425,47.23939],[8.41517,47.23845],[8.4165,47.23697],[8.41684,47.23206],[8.41853,47.22617],[8.42169,47.22332],[8.42977,47.22495],[8.43554,47.22369],[8.44113,47.22521],[8.44781,47.22002],[8.45211,47.2196],[8.45871,47.217],[8.46141,47.21363],[8.46694,47.21428],[8.47042,47.21192],[8.47999,47.20858],[8.48547,47.20904],[8.49306,47.21192],[8.50128,47.21183],[8.51234,47.21552],[8.51257,47.21941],[8.5175,47.2196],[8.53109,47.21756],[8.53356,47.22154],[8.53934,47.22308],[8.54589,47.2214],[8.55297,47.22165],[8.55385,47.22324],[8.56036,47.21954],[8.57285,47.21838],[8.57461,47.217],[8.58045,47.21753],[8.5834,47.21749],[8.58117,47.2139],[8.58236,47.21084],[8.58749,47.21242],[8.5945,47.21191],[8.59745,47.20929],[8.59682,47.20369],[8.59859,47.20158],[8.60307,47.20299],[8.60605,47.20524],[8.61295,47.20186],[8.61815,47.19462],[8.6174,47.19229],[8.62091,47.19033],[8.62064,47.18774],[8.62803,47.17895],[8.62387,47.17362],[8.62577,47.1724],[8.63913,47.17154],[8.64283,47.16903],[8.6523,47.17104],[8.65488,47.17005],[8.66074,47.17031],[8.66044,47.16393],[8.66351,47.16054],[8.67195,47.1597],[8.67499,47.15944],[8.68034,47.16198],[8.6888,47.16272],[8.6922,47.1634],[8.69136,47.16902],[8.68311,47.17349],[8.68044,47.17868],[8.68107,47.18407],[8.68557,47.18654],[8.69419,47.19636],[8.70256,47.1981],[8.70291,47.20151],[8.70615,47.20229],[8.7101,47.20042],[8.71311,47.20304],[8.71702,47.20354],[8.74054,47.21158],[8.7772,47.21885],[8.79338,47.22256],[8.80861,47.22009],[8.79572,47.23912],[8.79653,47.24252],[8.80279,47.24537],[8.80251,47.24667],[8.82157,47.25076],[8.82682,47.25151],[8.8373,47.24767],[8.84473,47.24697],[8.84475,47.24862],[8.85209,47.25077],[8.85253,47.24687],[8.86,47.24398],[8.86661,47.24396],[8.86976,47.24504],[8.87031,47.24667],[8.87377,47.24766],[8.8735,47.25199],[8.88458,47.25266],[8.89767,47.25422],[8.90513,47.25566],[8.90861,47.25441],[8.92838,47.25888],[8.93311,47.25888],[8.93708,47.26155],[8.93773,47.26428],[8.94294,47.26738],[8.94446,47.26949],[8.94091,47.27166],[8.94715,47.27494],[8.94883,47.28094],[8.94563,47.28204],[8.94365,47.2796],[8.94058,47.28436],[8.93808,47.28547],[8.93549,47.28919],[8.94891,47.29217],[8.94903,47.29442],[8.95194,47.29651],[8.95653,47.30426],[8.96439,47.30634],[8.96705,47.30577],[8.97496,47.30702],[8.98495,47.31939],[8.98087,47.32267],[8.97668,47.32929],[8.97929,47.33795],[8.97311,47.33987],[8.97331,47.34621],[8.97442,47.34738],[8.97164,47.35193],[8.96702,47.3543],[8.96089,47.35398],[8.95181,47.36838],[8.95123,47.37172],[8.94831,47.37468],[8.94481,47.37497],[8.94354,47.37591]]]},"properties":{"id":"CH-ZH","name":"Zürich"}}
]}