{"type":"FeatureCollection", "features": [
{"type":"Feature","geometry":{"type":"Polygon","coordinates":[[[8.41008,47.24838],[8.41016,47.24445],[8.4069,47.24113],[8.4051,47.23606],[8.39901,47.2322],[8.39485,47.22574],[8.39631,47.22053],[8.40103,47.21383],[8.4005,47.20833],[8.40231,47.2011],[8.4053,47.19573],[8.4048,47.19347],[8.40088,47.18811],[8.40036,47.18304],[8.40301,47.17647],[8.40867,47.17556],[8.41207,47.17288],[8.41523,47.1646],[8.41539,47.16322],[8.41517,47.15858],[8.4124,47.15507],[8.41225,47.15235],[8.41462,47.14786],[8.4149,47.14661],[8.41488,47.14526],[8.41462,47.14414],[8.41402,47.14279],[8.41222,47.14057],[8.41524,47.13558],[8.41677,47.13056],[8.41436,47.12619],[8.4154,47.12441],[8.42033,47.12263],[8.42209,47.12345],[8.4304,47.12332],[8.44135,47.12857],[8.44749,47.1293],[8.44945,47.13096],[8.45195,47.11998],[8.45412,47.11369],[8.4604,47.11599],[8.46586,47.11706],[8.46711,47.11882],[8.48038,47.12633],[8.49374,47.11373],[8.49305,47.10018],[8.52195,47.08986],[8.52571,47.09165],[8.54079,47.09227],[8.54421,47.09446],[8.54716,47.09371],[8.56247,47.09375],[8.56483,47.08673],[8.56302,47.0819],[8.56567,47.08103],[8.56955,47.08121],[8.5735,47.08203],[8.5776,47.08448],[8.5811,47.084],[8.59011,47.0864],[8.59241,47.0896],[8.5949,47.0909],[8.59995,47.09054],[8.60746,47.092],[8.60871,47.09445],[8.61179,47.09497],[8.623,47.09471],[8.62595,47.09387],[8.63725,47.09333],[8.64492,47.09586],[8.64549,47.09963],[8.65378,47.10786],[8.65978,47.11092],[8.65981,47.11468],[8.67144,47.1158],[8.67121,47.11788],[8.67829,47.12452],[8.68131,47.12482],[8.68536,47.13135],[8.68643,47.13711],[8.68506,47.13838],[8.68421,47.14024],[8.68791,47.14506],[8.69005,47.14701],[8.69587,47.15008],[8.70087,47.1514],[8.69857,47.15373],[8.69921,47.15501],[8.69674,47.16055],[8.6959,47.1628],[8.69519,47.16316],[8.69274,47.16348],[8.6888,47.16272],[8.68034,47.16198],[8.67499,47.15944],[8.67195,47.1597],[8.66351,47.16054],[8.66044,47.16393],[8.66074,47.17031],[8.65488,47.17005],[8.6523,47.17104],[8.64283,47.16903],[8.63913,47.17154],[8.62577,47.1724],[8.62387,47.17362],[8.62803,47.17895],[8.62064,47.18774],[8.62091,47.19033],[8.6174,47.19229],[8.61815,47.19462],[8.61295,47.20186],[8.60605,47.20524],[8.60307,47.20299],[8.59859,47.20158],[8.59682,47.20369],[8.59745,47.20929],[8.5945,47.21191],[8.58749,47.21242],[8.58236,47.21084],[8.58117,47.2139],[8.5834,47.21749],[8.58045,47.21753],[8.57461,47.217],[8.57285,47.21838],[8.56036,47.21954],[8.55385,47.22324],[8.55297,47.22165],[8.54589,47.2214],[8.53934,47.22308],[8.53356,47.22154],[8.53109,47.21756],[8.5175,47.2196],[8.51257,47.21941],[8.51234,47.21552],[8.50128,47.21183],[8.49306,47.21192],[8.48547,47.20904],[8.47999,47.20858],[8.47042,47.21192],[8.46694,47.21428],[8.46141,47.21363],[8.45871,47.217],[8.45211,47.2196],[8.44781,47.22002],[8.44113,47.22521],[8.43554,47.22369],[8.42977,47.22495],[8.42169,47.22332],[8.41853,47.22617],[8.41684,47.23206],[8.4165,47.23697],[8.41517,47.23845],[8.41425,47.23939],[8.41564,47.24013],[8.41234,47.24705],[8.41008,47.24838]]]},"properties":{"id":"CH-ZG","name":"Zug"}}
]}