{"type":"FeatureCollection", "features": [
{"type":"Feature","geometry":{"type":"Polygon","coordinates":[[[13.05103,51.64768],[13.09384,51.60588],[13.12103,51.61889],[13.16177,51.59215],[13.14104,51.57117],[13.16083,51.55897],[13.18557,51.55808],[13.19006,51.53959],[13.20796,51.52435],[13.20704,51.50494],[13.18705,51.48575],[13.18292,51.47134],[13.20308,51.45873],[13.19339,51.43578],[13.21355,51.39725],[13.25607,51.39209],[13.28635,51.39929],[13.28667,51.41138],[13.31363,51.42318],[13.35835,51.43397],[13.37714,51.43332],[13.40105,51.45417],[13.42793,51.42895],[13.46553,51.42177],[13.46328,51.41175],[13.52122,51.40206],[13.52486,51.38427],[13.55082,51.37925],[13.58765,51.38183],[13.59406,51.36936],[13.68276,51.36762],[13.73911,51.3612],[13.86325,51.38176],[13.88307,51.37512],[13.90999,51.37897],[13.96171,51.39714],[13.97021,51.37584],[13.99735,51.38524],[14.04459,51.41875],[14.04304,51.43924],[14.06284,51.44551],[14.03874,51.47991],[14.07259,51.47209],[14.07382,51.49267],[14.09567,51.49872],[14.1078,51.52176],[14.13957,51.54399],[14.17514,51.53912],[14.21302,51.53981],[14.22893,51.53284],[14.27401,51.53213],[14.32292,51.51943],[14.32736,51.50736],[14.36344,51.52454],[14.38716,51.54177],[14.40944,51.53721],[14.44131,51.54461],[14.45407,51.55637],[14.49986,51.5594],[14.51545,51.55423],[14.54749,51.56362],[14.56964,51.58119],[14.59903,51.57175],[14.60989,51.55015],[14.6396,51.55429],[14.67401,51.55065],[14.70645,51.57646],[14.72987,51.58178],[14.76491,51.60704],[14.75331,51.62801],[14.75755,51.6615],[14.74677,51.67617],[14.66812,51.72583],[14.65621,51.74131],[14.66397,51.75727],[14.64512,51.79582],[14.60503,51.80503],[14.59014,51.82101],[14.59016,51.83815],[14.69426,51.90198],[14.70716,51.93588],[14.72123,51.95116],[14.70471,51.97662],[14.72139,51.99382],[14.71405,52.00369],[14.74131,52.02341],[14.74524,52.05385],[14.7591,52.06569],[14.74128,52.08523],[14.70035,52.09812],[14.6816,52.11665],[14.67958,52.14493],[14.70309,52.16428],[14.68854,52.1989],[14.70839,52.21175],[14.71575,52.23588],[14.69215,52.25595],[14.59648,52.27293],[14.57475,52.29556],[14.5762,52.32148],[14.56103,52.32861],[14.55212,52.37405],[14.53436,52.39501],[14.54421,52.42598],[14.57924,52.44175],[14.60879,52.46387],[14.63454,52.49234],[14.61273,52.51039],[14.60392,52.53134],[14.61571,52.55421],[14.63911,52.573],[14.61371,52.58661],[14.59616,52.61066],[14.56732,52.62369],[14.50968,52.64161],[14.4651,52.66133],[14.43553,52.68004],[14.42399,52.69617],[14.35104,52.75151],[14.27881,52.77445],[14.2064,52.81934],[14.14326,52.82385],[14.12293,52.83766],[14.12985,52.85272],[14.15771,52.87475],[14.13885,52.95178],[14.14366,52.96137],[14.20686,52.98754],[14.2356,52.99319],[14.29162,53.02001],[14.33799,53.04658],[14.36616,53.07937],[14.38774,53.14303],[14.36625,53.17199],[14.37727,53.20175],[14.40522,53.21023],[14.4085,53.2232],[14.45027,53.26056],[14.4453,53.27445],[14.42122,53.27614],[14.40677,53.30871],[14.41238,53.32959],[14.38154,53.32389],[14.34866,53.30997],[14.31657,53.31234],[14.30185,53.28622],[14.26219,53.2766],[14.26605,53.25959],[14.21106,53.25481],[14.16024,53.26781],[14.12479,53.26023],[14.09882,53.26167],[14.10965,53.28264],[14.20523,53.34229],[14.23106,53.36809],[14.24314,53.39232],[14.24179,53.42244],[14.22466,53.43425],[14.20591,53.42303],[14.17696,53.42287],[14.13676,53.441],[14.12184,53.44171],[14.10543,53.42243],[14.05058,53.41399],[14.0456,53.42943],[14.00122,53.43499],[13.94649,53.43081],[13.91805,53.42181],[13.90289,53.43203],[13.91821,53.456],[13.87559,53.47347],[13.87927,53.50414],[13.82388,53.52114],[13.79846,53.54569],[13.77638,53.53129],[13.77766,53.51371],[13.8271,53.49871],[13.80203,53.47803],[13.77894,53.47422],[13.7154,53.48226],[13.6405,53.44724],[13.61761,53.41301],[13.57362,53.40809],[13.55659,53.39156],[13.55637,53.37609],[13.51685,53.35209],[13.52353,53.32008],[13.50727,53.31623],[13.48306,53.2912],[13.43151,53.28455],[13.40336,53.2492],[13.38899,53.24274],[13.36045,53.278],[13.33708,53.27343],[13.2978,53.28089],[13.24786,53.25684],[13.25124,53.24739],[13.22939,53.21659],[13.20506,53.22055],[13.18191,53.25073],[13.15222,53.25111],[13.13298,53.23732],[13.10326,53.23554],[13.10656,53.21515],[13.08438,53.21306],[13.07309,53.20036],[13.04241,53.1965],[13.02004,53.17571],[12.97617,53.16307],[12.96151,53.17774],[12.97688,53.19737],[12.94887,53.19927],[12.90371,53.1936],[12.88011,53.17969],[12.84957,53.19971],[12.76438,53.18893],[12.74951,53.20633],[12.75806,53.22159],[12.72274,53.22167],[12.66618,53.23143],[12.66056,53.25441],[12.62842,53.25456],[12.60605,53.2444],[12.54991,53.26198],[12.5024,53.26217],[12.44531,53.24993],[12.42801,53.27499],[12.39183,53.28506],[12.39425,53.30181],[12.2913,53.32868],[12.26462,53.325],[12.24529,53.33301],[12.22944,53.35816],[12.19112,53.35395],[12.16856,53.33912],[12.13445,53.34843],[12.08208,53.3463],[12.07967,53.36697],[12.05137,53.36687],[12.05734,53.34934],[12.01461,53.33442],[12.01853,53.29959],[11.97386,53.29916],[11.95425,53.27381],[11.89274,53.27276],[11.86175,53.24822],[11.81667,53.25419],[11.82889,53.22866],[11.76907,53.22749],[11.72933,53.21715],[11.72753,53.23166],[11.69095,53.24176],[11.62924,53.24222],[11.58896,53.21584],[11.56155,53.21242],[11.55671,53.19424],[11.56893,53.17048],[11.55008,53.15107],[11.55596,53.13878],[11.53457,53.12532],[11.48408,53.12903],[11.46084,53.14023],[11.43867,53.13669],[11.39563,53.14],[11.39377,53.1103],[11.32472,53.1193],[11.29042,53.1169],[11.26573,53.12198],[11.26775,53.10419],[11.33887,53.0551],[11.35758,53.05594],[11.40259,53.07237],[11.44838,53.07838],[11.4936,53.05465],[11.52378,53.04714],[11.55191,53.05137],[11.56294,53.04221],[11.59778,53.03593],[11.622,53.0417],[11.6415,53.03285],[11.62633,53.01265],[11.64575,53.00538],[11.66774,53.00968],[11.68302,52.98616],[11.70257,52.97781],[11.73202,52.98857],[11.76419,52.98141],[11.7863,52.96096],[11.8289,52.95727],[11.84793,52.94103],[11.82952,52.9306],[11.82501,52.91577],[11.87151,52.90887],[11.89734,52.89336],[11.93225,52.89158],[11.98155,52.87603],[12.00612,52.88746],[12.05547,52.88895],[12.08138,52.87708],[12.12021,52.87551],[12.13312,52.86578],[12.17219,52.8647],[12.19265,52.87746],[12.23406,52.85938],[12.24367,52.82069],[12.25754,52.80491],[12.24466,52.78722],[12.22356,52.78705],[12.20596,52.76091],[12.22317,52.73975],[12.20944,52.7352],[12.20392,52.71335],[12.23935,52.67174],[12.23085,52.62976],[12.20354,52.61875],[12.17197,52.62595],[12.17338,52.58225],[12.14181,52.52839],[12.17389,52.53869],[12.18547,52.52702],[12.16729,52.51499],[12.1847,52.49578],[12.22168,52.50067],[12.23612,52.52372],[12.25822,52.51789],[12.25992,52.50423],[12.27845,52.48715],[12.31305,52.48971],[12.32512,52.46423],[12.29699,52.42378],[12.27447,52.41606],[12.30329,52.39755],[12.28381,52.36425],[12.30813,52.3447],[12.26277,52.29507],[12.25094,52.27259],[12.26154,52.24609],[12.28378,52.23451],[12.27883,52.21704],[12.26026,52.21645],[12.21678,52.17007],[12.24532,52.13873],[12.26511,52.13066],[12.27672,52.10402],[12.31582,52.09237],[12.32903,52.06963],[12.35978,52.0465],[12.3896,52.04357],[12.43023,52.01831],[12.45,52.01621],[12.46076,52.03472],[12.48062,52.03334],[12.49883,52.00892],[12.53631,52.00288],[12.53939,51.98489],[12.60302,51.98109],[12.6144,51.99172],[12.64475,51.99438],[12.6486,52.00831],[12.6727,52.01185],[12.72964,51.98896],[12.77655,51.97657],[12.77602,51.96512],[12.81127,51.96257],[12.84415,51.96773],[12.85273,51.93501],[12.91746,51.93269],[12.96057,51.93491],[12.98608,51.90411],[13.04541,51.90052],[13.03924,51.87091],[13.07546,51.86885],[13.13234,51.88249],[13.15091,51.85961],[13.12354,51.85459],[13.14209,51.82065],[13.16301,51.80202],[13.16329,51.75494],[13.15401,51.74425],[13.17954,51.73117],[13.1551,51.71079],[13.15453,51.68671],[13.05103,51.64768]],[[13.48006,52.67465],[13.48529,52.65913],[13.51278,52.64556],[13.499,52.60516],[13.50815,52.59218],[13.54711,52.58788],[13.58154,52.57088],[13.58539,52.54847],[13.61886,52.54295],[13.63332,52.51183],[13.61501,52.48083],[13.67066,52.47306],[13.71645,52.46219],[13.72911,52.4506],[13.75322,52.4476],[13.71644,52.39953],[13.69066,52.38557],[13.7,52.37512],[13.67108,52.36636],[13.6484,52.33824],[13.63629,52.34704],[13.64711,52.36688],[13.62795,52.38179],[13.6063,52.37964],[13.59276,52.39417],[13.53566,52.38901],[13.51517,52.40143],[13.47988,52.396],[13.46232,52.42062],[13.41877,52.40992],[13.42759,52.38682],[13.42098,52.37625],[13.38852,52.37797],[13.38722,52.38858],[13.34303,52.40767],[13.31193,52.39919],[13.29613,52.41645],[13.27446,52.40514],[13.24984,52.40496],[13.2458,52.4208],[13.19557,52.41509],[13.12488,52.39688],[13.08833,52.41961],[13.12318,52.43936],[13.10922,52.45062],[13.1108,52.46606],[13.16646,52.51012],[13.14301,52.51968],[13.11739,52.517],[13.13062,52.55635],[13.14566,52.55291],[13.1496,52.58331],[13.16426,52.5989],[13.20663,52.58674],[13.20161,52.60638],[13.22068,52.62818],[13.26427,52.62693],[13.28244,52.6413],[13.33648,52.62267],[13.37599,52.62929],[13.39671,52.6483],[13.42437,52.63563],[13.45084,52.66272],[13.48006,52.67465]]]},"properties":{"id":"DE-BB","name":"Brandenburg"}}
]}