{"type":"FeatureCollection", "features": [
{"type":"Feature","geometry":{"type":"MultiPolygon","coordinates":[[[[8.70128,47.71522],[8.67811,47.71305],[8.69023,47.69538],[8.71772,47.69074],[8.70128,47.71522]]],[[[9.60208,47.58434],[9.67144,47.61137],[9.70629,47.60181],[9.75488,47.61401],[9.79526,47.63572],[9.80167,47.65086],[9.82855,47.6579],[9.83061,47.67138],[9.85665,47.67781],[9.89328,47.66323],[9.95952,47.6523],[10.0019,47.682],[10.05931,47.68063],[10.08136,47.65489],[10.13006,47.67727],[10.13944,47.70327],[10.11643,47.71932],[10.11905,47.75959],[10.08251,47.77118],[10.06468,47.78589],[10.09626,47.80466],[10.13233,47.81468],[10.10987,47.84021],[10.10208,47.86548],[10.1017,47.90563],[10.11101,47.93488],[10.0858,47.95372],[10.08752,47.96841],[10.11495,47.97626],[10.11955,48.0035],[10.13433,48.0176],[10.12711,48.03271],[10.1439,48.05901],[10.13408,48.07948],[10.13625,48.11144],[10.10707,48.13214],[10.08572,48.18219],[10.08371,48.20964],[10.06072,48.24009],[10.06903,48.25376],[10.06582,48.28182],[10.04308,48.30044],[10.0104,48.34239],[9.9996,48.36323],[9.96728,48.3744],[9.98987,48.39371],[10.01528,48.40435],[10.03913,48.45969],[10.06401,48.45639],[10.10352,48.47255],[10.1339,48.45487],[10.17185,48.45779],[10.1801,48.47552],[10.21792,48.48847],[10.23544,48.48896],[10.24717,48.51355],[10.26466,48.5198],[10.29627,48.51694],[10.30085,48.54507],[10.31418,48.55629],[10.30912,48.57886],[10.29311,48.58977],[10.29711,48.60381],[10.32309,48.60913],[10.29781,48.62419],[10.2546,48.6662],[10.27304,48.68589],[10.26871,48.70355],[10.3175,48.68293],[10.34742,48.67911],[10.35102,48.65468],[10.38942,48.6672],[10.39203,48.68716],[10.40887,48.69879],[10.42692,48.68685],[10.41934,48.66393],[10.44917,48.66516],[10.48099,48.68142],[10.48164,48.71259],[10.42257,48.74959],[10.41822,48.76293],[10.42984,48.78821],[10.42091,48.79546],[10.44702,48.81261],[10.44799,48.83191],[10.42917,48.84494],[10.4528,48.85186],[10.44377,48.90845],[10.45711,48.92055],[10.44333,48.94582],[10.3819,48.99905],[10.35216,49.006],[10.35026,49.02842],[10.32048,49.02572],[10.29401,49.04278],[10.25576,49.04475],[10.26003,49.06411],[10.24554,49.07434],[10.2506,49.09282],[10.22278,49.09786],[10.23029,49.11897],[10.25275,49.12991],[10.24802,49.14928],[10.22814,49.15989],[10.20665,49.15909],[10.1424,49.19544],[10.12746,49.22331],[10.12601,49.2559],[10.15391,49.28474],[10.1339,49.29607],[10.14525,49.3165],[10.12133,49.32496],[10.10394,49.34697],[10.12169,49.38786],[10.15677,49.39074],[10.13371,49.43715],[10.09474,49.4479],[10.12225,49.46391],[10.09999,49.49173],[10.12132,49.51105],[10.08415,49.51176],[10.08372,49.54356],[10.04002,49.52901],[10.05718,49.51932],[10.02818,49.50399],[10.02026,49.48665],[9.92656,49.48484],[9.91374,49.49325],[9.92705,49.53608],[9.92498,49.56006],[9.89906,49.56108],[9.89879,49.58835],[9.86455,49.56788],[9.85931,49.54604],[9.81023,49.55732],[9.8485,49.57771],[9.84105,49.59514],[9.86805,49.61117],[9.85548,49.64151],[9.83675,49.64533],[9.82236,49.66471],[9.8318,49.7038],[9.79651,49.72071],[9.7716,49.72011],[9.75295,49.71012],[9.73942,49.68819],[9.71929,49.70194],[9.70972,49.72706],[9.67719,49.7162],[9.67615,49.69335],[9.6535,49.68714],[9.62545,49.70374],[9.64087,49.72034],[9.63656,49.73165],[9.65187,49.76637],[9.64432,49.77861],[9.6197,49.78318],[9.58108,49.77803],[9.55839,49.7651],[9.51005,49.77009],[9.50146,49.78877],[9.4791,49.78689],[9.45826,49.76952],[9.43485,49.78738],[9.42028,49.78851],[9.39155,49.77012],[9.36891,49.77815],[9.35104,49.76901],[9.31803,49.76886],[9.32303,49.73112],[9.34171,49.7342],[9.35321,49.70744],[9.38253,49.70746],[9.38016,49.72612],[9.39996,49.72884],[9.42031,49.70663],[9.42009,49.69019],[9.39789,49.67066],[9.4195,49.65885],[9.406,49.64531],[9.38357,49.64283],[9.36394,49.65534],[9.3369,49.6443],[9.31361,49.65371],[9.27831,49.63762],[9.28502,49.6148],[9.26458,49.60682],[9.2387,49.58129],[9.21365,49.57654],[9.15889,49.57959],[9.12051,49.57356],[9.10301,49.57746],[9.08745,49.54493],[9.11377,49.53463],[9.12646,49.52161],[9.06495,49.52961],[9.04995,49.51937],[9.04076,49.49907],[9.01424,49.49806],[8.98758,49.50569],[8.9635,49.50148],[8.93188,49.47064],[8.95035,49.45499],[8.92745,49.44914],[8.89239,49.42091],[8.85464,49.39663],[8.80659,49.4192],[8.8305,49.42323],[8.83461,49.45038],[8.8266,49.46935],[8.85193,49.48359],[8.8765,49.46669],[8.89935,49.48455],[8.88266,49.5061],[8.8485,49.50217],[8.83386,49.49068],[8.81696,49.50579],[8.79179,49.51427],[8.7642,49.5152],[8.72461,49.52589],[8.70701,49.53635],[8.68431,49.57022],[8.67793,49.62595],[8.59389,49.61095],[8.6213,49.54501],[8.5913,49.52128],[8.56,49.51746],[8.5324,49.53636],[8.52626,49.548],[8.49503,49.573],[8.46428,49.58953],[8.42244,49.58339],[8.41473,49.5539],[8.44296,49.4927],[8.4638,49.4704],[8.44432,49.45919],[8.45553,49.44376],[8.49888,49.44265],[8.50824,49.43449],[8.49619,49.40214],[8.46538,49.38725],[8.47822,49.3751],[8.50092,49.37636],[8.48329,49.34859],[8.45552,49.33209],[8.4558,49.31421],[8.48774,49.30046],[8.48226,49.28654],[8.45819,49.27911],[8.4398,49.26235],[8.40069,49.24416],[8.38638,49.22833],[8.40525,49.22056],[8.38502,49.1983],[8.36843,49.16805],[8.37271,49.15198],[8.35809,49.09778],[8.32054,49.06496],[8.30414,49.04065],[8.29737,49.01351],[8.27735,48.98994],[8.23263,48.96657],[8.19639,48.9565],[8.14655,48.90229],[8.13037,48.88052],[8.10383,48.82012],[8.08704,48.80203],[8.05887,48.78892],[8.0258,48.78216],[8.01433,48.76102],[7.97201,48.75812],[7.9633,48.72153],[7.88998,48.6626],[7.83974,48.64128],[7.83032,48.61987],[7.80029,48.58404],[7.80676,48.52017],[7.79509,48.50183],[7.7682,48.48966],[7.76504,48.45661],[7.73315,48.3972],[7.73187,48.37638],[7.74517,48.33511],[7.73708,48.31961],[7.69357,48.30172],[7.68924,48.28079],[7.6657,48.22048],[7.64412,48.20727],[7.62952,48.18371],[7.6006,48.15772],[7.59878,48.13558],[7.57698,48.11906],[7.57901,48.09979],[7.56917,48.08005],[7.57166,48.03036],[7.61019,47.99869],[7.62094,47.96898],[7.58799,47.93712],[7.58055,47.92415],[7.58279,47.90137],[7.56245,47.88492],[7.5556,47.8688],[7.56292,47.84269],[7.52985,47.78126],[7.54811,47.73947],[7.53991,47.71836],[7.51454,47.70266],[7.52108,47.66385],[7.56736,47.63174],[7.59145,47.60417],[7.58919,47.58973],[7.61927,47.57688],[7.64578,47.59695],[7.66725,47.59204],[7.68341,47.57126],[7.64028,47.55792],[7.66892,47.53557],[7.69818,47.53327],[7.71912,47.54178],[7.75105,47.5445],[7.79555,47.55744],[7.82309,47.58801],[7.84167,47.58216],[7.89135,47.58764],[7.91086,47.57096],[7.91713,47.54777],[7.94829,47.54508],[7.95908,47.55826],[8.00148,47.55634],[8.02177,47.55051],[8.06833,47.56458],[8.08966,47.55776],[8.11561,47.58388],[8.13524,47.58357],[8.16491,47.59414],[8.20405,47.62089],[8.23854,47.61268],[8.28772,47.61064],[8.29792,47.58907],[8.33083,47.57072],[8.38297,47.56581],[8.39736,47.5772],[8.43369,47.56665],[8.46694,47.5842],[8.45702,47.59728],[8.48313,47.61381],[8.50825,47.61751],[8.51559,47.63379],[8.558,47.62431],[8.58254,47.5961],[8.6048,47.61326],[8.59574,47.64313],[8.62413,47.65623],[8.60662,47.67212],[8.57776,47.66157],[8.55432,47.66939],[8.52289,47.64492],[8.46614,47.64276],[8.40556,47.67452],[8.42064,47.68386],[8.40443,47.69806],[8.44524,47.72296],[8.44983,47.73863],[8.48903,47.77327],[8.52013,47.77049],[8.575,47.78962],[8.58764,47.80268],[8.6114,47.80187],[8.61941,47.76768],[8.64235,47.76526],[8.65698,47.80035],[8.68089,47.78667],[8.69509,47.75571],[8.71416,47.76536],[8.74011,47.75279],[8.71126,47.73007],[8.7332,47.71837],[8.72798,47.69268],[8.75731,47.68942],[8.79155,47.6749],[8.79207,47.70491],[8.76991,47.71845],[8.80644,47.73826],[8.82542,47.71099],[8.84576,47.7112],[8.85807,47.6988],[8.85058,47.68116],[8.87347,47.67022],[8.87535,47.65621],[8.89366,47.65218],[8.93909,47.66167],[8.99068,47.68214],[9.00616,47.69612],[8.99233,47.70705],[8.94478,47.72289],[8.96069,47.73717],[8.99859,47.72677],[9.02306,47.72837],[9.09313,47.70644],[9.08717,47.68821],[9.0482,47.70715],[9.04261,47.69404],[9.08114,47.6833],[9.11313,47.68502],[9.13933,47.664],[9.17843,47.66699],[9.20726,47.66316],[9.2119,47.68106],[9.17961,47.70515],[9.17332,47.73441],[9.14907,47.74871],[9.0697,47.77764],[9.03099,47.8047],[9.03954,47.81748],[9.06214,47.81473],[9.08841,47.79719],[9.15856,47.76589],[9.22372,47.74092],[9.2386,47.71065],[9.26342,47.6948],[9.34972,47.66084],[9.40628,47.66825],[9.43419,47.65719],[9.49528,47.65013],[9.52746,47.61534],[9.52956,47.60346],[9.55034,47.58768],[9.60208,47.58434]]]]},"properties":{"id":"DE-BW","name":"Baden-Württemberg"}}
]}