{"type":"FeatureCollection", "features": [
{"type":"Feature","geometry":{"type":"Polygon","coordinates":[[[13.48006,52.67465],[13.45084,52.66272],[13.42437,52.63563],[13.39671,52.6483],[13.37599,52.62929],[13.33648,52.62267],[13.28244,52.6413],[13.26427,52.62693],[13.22068,52.62818],[13.20161,52.60638],[13.20663,52.58674],[13.16426,52.5989],[13.1496,52.58331],[13.14566,52.55291],[13.13062,52.55635],[13.11739,52.517],[13.14301,52.51968],[13.16646,52.51012],[13.1108,52.46606],[13.10922,52.45062],[13.12318,52.43936],[13.08833,52.41961],[13.12488,52.39688],[13.19557,52.41509],[13.2458,52.4208],[13.24984,52.40496],[13.27446,52.40514],[13.29613,52.41645],[13.31193,52.39919],[13.34303,52.40767],[13.38722,52.38858],[13.38852,52.37797],[13.42098,52.37625],[13.42759,52.38682],[13.41877,52.40992],[13.46232,52.42062],[13.47988,52.396],[13.51517,52.40143],[13.53566,52.38901],[13.59276,52.39417],[13.6063,52.37964],[13.62795,52.38179],[13.64711,52.36688],[13.63629,52.34704],[13.6484,52.33824],[13.67108,52.36636],[13.7,52.37512],[13.69066,52.38557],[13.71644,52.39953],[13.75322,52.4476],[13.72911,52.4506],[13.71645,52.46219],[13.67066,52.47306],[13.61501,52.48083],[13.63332,52.51183],[13.61886,52.54295],[13.58539,52.54847],[13.58154,52.57088],[13.54711,52.58788],[13.50815,52.59218],[13.499,52.60516],[13.51278,52.64556],[13.48529,52.65913],[13.48006,52.67465]]]},"properties":{"id":"DE-BE","name":"Berlin"}}
]}