{"type":"FeatureCollection", "features": [
{"type":"Feature","geometry":{"type":"Polygon","coordinates":[[[9.60208,47.58434],[9.65155,47.55738],[9.71222,47.55078],[9.72903,47.53477],[9.75646,47.57972],[9.77777,47.59534],[9.80244,47.59587],[9.82734,47.57889],[9.81568,47.54761],[9.8687,47.53181],[9.88924,47.54413],[9.92155,47.52967],[9.94109,47.53823],[9.96368,47.53472],[9.9652,47.52116],[9.9957,47.50293],[10.0018,47.48192],[10.03619,47.48883],[10.07035,47.456],[10.09147,47.45908],[10.10542,47.42874],[10.0957,47.41782],[10.06916,47.40985],[10.08289,47.39373],[10.09978,47.35474],[10.11927,47.3757],[10.14167,47.36716],[10.16586,47.36879],[10.16919,47.38579],[10.1892,47.38959],[10.23701,47.37346],[10.20421,47.33673],[10.21036,47.30637],[10.17873,47.29573],[10.17398,47.27027],[10.20125,47.27687],[10.2323,47.27048],[10.26597,47.2879],[10.28148,47.28755],[10.31503,47.30652],[10.34878,47.3174],[10.35683,47.33698],[10.38629,47.35622],[10.39486,47.37573],[10.4291,47.39101],[10.43856,47.41356],[10.47593,47.43215],[10.46572,47.45353],[10.46322,47.48277],[10.44021,47.48656],[10.43132,47.50368],[10.45446,47.55574],[10.48886,47.54035],[10.52448,47.53519],[10.57337,47.53392],[10.59795,47.56972],[10.63541,47.55899],[10.67661,47.55905],[10.69483,47.54464],[10.75758,47.53473],[10.77757,47.51394],[10.81312,47.52642],[10.85352,47.53463],[10.89021,47.5372],[10.90568,47.51747],[10.87048,47.49937],[10.88133,47.47925],[10.91011,47.48552],[10.9836,47.43001],[10.97033,47.40002],[11.00584,47.39412],[11.0241,47.39695],[11.11546,47.39559],[11.1292,47.4128],[11.19816,47.42749],[11.20691,47.4338],[11.24889,47.43257],[11.22235,47.3973],[11.27289,47.39785],[11.29003,47.40738],[11.29106,47.42717],[11.33094,47.43908],[11.33812,47.44972],[11.41547,47.44698],[11.4083,47.46455],[11.38381,47.47221],[11.41668,47.50218],[11.44173,47.51762],[11.45592,47.50888],[11.5056,47.50473],[11.57245,47.51451],[11.58798,47.5254],[11.58716,47.55517],[11.60555,47.58081],[11.63261,47.59211],[11.66025,47.58378],[11.70014,47.58894],[11.74503,47.58772],[11.78104,47.59119],[11.84734,47.58229],[11.8643,47.60102],[11.91367,47.6138],[11.93313,47.61278],[12.01276,47.62318],[12.01936,47.6119],[12.06066,47.61874],[12.08235,47.60973],[12.1152,47.61143],[12.13977,47.6053],[12.17904,47.61437],[12.20813,47.61388],[12.19879,47.64144],[12.16883,47.68004],[12.1626,47.70113],[12.18393,47.70037],[12.22664,47.71829],[12.2496,47.74143],[12.26489,47.73248],[12.24117,47.6941],[12.25519,47.67929],[12.27753,47.68793],[12.33805,47.69709],[12.3637,47.6838],[12.42922,47.69622],[12.443,47.69178],[12.44073,47.67386],[12.46514,47.64962],[12.51203,47.62532],[12.53634,47.63648],[12.57503,47.63232],[12.59686,47.6663],[12.63008,47.67609],[12.65486,47.67208],[12.66611,47.68078],[12.73292,47.67946],[12.75586,47.66635],[12.75901,47.6509],[12.82461,47.6121],[12.8073,47.61023],[12.77923,47.57933],[12.79448,47.55663],[12.81769,47.54491],[12.84757,47.54603],[12.85198,47.53056],[12.8804,47.52192],[12.90872,47.49699],[13.00108,47.46388],[13.02646,47.48351],[13.0475,47.49208],[13.0463,47.52395],[13.03103,47.53309],[13.05567,47.55732],[13.04357,47.58345],[13.07188,47.58837],[13.06296,47.60213],[13.09563,47.62801],[13.097,47.64071],[13.07716,47.66943],[13.08079,47.68702],[13.04389,47.71383],[13.00832,47.72226],[12.99143,47.70867],[12.93309,47.70952],[12.90505,47.72364],[12.94476,47.7646],[12.93952,47.78509],[12.96464,47.80051],[13.00329,47.85031],[12.9646,47.90333],[12.93298,47.93997],[12.90951,47.95739],[12.88485,47.9592],[12.86808,47.97229],[12.85728,48.00745],[12.83246,48.02906],[12.77033,48.06616],[12.75342,48.08571],[12.74913,48.10831],[12.76732,48.1289],[12.78689,48.12361],[12.79879,48.14616],[12.8273,48.15281],[12.84775,48.16745],[12.86485,48.19772],[12.87788,48.2031],[12.94664,48.20687],[12.96538,48.21372],[13.02239,48.25797],[13.05465,48.26528],[13.08116,48.27726],[13.12907,48.27864],[13.17916,48.29474],[13.25519,48.29339],[13.32975,48.32353],[13.36789,48.35334],[13.40779,48.372],[13.43996,48.43297],[13.42743,48.45809],[13.45804,48.51194],[13.43805,48.55774],[13.4501,48.56397],[13.47539,48.55609],[13.52483,48.58837],[13.56952,48.56128],[13.59947,48.56936],[13.62578,48.55399],[13.65329,48.54891],[13.66459,48.53404],[13.72736,48.51301],[13.74754,48.52988],[13.74373,48.54407],[13.77043,48.55364],[13.80721,48.58421],[13.80147,48.5976],[13.82261,48.61435],[13.82698,48.62794],[13.81418,48.64979],[13.81966,48.67125],[13.81368,48.69192],[13.79492,48.71493],[13.81881,48.73152],[13.83107,48.77083],[13.8039,48.78113],[13.81532,48.7969],[13.79573,48.81499],[13.79309,48.83022],[13.76559,48.83741],[13.75061,48.86676],[13.73053,48.8871],[13.71682,48.87816],[13.6716,48.88007],[13.6552,48.89347],[13.63802,48.9257],[13.62234,48.939],[13.59073,48.95277],[13.58548,48.96851],[13.50707,48.96909],[13.50826,48.94217],[13.49562,48.94134],[13.45949,48.96261],[13.44306,48.9658],[13.4029,48.98734],[13.40927,49.00307],[13.39715,49.05101],[13.37588,49.0584],[13.34467,49.08847],[13.28919,49.11863],[13.23636,49.1136],[13.20565,49.12213],[13.17032,49.14404],[13.17688,49.16423],[13.12934,49.19686],[13.10997,49.20318],[13.11412,49.21843],[13.08605,49.22941],[13.08076,49.24742],[13.06009,49.2506],[13.05519,49.26401],[13.0339,49.2639],[13.02566,49.27892],[13.02911,49.30435],[13.00389,49.31227],[12.9726,49.33389],[12.94997,49.34287],[12.88024,49.35052],[12.87682,49.33238],[12.84793,49.34431],[12.80254,49.34157],[12.77881,49.34808],[12.78234,49.35924],[12.75809,49.37519],[12.75763,49.39476],[12.70872,49.42468],[12.6792,49.42625],[12.65589,49.43455],[12.65798,49.45051],[12.6397,49.50059],[12.64425,49.52304],[12.5885,49.53854],[12.57106,49.56975],[12.57708,49.5863],[12.54599,49.62134],[12.52817,49.61818],[12.51753,49.6445],[12.52985,49.66625],[12.52164,49.68676],[12.44289,49.7037],[12.42571,49.73047],[12.41279,49.73252],[12.40474,49.7628],[12.46828,49.78665],[12.46422,49.81022],[12.47295,49.83359],[12.49801,49.83758],[12.52187,49.88173],[12.54967,49.90109],[12.5385,49.92482],[12.47841,49.93567],[12.47048,49.94903],[12.49386,49.96976],[12.46067,49.99487],[12.44074,49.98639],[12.43122,50.00262],[12.4019,50.00525],[12.36753,50.01744],[12.31094,50.05554],[12.27929,50.05516],[12.26111,50.06469],[12.26664,50.07841],[12.22877,50.10231],[12.19963,50.11174],[12.1952,50.14304],[12.216,50.16818],[12.20126,50.18879],[12.15761,50.22715],[12.10892,50.23793],[12.09747,50.26239],[12.13994,50.27772],[12.12235,50.29165],[12.12556,50.30762],[12.1009,50.31803],[12.09242,50.3289],[12.06422,50.33304],[12.03216,50.33007],[12.00824,50.3457],[11.98228,50.34988],[11.98066,50.38783],[11.94565,50.41628],[11.91932,50.42473],[11.88542,50.41585],[11.86581,50.40067],[11.82427,50.38976],[11.79735,50.41732],[11.75603,50.4158],[11.72712,50.40044],[11.64949,50.39224],[11.6246,50.38687],[11.59431,50.4026],[11.56492,50.38717],[11.51985,50.37427],[11.51891,50.39567],[11.47874,50.40122],[11.48812,50.41584],[11.48157,50.43162],[11.45125,50.43103],[11.42063,50.44337],[11.42249,50.48903],[11.44095,50.49996],[11.42389,50.51606],[11.38762,50.51565],[11.36979,50.52324],[11.34699,50.51161],[11.32136,50.50857],[11.32314,50.49116],[11.25729,50.48182],[11.24513,50.4708],[11.2632,50.44289],[11.27087,50.3942],[11.28425,50.36031],[11.26623,50.352],[11.26144,50.31901],[11.27034,50.30675],[11.24755,50.26776],[11.19785,50.29186],[11.18371,50.2809],[11.14592,50.28496],[11.13175,50.30809],[11.1592,50.33039],[11.1153,50.36701],[11.08974,50.36589],[11.07357,50.35365],[11.04299,50.34472],[11.03265,50.3603],[10.99349,50.36547],[10.9825,50.35179],[10.93763,50.39191],[10.89885,50.38471],[10.87275,50.39679],[10.86184,50.38767],[10.83044,50.39262],[10.80425,50.37911],[10.78588,50.38538],[10.72877,50.34463],[10.7154,50.32118],[10.74185,50.31591],[10.77073,50.29267],[10.79421,50.29538],[10.80392,50.27975],[10.84636,50.27509],[10.85195,50.2516],[10.82405,50.23753],[10.80056,50.25144],[10.76963,50.24084],[10.72624,50.24089],[10.73122,50.21265],[10.71665,50.20482],[10.69575,50.2118],[10.68671,50.22591],[10.66367,50.22154],[10.61205,50.22414],[10.59348,50.26955],[10.60532,50.29354],[10.59232,50.31137],[10.60055,50.33369],[10.56179,50.3371],[10.54441,50.36451],[10.52363,50.35476],[10.46366,50.37601],[10.4495,50.40305],[10.42374,50.39253],[10.38774,50.39823],[10.40094,50.41903],[10.37071,50.43176],[10.33058,50.49428],[10.30657,50.49208],[10.25622,50.51281],[10.23185,50.51322],[10.22164,50.53872],[10.20387,50.5547],[10.15957,50.54979],[10.14037,50.54285],[10.10709,50.56373],[10.08984,50.54481],[10.04134,50.51647],[10.04119,50.49519],[10.01831,50.46646],[9.99746,50.46099],[9.98998,50.44712],[9.91902,50.41055],[9.8831,50.39889],[9.86005,50.39747],[9.81352,50.41296],[9.80747,50.42255],[9.75106,50.41356],[9.75929,50.40242],[9.74331,50.36217],[9.74588,50.31041],[9.70342,50.28075],[9.6524,50.26967],[9.63582,50.23523],[9.60441,50.2219],[9.57632,50.23239],[9.54203,50.22434],[9.53349,50.23449],[9.50151,50.23837],[9.49477,50.22667],[9.51558,50.19527],[9.49811,50.17554],[9.52815,50.16814],[9.50757,50.14556],[9.51926,50.11404],[9.51268,50.09943],[9.43594,50.08503],[9.41311,50.08406],[9.39446,50.09749],[9.37362,50.13096],[9.34158,50.13128],[9.32743,50.14106],[9.30761,50.13341],[9.2859,50.14167],[9.25256,50.13948],[9.23598,50.14628],[9.18327,50.1379],[9.19159,50.12749],[9.15641,50.11195],[9.12152,50.12606],[9.08931,50.1168],[9.01826,50.1116],[8.99739,50.09158],[8.99928,50.06937],[8.97661,50.05221],[8.98537,50.04173],[9.01231,50.04595],[9.03134,50.03957],[9.03554,50.00184],[9.01571,49.98902],[9.02637,49.95509],[9.03843,49.87622],[9.03334,49.86647],[9.07699,49.81822],[9.09088,49.79066],[9.10814,49.79798],[9.13448,49.78225],[9.11336,49.77373],[9.10691,49.75866],[9.15081,49.74285],[9.12813,49.70299],[9.09421,49.69587],[9.08886,49.66902],[9.10342,49.66043],[9.10201,49.64221],[9.06735,49.62117],[9.10301,49.57746],[9.12051,49.57356],[9.15889,49.57959],[9.21365,49.57654],[9.2387,49.58129],[9.26458,49.60682],[9.28502,49.6148],[9.27831,49.63762],[9.31361,49.65371],[9.3369,49.6443],[9.36394,49.65534],[9.38357,49.64283],[9.406,49.64531],[9.4195,49.65885],[9.39789,49.67066],[9.42009,49.69019],[9.42031,49.70663],[9.39996,49.72884],[9.38016,49.72612],[9.38253,49.70746],[9.35321,49.70744],[9.34171,49.7342],[9.32303,49.73112],[9.31803,49.76886],[9.35104,49.76901],[9.36891,49.77815],[9.39155,49.77012],[9.42028,49.78851],[9.43485,49.78738],[9.45826,49.76952],[9.4791,49.78689],[9.50146,49.78877],[9.51005,49.77009],[9.55839,49.7651],[9.58108,49.77803],[9.6197,49.78318],[9.64432,49.77861],[9.65187,49.76637],[9.63656,49.73165],[9.64087,49.72034],[9.62545,49.70374],[9.6535,49.68714],[9.67615,49.69335],[9.67719,49.7162],[9.70972,49.72706],[9.71929,49.70194],[9.73942,49.68819],[9.75295,49.71012],[9.7716,49.72011],[9.79651,49.72071],[9.8318,49.7038],[9.82236,49.66471],[9.83675,49.64533],[9.85548,49.64151],[9.86805,49.61117],[9.84105,49.59514],[9.8485,49.57771],[9.81023,49.55732],[9.85931,49.54604],[9.86455,49.56788],[9.89879,49.58835],[9.89906,49.56108],[9.92498,49.56006],[9.92705,49.53608],[9.91374,49.49325],[9.92656,49.48484],[10.02026,49.48665],[10.02818,49.50399],[10.05718,49.51932],[10.04002,49.52901],[10.08372,49.54356],[10.08415,49.51176],[10.12132,49.51105],[10.09999,49.49173],[10.12225,49.46391],[10.09474,49.4479],[10.13371,49.43715],[10.15677,49.39074],[10.12169,49.38786],[10.10394,49.34697],[10.12133,49.32496],[10.14525,49.3165],[10.1339,49.29607],[10.15391,49.28474],[10.12601,49.2559],[10.12746,49.22331],[10.1424,49.19544],[10.20665,49.15909],[10.22814,49.15989],[10.24802,49.14928],[10.25275,49.12991],[10.23029,49.11897],[10.22278,49.09786],[10.2506,49.09282],[10.24554,49.07434],[10.26003,49.06411],[10.25576,49.04475],[10.29401,49.04278],[10.32048,49.02572],[10.35026,49.02842],[10.35216,49.006],[10.3819,48.99905],[10.44333,48.94582],[10.45711,48.92055],[10.44377,48.90845],[10.4528,48.85186],[10.42917,48.84494],[10.44799,48.83191],[10.44702,48.81261],[10.42091,48.79546],[10.42984,48.78821],[10.41822,48.76293],[10.42257,48.74959],[10.48164,48.71259],[10.48099,48.68142],[10.44917,48.66516],[10.41934,48.66393],[10.42692,48.68685],[10.40887,48.69879],[10.39203,48.68716],[10.38942,48.6672],[10.35102,48.65468],[10.34742,48.67911],[10.3175,48.68293],[10.26871,48.70355],[10.27304,48.68589],[10.2546,48.6662],[10.29781,48.62419],[10.32309,48.60913],[10.29711,48.60381],[10.29311,48.58977],[10.30912,48.57886],[10.31418,48.55629],[10.30085,48.54507],[10.29627,48.51694],[10.26466,48.5198],[10.24717,48.51355],[10.23544,48.48896],[10.21792,48.48847],[10.1801,48.47552],[10.17185,48.45779],[10.1339,48.45487],[10.10352,48.47255],[10.06401,48.45639],[10.03913,48.45969],[10.01528,48.40435],[9.98987,48.39371],[9.96728,48.3744],[9.9996,48.36323],[10.0104,48.34239],[10.04308,48.30044],[10.06582,48.28182],[10.06903,48.25376],[10.06072,48.24009],[10.08371,48.20964],[10.08572,48.18219],[10.10707,48.13214],[10.13625,48.11144],[10.13408,48.07948],[10.1439,48.05901],[10.12711,48.03271],[10.13433,48.0176],[10.11955,48.0035],[10.11495,47.97626],[10.08752,47.96841],[10.0858,47.95372],[10.11101,47.93488],[10.1017,47.90563],[10.10208,47.86548],[10.10987,47.84021],[10.13233,47.81468],[10.09626,47.80466],[10.06468,47.78589],[10.08251,47.77118],[10.11905,47.75959],[10.11643,47.71932],[10.13944,47.70327],[10.13006,47.67727],[10.08136,47.65489],[10.05931,47.68063],[10.0019,47.682],[9.95952,47.6523],[9.89328,47.66323],[9.85665,47.67781],[9.83061,47.67138],[9.82855,47.6579],[9.80167,47.65086],[9.79526,47.63572],[9.75488,47.61401],[9.70629,47.60181],[9.67144,47.61137],[9.60208,47.58434]],[[10.45446,47.55574],[10.42957,47.57712],[10.46903,47.58699],[10.47307,47.57047],[10.45446,47.55574]]]},"properties":{"id":"DE-BY","name":"Bayern"}}
]}