{"type":"FeatureCollection", "features": [
{"type":"Feature","geometry":{"type":"Polygon","coordinates":[[[9.10301,49.57746],[9.06735,49.62117],[9.10201,49.64221],[9.10342,49.66043],[9.08886,49.66902],[9.09421,49.69587],[9.12813,49.70299],[9.15081,49.74285],[9.10691,49.75866],[9.11336,49.77373],[9.13448,49.78225],[9.10814,49.79798],[9.09088,49.79066],[9.07699,49.81822],[9.03334,49.86647],[9.03843,49.87622],[9.02637,49.95509],[9.01571,49.98902],[9.03554,50.00184],[9.03134,50.03957],[9.01231,50.04595],[8.98537,50.04173],[8.97661,50.05221],[8.99928,50.06937],[8.99739,50.09158],[9.01826,50.1116],[9.08931,50.1168],[9.12152,50.12606],[9.15641,50.11195],[9.19159,50.12749],[9.18327,50.1379],[9.23598,50.14628],[9.25256,50.13948],[9.2859,50.14167],[9.30761,50.13341],[9.32743,50.14106],[9.34158,50.13128],[9.37362,50.13096],[9.39446,50.09749],[9.41311,50.08406],[9.43594,50.08503],[9.51268,50.09943],[9.51926,50.11404],[9.50757,50.14556],[9.52815,50.16814],[9.49811,50.17554],[9.51558,50.19527],[9.49477,50.22667],[9.50151,50.23837],[9.53349,50.23449],[9.54203,50.22434],[9.57632,50.23239],[9.60441,50.2219],[9.63582,50.23523],[9.6524,50.26967],[9.70342,50.28075],[9.74588,50.31041],[9.74331,50.36217],[9.75929,50.40242],[9.75106,50.41356],[9.80747,50.42255],[9.81352,50.41296],[9.86005,50.39747],[9.8831,50.39889],[9.91902,50.41055],[9.98998,50.44712],[9.99746,50.46099],[10.01831,50.46646],[10.04119,50.49519],[10.04134,50.51647],[10.03969,50.53259],[10.05692,50.55468],[10.04636,50.57125],[10.0488,50.59862],[10.03719,50.61293],[10.08296,50.63371],[10.06999,50.65588],[10.04893,50.67393],[10.00199,50.6766],[9.94971,50.65587],[9.9689,50.64126],[9.94593,50.62683],[9.9221,50.63451],[9.87855,50.63478],[9.87955,50.66645],[9.89468,50.68372],[9.92026,50.69782],[9.91184,50.7087],[9.93516,50.72412],[9.93961,50.75592],[9.95213,50.77329],[9.94407,50.79421],[9.95225,50.82137],[9.97682,50.83327],[9.99465,50.82576],[10.02681,50.84128],[10.02428,50.86723],[10.05598,50.87977],[10.02467,50.91447],[10.00366,50.92155],[9.98449,50.90699],[9.95714,50.9226],[9.95009,50.94225],[9.99101,50.94357],[10.05362,50.93978],[10.04095,50.96753],[10.01947,50.98071],[10.02767,51.00646],[10.05364,51.01315],[10.09427,51.00736],[10.12084,51.0117],[10.14688,50.99382],[10.19079,50.99907],[10.21519,51.02642],[10.18157,51.04801],[10.14647,51.05507],[10.15519,51.07042],[10.14469,51.08481],[10.17549,51.10691],[10.13082,51.13519],[10.16874,51.15327],[10.19996,51.11297],[10.20935,51.11817],[10.20732,51.16492],[10.22985,51.17491],[10.22019,51.18574],[10.17749,51.2096],[10.14979,51.20619],[10.14284,51.21722],[10.11317,51.21521],[10.09028,51.22667],[10.06709,51.22779],[10.0676,51.2489],[10.04655,51.2645],[10.05992,51.27587],[10.00433,51.28698],[9.98345,51.28334],[9.96985,51.30027],[9.93936,51.30741],[9.94917,51.31821],[9.92994,51.33997],[9.92834,51.3753],[9.93111,51.39273],[9.89859,51.41741],[9.8561,51.41319],[9.85054,51.40138],[9.80351,51.4104],[9.80145,51.38691],[9.7566,51.38228],[9.73846,51.36921],[9.70214,51.36457],[9.74543,51.31898],[9.7682,51.30673],[9.7323,51.29523],[9.70866,51.30385],[9.64566,51.31664],[9.63337,51.32585],[9.60443,51.32556],[9.58166,51.3422],[9.56802,51.34],[9.54844,51.35896],[9.57935,51.40177],[9.59408,51.39799],[9.64358,51.41826],[9.62762,51.44421],[9.64297,51.466],[9.60965,51.4911],[9.58611,51.51654],[9.61883,51.5301],[9.61432,51.5477],[9.64776,51.55251],[9.6252,51.57367],[9.64488,51.58224],[9.684,51.56653],[9.69095,51.57632],[9.63784,51.6088],[9.63662,51.62342],[9.60964,51.62958],[9.56523,51.62539],[9.54363,51.63987],[9.52394,51.62639],[9.49193,51.63472],[9.49461,51.65736],[9.44046,51.65039],[9.42667,51.63081],[9.37193,51.62557],[9.3371,51.6147],[9.37065,51.59406],[9.31108,51.53735],[9.30832,51.51264],[9.28688,51.51548],[9.26433,51.49791],[9.24209,51.49768],[9.21664,51.48117],[9.21647,51.45959],[9.1851,51.46633],[9.1493,51.44202],[9.10259,51.4432],[9.07719,51.46487],[9.09233,51.49439],[9.07652,51.50348],[9.03929,51.50192],[9.01765,51.51824],[8.91333,51.49155],[8.89038,51.48193],[8.91936,51.44913],[8.91879,51.43029],[8.94811,51.42822],[8.9395,51.3895],[8.88958,51.39272],[8.85402,51.37714],[8.80399,51.3908],[8.73285,51.37242],[8.70054,51.37738],[8.67745,51.3718],[8.65365,51.33979],[8.63779,51.34361],[8.60505,51.32369],[8.58597,51.29824],[8.55635,51.27749],[8.57822,51.26748],[8.59356,51.2475],[8.62834,51.2605],[8.722,51.27374],[8.73659,51.26222],[8.7276,51.2501],[8.7417,51.21842],[8.76819,51.20887],[8.7495,51.19773],[8.75821,51.17718],[8.69434,51.13638],[8.69053,51.10916],[8.65663,51.0949],[8.60146,51.10203],[8.55102,51.10276],[8.50173,51.07947],[8.52757,51.06289],[8.5166,51.04322],[8.53578,51.02216],[8.50141,50.99845],[8.49576,50.9881],[8.45967,50.96665],[8.46228,50.94969],[8.44932,50.94108],[8.45644,50.91653],[8.42673,50.91252],[8.38803,50.89193],[8.38558,50.87579],[8.3692,50.8646],[8.30547,50.86112],[8.2919,50.87716],[8.26967,50.88188],[8.23131,50.85064],[8.17392,50.81733],[8.16581,50.80348],[8.12551,50.78836],[8.13564,50.76722],[8.15183,50.75985],[8.16618,50.73248],[8.14261,50.69545],[8.12622,50.69263],[8.12552,50.68284],[8.11009,50.65725],[8.14088,50.63023],[8.12796,50.60772],[8.15216,50.59367],[8.13219,50.55796],[8.10536,50.53414],[8.07052,50.538],[8.04935,50.5528],[8.02829,50.5445],[7.98294,50.51146],[7.98767,50.47273],[8.01077,50.45269],[7.99063,50.44394],[7.98124,50.418],[7.99074,50.39955],[8.02105,50.39875],[8.0203,50.38614],[8.06589,50.36722],[8.08221,50.33076],[8.10716,50.32157],[8.12191,50.27723],[8.10679,50.26091],[8.07209,50.27315],[8.03589,50.27119],[8.02559,50.26174],[8.05891,50.23441],[8.03287,50.22082],[8.00106,50.22877],[7.95305,50.2204],[7.9474,50.21007],[7.9208,50.20796],[7.91022,50.19349],[7.88283,50.18132],[7.89238,50.1618],[7.93294,50.14388],[7.90322,50.12155],[7.88472,50.11438],[7.84492,50.1235],[7.83133,50.0995],[7.83719,50.08413],[7.80346,50.08458],[7.77249,50.05847],[7.82936,50.02194],[7.85789,50.00713],[7.86606,49.98045],[7.88726,49.97184],[7.9674,49.97777],[8.03636,50.00231],[8.07957,50.0069],[8.12845,50.02398],[8.18095,50.03521],[8.24456,50.02763],[8.32234,49.97359],[8.34096,49.95108],[8.35344,49.92002],[8.34356,49.89287],[8.34652,49.87482],[8.37456,49.86162],[8.3851,49.84822],[8.37845,49.82482],[8.40608,49.79657],[8.4163,49.77387],[8.4292,49.76645],[8.46955,49.76918],[8.47863,49.75823],[8.43596,49.72099],[8.38152,49.70704],[8.35727,49.69214],[8.35649,49.67799],[8.38199,49.62728],[8.40905,49.60504],[8.42244,49.58339],[8.46428,49.58953],[8.49503,49.573],[8.52626,49.548],[8.5324,49.53636],[8.56,49.51746],[8.5913,49.52128],[8.6213,49.54501],[8.59389,49.61095],[8.67793,49.62595],[8.68431,49.57022],[8.70701,49.53635],[8.72461,49.52589],[8.7642,49.5152],[8.79179,49.51427],[8.81696,49.50579],[8.83386,49.49068],[8.8485,49.50217],[8.88266,49.5061],[8.89935,49.48455],[8.8765,49.46669],[8.85193,49.48359],[8.8266,49.46935],[8.83461,49.45038],[8.8305,49.42323],[8.80659,49.4192],[8.85464,49.39663],[8.89239,49.42091],[8.92745,49.44914],[8.95035,49.45499],[8.93188,49.47064],[8.9635,49.50148],[8.98758,49.50569],[9.01424,49.49806],[9.04076,49.49907],[9.04995,49.51937],[9.06495,49.52961],[9.12646,49.52161],[9.11377,49.53463],[9.08745,49.54493],[9.10301,49.57746]]]},"properties":{"id":"DE-HE","name":"Hessen"}}
]}