{"type":"FeatureCollection", "features": [
{"type":"Feature","geometry":{"type":"Polygon","coordinates":[[[10.30795,53.4332],[10.29784,53.45159],[10.26929,53.46411],[10.26433,53.47514],[10.23837,53.48326],[10.21861,53.49906],[10.2106,53.52005],[10.18971,53.51263],[10.16464,53.51994],[10.15115,53.54502],[10.15256,53.5779],[10.19576,53.58471],[10.18895,53.61301],[10.21732,53.62612],[10.19606,53.6547],[10.14483,53.67975],[10.15752,53.70503],[10.19164,53.7229],[10.1615,53.73336],[10.11593,53.71578],[10.08184,53.72042],[10.06566,53.68899],[10.04078,53.68199],[9.9987,53.68147],[9.99052,53.6509],[9.96545,53.64882],[9.92081,53.65547],[9.90537,53.65219],[9.89449,53.62984],[9.83671,53.58753],[9.81616,53.58622],[9.77063,53.61623],[9.73696,53.57739],[9.7301,53.55758],[9.77439,53.55432],[9.76544,53.54111],[9.77626,53.52507],[9.76379,53.50811],[9.80243,53.49325],[9.7998,53.46964],[9.86042,53.43806],[9.90441,53.45679],[9.92149,53.43655],[9.94921,53.43095],[9.98443,53.41541],[10.02927,53.43516],[10.05181,53.46392],[10.07926,53.45334],[10.10874,53.42667],[10.1364,53.42223],[10.17569,53.39658],[10.22376,53.39527],[10.24379,53.39957],[10.26004,53.41852],[10.30795,53.4332]]]},"properties":{"id":"DE-HH","name":"Hamburg"}}
]}