{"type":"FeatureCollection", "features": [
{"type":"Feature","geometry":{"type":"MultiPolygon","coordinates":[[[[8.50461,53.22892],[8.48174,53.22645],[8.50471,53.20079],[8.53595,53.18653],[8.6236,53.16321],[8.63107,53.13818],[8.65768,53.11849],[8.67408,53.08669],[8.70915,53.07591],[8.7098,53.04602],[8.73149,53.03493],[8.7783,53.03967],[8.82201,53.02127],[8.88458,53.02325],[8.91583,53.01102],[8.96679,53.03685],[8.97338,53.05108],[8.96358,53.07174],[8.95939,53.11017],[8.98419,53.12607],[8.95663,53.14724],[8.93677,53.15117],[8.91214,53.13262],[8.87438,53.13378],[8.84186,53.14823],[8.83983,53.15742],[8.74125,53.16464],[8.72865,53.18022],[8.69752,53.1831],[8.66383,53.17624],[8.62799,53.19837],[8.59325,53.18363],[8.57848,53.21727],[8.5537,53.20781],[8.50461,53.22892]]],[[[8.5549,53.52513],[8.55268,53.51618],[8.50349,53.49297],[8.49265,53.47242],[8.57376,53.48864],[8.61953,53.48929],[8.65213,53.51602],[8.63978,53.52529],[8.64411,53.5492],[8.61801,53.57872],[8.64272,53.59256],[8.6233,53.60533],[8.59228,53.59293],[8.52417,53.60669],[8.4832,53.6005],[8.50357,53.57238],[8.55638,53.53492],[8.5549,53.52513]]]]},"properties":{"id":"DE-HB","name":"Bremen"}}
]}