{"type":"FeatureCollection", "features": [
{"type":"Feature","geometry":{"type":"MultiPolygon","coordinates":[[[[11.47301,54.02445],[11.44226,54.02019],[11.37685,53.99643],[11.37662,53.97871],[11.42845,53.96166],[11.45596,53.95753],[11.48895,53.99901],[11.49415,54.02171],[11.47301,54.02445]]],[[[13.79756,54.17402],[13.7604,54.16768],[13.7493,54.15847],[13.7587,54.13426],[13.77483,54.12011],[13.80517,54.11018],[13.81297,54.09877],[13.79057,54.04868],[13.7643,54.02998],[13.76992,54.01918],[13.80129,54.01874],[13.82086,54.03752],[13.85894,54.04811],[13.86597,54.03304],[13.85335,54.00438],[13.89868,54.01207],[13.92407,54.0358],[13.91722,54.06052],[13.96887,54.05944],[13.99769,54.0415],[14.00436,54.01066],[14.03271,54.01711],[14.04758,53.99744],[14.04887,53.98065],[14.03391,53.94093],[13.99521,53.96281],[13.96352,53.95704],[13.96503,53.9898],[13.91215,53.99132],[13.89773,53.96256],[13.92269,53.95063],[13.93826,53.9138],[13.92147,53.88797],[13.89342,53.87717],[13.83414,53.87101],[13.82179,53.85703],[13.86328,53.84269],[13.89824,53.83991],[13.91784,53.84522],[13.92878,53.86206],[13.99099,53.84845],[14.01971,53.8693],[14.19813,53.8711],[14.21537,53.88118],[14.20765,53.91587],[14.22632,53.92864],[14.18179,53.94842],[14.14219,53.97688],[14.04999,54.02941],[14.01622,54.05389],[13.96728,54.07033],[13.93826,54.07474],[13.89916,54.08874],[13.85781,54.11075],[13.83325,54.13194],[13.81245,54.16943],[13.79756,54.17402]]],[[[13.18361,54.49396],[13.14348,54.47798],[13.12041,54.44435],[13.18168,54.45611],[13.18738,54.46561],[13.22689,54.47385],[13.18361,54.49396]]],[[[13.14679,54.60335],[13.11877,54.60305],[13.09797,54.59062],[13.09843,54.55864],[13.08561,54.53803],[13.11675,54.53766],[13.11013,54.57266],[13.14679,54.60335]]],[[[14.41238,53.32959],[14.39032,53.35371],[14.39531,53.36936],[14.37328,53.40895],[14.37128,53.45644],[14.35803,53.45731],[14.35065,53.49601],[14.32688,53.50381],[14.31585,53.53693],[14.30256,53.5534],[14.31396,53.56523],[14.31695,53.61807],[14.28385,53.63444],[14.28464,53.6588],[14.27167,53.66778],[14.28368,53.6825],[14.26681,53.6987],[14.27353,53.74435],[14.26695,53.75349],[14.2836,53.7723],[14.27042,53.78995],[14.17852,53.8068],[14.07311,53.8116],[13.98686,53.81221],[13.92031,53.82567],[13.8896,53.82719],[13.85134,53.84506],[13.82246,53.8477],[13.81863,53.85922],[13.83374,53.87898],[13.84722,53.87795],[13.86475,53.90046],[13.90329,53.911],[13.91411,53.92186],[13.89415,53.94269],[13.86979,53.95239],[13.83382,53.98443],[13.79554,53.99581],[13.76041,54.0154],[13.7614,54.03565],[13.78538,54.05085],[13.77381,54.0598],[13.79534,54.07755],[13.80875,54.10045],[13.78672,54.11001],[13.75157,54.13479],[13.69739,54.14892],[13.69579,54.17177],[13.62348,54.13966],[13.57597,54.13181],[13.52915,54.13106],[13.47703,54.11879],[13.4894,54.08385],[13.46851,54.0871],[13.43919,54.11227],[13.43997,54.12302],[13.40801,54.15316],[13.3998,54.16964],[13.379,54.17711],[13.347,54.16529],[13.30634,54.20432],[13.28379,54.23629],[13.22829,54.23971],[13.1666,54.27894],[13.23984,54.2663],[13.26817,54.25373],[13.28743,54.25924],[13.32657,54.25491],[13.31523,54.24188],[13.3993,54.22683],[13.42472,54.23855],[13.40155,54.26571],[13.37236,54.27562],[13.41086,54.28618],[13.4196,54.30279],[13.46191,54.31641],[13.46694,54.32642],[13.50707,54.34421],[13.55076,54.33969],[13.57532,54.353],[13.60506,54.34257],[13.67481,54.35095],[13.67223,54.33031],[13.70335,54.32046],[13.65662,54.30403],[13.65513,54.28847],[13.71541,54.29409],[13.74753,54.34516],[13.72118,54.35914],[13.70682,54.37777],[13.67294,54.4012],[13.61337,54.40337],[13.57812,54.4391],[13.57009,54.45987],[13.578,54.47961],[13.59759,54.47636],[13.60941,54.49886],[13.6694,54.52107],[13.68164,54.54262],[13.67981,54.56249],[13.63486,54.58547],[13.58826,54.5844],[13.46039,54.57063],[13.4073,54.58736],[13.38372,54.61199],[13.37724,54.63556],[13.39108,54.65132],[13.42854,54.66015],[13.4291,54.68488],[13.37826,54.68399],[13.33606,54.67544],[13.28762,54.6738],[13.25061,54.66046],[13.21823,54.63577],[13.22574,54.61231],[13.19575,54.58261],[13.16725,54.57373],[13.17589,54.56091],[13.2141,54.58552],[13.23794,54.59419],[13.2271,54.62515],[13.26393,54.64315],[13.2875,54.62531],[13.25708,54.59008],[13.24315,54.56151],[13.27784,54.56441],[13.3324,54.58194],[13.32758,54.59341],[13.37108,54.61428],[13.39644,54.57258],[13.42479,54.56888],[13.44613,54.5516],[13.50218,54.54829],[13.51273,54.52081],[13.50007,54.49256],[13.50331,54.47933],[13.5481,54.47491],[13.55742,54.44005],[13.54125,54.41933],[13.47625,54.42458],[13.50652,54.43836],[13.47146,54.45776],[13.48126,54.48381],[13.44838,54.47438],[13.44167,54.48734],[13.41258,54.49377],[13.41458,54.51987],[13.38796,54.53998],[13.37152,54.52221],[13.35071,54.54733],[13.36145,54.56925],[13.35502,54.58103],[13.29723,54.55243],[13.29527,54.53682],[13.25626,54.55166],[13.22911,54.55375],[13.17439,54.54571],[13.15828,54.53769],[13.16214,54.51419],[13.20049,54.50375],[13.23138,54.5109],[13.22859,54.48544],[13.25625,54.48598],[13.23566,54.46221],[13.17059,54.45373],[13.14942,54.42813],[13.19169,54.42353],[13.21186,54.42994],[13.23809,54.38633],[13.23469,54.36945],[13.12993,54.37209],[13.11523,54.3441],[13.07984,54.35295],[13.09384,54.36578],[13.0729,54.38305],[13.04846,54.38013],[13.02567,54.39651],[13.02022,54.41236],[13.02801,54.43692],[12.95381,54.41659],[12.92637,54.41396],[12.89772,54.40167],[12.88342,54.36962],[12.84631,54.35108],[12.80906,54.35799],[12.785,54.37947],[12.7689,54.37161],[12.71954,54.37311],[12.70749,54.41188],[12.66022,54.39858],[12.67137,54.39095],[12.59882,54.36181],[12.55468,54.37251],[12.53433,54.36518],[12.5357,54.33843],[12.47309,54.32961],[12.47873,54.30393],[12.42937,54.29356],[12.42704,54.374],[12.4573,54.38145],[12.49564,54.38239],[12.51772,54.3727],[12.57585,54.40223],[12.61065,54.41091],[12.63808,54.42551],[12.65315,54.41051],[12.69316,54.43225],[12.72103,54.43237],[12.74047,54.41511],[12.8124,54.41732],[12.83186,54.42306],[12.87495,54.41371],[12.92695,54.42796],[12.92099,54.44509],[12.81936,54.44007],[12.67658,54.44218],[12.56092,54.45473],[12.54345,54.45968],[12.5102,54.48249],[12.48092,54.44697],[12.46908,54.4235],[12.4363,54.3917],[12.40593,54.37694],[12.36589,54.32597],[12.34087,54.30055],[12.30653,54.28215],[12.22338,54.25433],[12.1749,54.22911],[12.1513,54.20387],[12.10687,54.17834],[12.01136,54.17834],[11.88798,54.15103],[11.84977,54.145],[11.79759,54.1468],[11.76139,54.1545],[11.68294,54.15327],[11.60838,54.10703],[11.55252,54.09269],[11.53454,54.07402],[11.53699,54.05732],[11.57684,54.08083],[11.58749,54.09314],[11.61472,54.10158],[11.62624,54.09016],[11.6104,54.06814],[11.58261,54.06369],[11.57721,54.03607],[11.50978,54.01191],[11.49199,53.99002],[11.4989,53.9818],[11.47978,53.96164],[11.47776,53.9345],[11.45817,53.91667],[11.43689,53.91106],[11.40361,53.92149],[11.40684,53.9352],[11.36504,53.93514],[11.33954,53.95604],[11.31483,53.94207],[11.2732,53.93126],[11.24555,53.94279],[11.24589,53.97316],[11.2072,53.98838],[11.17998,54.01517],[11.14446,54.00964],[11.09848,54.01398],[11.04224,54.00664],[10.98463,53.98863],[10.93351,53.96493],[10.90366,53.95682],[10.90946,53.94627],[10.8951,53.92455],[10.93933,53.91933],[10.95897,53.91026],[10.91102,53.89795],[10.91129,53.91523],[10.87472,53.91454],[10.81893,53.89353],[10.8024,53.87708],[10.77105,53.87319],[10.74771,53.85151],[10.74785,53.83336],[10.76159,53.8226],[10.77235,53.79717],[10.75798,53.76359],[10.77192,53.74942],[10.80592,53.73921],[10.81088,53.72007],[10.85094,53.70012],[10.88642,53.70566],[10.92214,53.69947],[10.94177,53.68454],[10.93863,53.66582],[10.95075,53.64583],[10.92956,53.62871],[10.9238,53.58419],[10.90948,53.57145],[10.85014,53.56527],[10.82326,53.57518],[10.83191,53.54258],[10.81064,53.51619],[10.78643,53.51046],[10.77778,53.49518],[10.72074,53.47607],[10.70166,53.47826],[10.69297,53.45514],[10.65204,53.46148],[10.63231,53.4548],[10.61837,53.42537],[10.6169,53.38457],[10.59505,53.36393],[10.6307,53.37077],[10.70069,53.37002],[10.72692,53.35782],[10.73809,53.34234],[10.76259,53.33632],[10.79326,53.31557],[10.83581,53.30497],[10.86751,53.3161],[10.91936,53.34842],[10.93401,53.33929],[10.988,53.33343],[11.0087,53.30064],[11.00946,53.28148],[11.02757,53.27894],[11.06226,53.23545],[11.09008,53.21426],[11.1367,53.19184],[11.19411,53.18119],[11.17796,53.15045],[11.18457,53.13642],[11.21264,53.14414],[11.2457,53.13642],[11.26573,53.12198],[11.29042,53.1169],[11.32472,53.1193],[11.39377,53.1103],[11.39563,53.14],[11.43867,53.13669],[11.46084,53.14023],[11.48408,53.12903],[11.53457,53.12532],[11.55596,53.13878],[11.55008,53.15107],[11.56893,53.17048],[11.55671,53.19424],[11.56155,53.21242],[11.58896,53.21584],[11.62924,53.24222],[11.69095,53.24176],[11.72753,53.23166],[11.72933,53.21715],[11.76907,53.22749],[11.82889,53.22866],[11.81667,53.25419],[11.86175,53.24822],[11.89274,53.27276],[11.95425,53.27381],[11.97386,53.29916],[12.01853,53.29959],[12.01461,53.33442],[12.05734,53.34934],[12.05137,53.36687],[12.07967,53.36697],[12.08208,53.3463],[12.13445,53.34843],[12.16856,53.33912],[12.19112,53.35395],[12.22944,53.35816],[12.24529,53.33301],[12.26462,53.325],[12.2913,53.32868],[12.39425,53.30181],[12.39183,53.28506],[12.42801,53.27499],[12.44531,53.24993],[12.5024,53.26217],[12.54991,53.26198],[12.60605,53.2444],[12.62842,53.25456],[12.66056,53.25441],[12.66618,53.23143],[12.72274,53.22167],[12.75806,53.22159],[12.74951,53.20633],[12.76438,53.18893],[12.84957,53.19971],[12.88011,53.17969],[12.90371,53.1936],[12.94887,53.19927],[12.97688,53.19737],[12.96151,53.17774],[12.97617,53.16307],[13.02004,53.17571],[13.04241,53.1965],[13.07309,53.20036],[13.08438,53.21306],[13.10656,53.21515],[13.10326,53.23554],[13.13298,53.23732],[13.15222,53.25111],[13.18191,53.25073],[13.20506,53.22055],[13.22939,53.21659],[13.25124,53.24739],[13.24786,53.25684],[13.2978,53.28089],[13.33708,53.27343],[13.36045,53.278],[13.38899,53.24274],[13.40336,53.2492],[13.43151,53.28455],[13.48306,53.2912],[13.50727,53.31623],[13.52353,53.32008],[13.51685,53.35209],[13.55637,53.37609],[13.55659,53.39156],[13.57362,53.40809],[13.61761,53.41301],[13.6405,53.44724],[13.7154,53.48226],[13.77894,53.47422],[13.80203,53.47803],[13.8271,53.49871],[13.77766,53.51371],[13.77638,53.53129],[13.79846,53.54569],[13.82388,53.52114],[13.87927,53.50414],[13.87559,53.47347],[13.91821,53.456],[13.90289,53.43203],[13.91805,53.42181],[13.94649,53.43081],[14.00122,53.43499],[14.0456,53.42943],[14.05058,53.41399],[14.10543,53.42243],[14.12184,53.44171],[14.13676,53.441],[14.17696,53.42287],[14.20591,53.42303],[14.22466,53.43425],[14.24179,53.42244],[14.24314,53.39232],[14.23106,53.36809],[14.20523,53.34229],[14.10965,53.28264],[14.09882,53.26167],[14.12479,53.26023],[14.16024,53.26781],[14.21106,53.25481],[14.26605,53.25959],[14.26219,53.2766],[14.30185,53.28622],[14.31657,53.31234],[14.34866,53.30997],[14.38154,53.32389],[14.41238,53.32959]]]]},"properties":{"id":"DE-MV","name":"Mecklenburg-Vorpommern"}}
]}