{"type":"FeatureCollection", "features": [
{"type":"Feature","geometry":{"type":"MultiPolygon","coordinates":[[[[6.79044,53.61091],[6.76006,53.61768],[6.64747,53.60468],[6.65697,53.58365],[6.69737,53.5654],[6.74101,53.57107],[6.72499,53.58446],[6.76092,53.59762],[6.78351,53.59656],[6.79044,53.61091]]],[[[6.90007,53.64782],[6.86553,53.63926],[6.88803,53.62571],[6.90007,53.64782]]],[[[7.07579,53.68702],[6.97764,53.6814],[6.88693,53.66408],[7.05164,53.67905],[7.07579,53.68702]]],[[[7.34695,53.72417],[7.31949,53.72703],[7.23451,53.72243],[7.18715,53.7228],[7.14343,53.71116],[7.14204,53.70061],[7.19378,53.6991],[7.21546,53.70359],[7.27024,53.70369],[7.32533,53.7126],[7.34695,53.72417]]],[[[7.43001,53.72418],[7.39386,53.73614],[7.39008,53.72019],[7.43001,53.72418]]],[[[7.57425,53.75922],[7.49089,53.75659],[7.46926,53.74611],[7.46055,53.7248],[7.50541,53.72368],[7.51163,53.74326],[7.56908,53.74809],[7.62555,53.74715],[7.62322,53.75774],[7.57425,53.75922]]],[[[7.7266,53.78184],[7.6834,53.77644],[7.66625,53.76342],[7.7379,53.76057],[7.8135,53.7749],[7.8134,53.78152],[7.7266,53.78184]]],[[[11.26573,53.12198],[11.2457,53.13642],[11.21264,53.14414],[11.18457,53.13642],[11.17796,53.15045],[11.19411,53.18119],[11.1367,53.19184],[11.09008,53.21426],[11.06226,53.23545],[11.02757,53.27894],[11.00946,53.28148],[11.0087,53.30064],[10.988,53.33343],[10.93401,53.33929],[10.91936,53.34842],[10.86751,53.3161],[10.83581,53.30497],[10.79326,53.31557],[10.76259,53.33632],[10.73809,53.34234],[10.72692,53.35782],[10.70069,53.37002],[10.6307,53.37077],[10.59505,53.36393],[10.50224,53.37354],[10.41928,53.40214],[10.37543,53.42483],[10.33077,53.42497],[10.30795,53.4332],[10.26004,53.41852],[10.24379,53.39957],[10.22376,53.39527],[10.17569,53.39658],[10.1364,53.42223],[10.10874,53.42667],[10.07926,53.45334],[10.05181,53.46392],[10.02927,53.43516],[9.98443,53.41541],[9.94921,53.43095],[9.92149,53.43655],[9.90441,53.45679],[9.86042,53.43806],[9.7998,53.46964],[9.80243,53.49325],[9.76379,53.50811],[9.77626,53.52507],[9.76544,53.54111],[9.77439,53.55432],[9.7301,53.55758],[9.67576,53.56469],[9.58786,53.59851],[9.55063,53.61601],[9.53683,53.63057],[9.5278,53.66294],[9.50218,53.69681],[9.43331,53.73198],[9.42259,53.74067],[9.36762,53.80859],[9.31952,53.85084],[9.28973,53.86335],[9.27512,53.85727],[9.19372,53.86581],[9.10177,53.86348],[9.05466,53.85298],[9.01851,53.83484],[8.97851,53.83996],[8.90616,53.82879],[8.8351,53.83351],[8.79888,53.83257],[8.74708,53.84897],[8.70225,53.87871],[8.66928,53.89167],[8.61491,53.88212],[8.57462,53.84342],[8.56606,53.84596],[8.54197,53.80714],[8.52854,53.76765],[8.48335,53.69478],[8.48395,53.65591],[8.52417,53.60669],[8.59228,53.59293],[8.6233,53.60533],[8.64272,53.59256],[8.61801,53.57872],[8.64411,53.5492],[8.63978,53.52529],[8.65213,53.51602],[8.61953,53.48929],[8.57376,53.48864],[8.49265,53.47242],[8.50349,53.49297],[8.55268,53.51618],[8.5549,53.52513],[8.55015,53.53802],[8.51198,53.5525],[8.46211,53.55289],[8.38447,53.57391],[8.34898,53.60618],[8.32666,53.61461],[8.2911,53.61292],[8.26069,53.59885],[8.24297,53.5824],[8.23083,53.52078],[8.26555,53.51854],[8.30007,53.52585],[8.31689,53.5146],[8.31456,53.45651],[8.29634,53.44157],[8.28047,53.41337],[8.2456,53.39831],[8.2108,53.4015],[8.15221,53.44798],[8.13615,53.45267],[8.09774,53.4461],[8.07556,53.46257],[8.06226,53.48253],[8.06234,53.50567],[8.09547,53.5022],[8.15433,53.51355],[8.17097,53.54047],[8.14236,53.57967],[8.14886,53.60183],[8.12335,53.59861],[8.11557,53.61455],[8.086,53.64226],[8.04469,53.64141],[8.0319,53.65774],[8.02337,53.69142],[8.03162,53.70574],[8.00873,53.71213],[7.91333,53.71784],[7.7878,53.70942],[7.76466,53.70184],[7.70384,53.70352],[7.58815,53.68023],[7.52711,53.6715],[7.47945,53.68328],[7.37653,53.6825],[7.35803,53.68682],[7.29633,53.6801],[7.24306,53.66854],[7.15622,53.63017],[7.14517,53.611],[7.11241,53.59482],[7.08725,53.57109],[7.13291,53.53451],[7.09327,53.52171],[7.07676,53.53274],[7.02901,53.53198],[7.04869,53.50807],[7.02557,53.47684],[7.01032,53.42408],[7.01273,53.40639],[7,53.35888],[7.01997,53.33902],[7.0605,53.33464],[7.17062,53.33545],[7.25946,53.32944],[7.24506,53.3183],[7.19112,53.3176],[7.2126,53.22819],[7.21736,53.19771],[7.19046,53.16176],[7.17894,53.13814],[7.18287,53.12171],[7.20279,53.11328],[7.19925,53.08102],[7.2128,53.01096],[7.18157,52.9413],[7.10466,52.86418],[7.08732,52.84993],[7.09269,52.8382],[7.07204,52.81087],[7.05558,52.64337],[7.04187,52.63268],[6.9758,52.64626],[6.93845,52.6379],[6.87311,52.65312],[6.81879,52.64771],[6.77743,52.65161],[6.74199,52.64532],[6.71429,52.62677],[6.72714,52.61505],[6.71871,52.58868],[6.76672,52.5635],[6.72618,52.56321],[6.71608,52.54857],[6.68087,52.55334],[6.70537,52.52026],[6.69772,52.48635],[6.7531,52.4638],[6.77463,52.45961],[6.85431,52.4596],[6.86186,52.45141],[6.94168,52.43549],[6.96238,52.44405],[6.97756,52.46548],[6.9918,52.46745],[7.01089,52.42907],[7.03583,52.40253],[7.0588,52.39933],[7.07219,52.37341],[7.07217,52.35227],[7.02669,52.2922],[7.04244,52.2561],[7.06587,52.24126],[7.10189,52.24349],[7.12125,52.26108],[7.15317,52.26651],[7.29789,52.26398],[7.31748,52.28027],[7.36155,52.28831],[7.38648,52.3093],[7.41601,52.31197],[7.43778,52.33336],[7.47941,52.34764],[7.52992,52.36988],[7.55424,52.36876],[7.57044,52.3786],[7.58276,52.40367],[7.60272,52.42103],[7.57097,52.43233],[7.57749,52.447],[7.60423,52.47509],[7.66743,52.45607],[7.68838,52.45367],[7.70234,52.43437],[7.71383,52.401],[7.72545,52.39989],[7.80709,52.37143],[7.84304,52.36903],[7.89177,52.38051],[7.94268,52.35936],[7.94856,52.33513],[7.98724,52.30358],[7.94957,52.30588],[7.93217,52.28799],[7.95647,52.27249],[7.92562,52.26281],[7.92655,52.22651],[7.90575,52.21408],[7.90811,52.18986],[7.93399,52.17692],[7.97433,52.17113],[8.00591,52.17604],[8.00205,52.15996],[8.0078,52.11533],[7.97177,52.11598],[7.95807,52.10524],[7.90174,52.09203],[7.88874,52.08349],[7.91692,52.05164],[7.9811,52.03551],[8.01926,52.0623],[8.0667,52.06812],[8.1035,52.06106],[8.15764,52.07615],[8.1951,52.07406],[8.20891,52.09677],[8.26673,52.13228],[8.31122,52.11833],[8.32392,52.12592],[8.38812,52.10803],[8.41063,52.11577],[8.41288,52.13761],[8.45353,52.15539],[8.48154,52.15989],[8.50789,52.18835],[8.46019,52.19595],[8.4493,52.20977],[8.46109,52.22911],[8.4588,52.25818],[8.46619,52.26761],[8.45875,52.29452],[8.46929,52.31339],[8.45157,52.33437],[8.44261,52.35901],[8.3913,52.38369],[8.31404,52.40573],[8.32204,52.42616],[8.30399,52.43431],[8.31137,52.45895],[8.35969,52.44403],[8.4001,52.45093],[8.43029,52.44773],[8.45429,52.46101],[8.45886,52.49167],[8.50885,52.51469],[8.55742,52.50073],[8.65255,52.53144],[8.67148,52.51739],[8.69865,52.50881],[8.69855,52.4867],[8.70932,52.47704],[8.70333,52.44319],[8.71707,52.42512],[8.7109,52.40822],[8.74609,52.38787],[8.78678,52.39871],[8.8551,52.38923],[8.9031,52.40458],[8.92686,52.40136],[8.97799,52.427],[8.99102,52.45265],[9.01209,52.45731],[9.02295,52.47726],[9.03829,52.4799],[9.05229,52.50011],[9.08769,52.4957],[9.13671,52.47555],[9.10292,52.45693],[9.09453,52.44282],[9.12377,52.42155],[9.1216,52.40166],[9.10208,52.38842],[9.08366,52.35479],[9.05918,52.34686],[9.02736,52.34561],[9.01891,52.33099],[8.99832,52.32621],[8.98528,52.29573],[8.96354,52.27903],[8.97487,52.26256],[9.03297,52.24953],[9.06989,52.22679],[9.04586,52.21079],[9.04535,52.18377],[9.01242,52.17791],[9.01779,52.13243],[9.05337,52.14823],[9.10704,52.13239],[9.14471,52.13491],[9.15934,52.11984],[9.13586,52.10584],[9.17609,52.08612],[9.18805,52.07235],[9.17443,52.06043],[9.17689,52.03372],[9.19735,52.01167],[9.19679,51.99692],[9.17469,51.98326],[9.19862,51.96235],[9.22415,51.97294],[9.25776,51.97721],[9.27758,51.96186],[9.27207,51.9323],[9.29427,51.91944],[9.33215,51.91696],[9.34515,51.89634],[9.33576,51.85605],[9.36287,51.86488],[9.4049,51.85559],[9.46028,51.85467],[9.43331,51.84067],[9.44052,51.82493],[9.42805,51.81428],[9.42977,51.78498],[9.37537,51.74361],[9.40036,51.70549],[9.38692,51.68982],[9.39569,51.67399],[9.37939,51.66593],[9.38631,51.64602],[9.44046,51.65039],[9.49461,51.65736],[9.49193,51.63472],[9.52394,51.62639],[9.54363,51.63987],[9.56523,51.62539],[9.60964,51.62958],[9.63662,51.62342],[9.63784,51.6088],[9.69095,51.57632],[9.684,51.56653],[9.64488,51.58224],[9.6252,51.57367],[9.64776,51.55251],[9.61432,51.5477],[9.61883,51.5301],[9.58611,51.51654],[9.60965,51.4911],[9.64297,51.466],[9.62762,51.44421],[9.64358,51.41826],[9.59408,51.39799],[9.57935,51.40177],[9.54844,51.35896],[9.56802,51.34],[9.58166,51.3422],[9.60443,51.32556],[9.63337,51.32585],[9.64566,51.31664],[9.70866,51.30385],[9.7323,51.29523],[9.7682,51.30673],[9.74543,51.31898],[9.70214,51.36457],[9.73846,51.36921],[9.7566,51.38228],[9.80145,51.38691],[9.80351,51.4104],[9.85054,51.40138],[9.8561,51.41319],[9.89859,51.41741],[9.93111,51.39273],[9.92834,51.3753],[9.96594,51.39548],[9.9874,51.39792],[10.05144,51.43032],[10.08011,51.43456],[10.11693,51.43023],[10.15215,51.44714],[10.17431,51.44626],[10.19019,51.48066],[10.20572,51.48724],[10.23317,51.47085],[10.24468,51.48374],[10.29967,51.4939],[10.30124,51.50756],[10.34228,51.5195],[10.36766,51.54304],[10.37862,51.56271],[10.37733,51.58871],[10.4063,51.5865],[10.4292,51.59253],[10.4957,51.57279],[10.50958,51.55679],[10.56027,51.55707],[10.61204,51.57923],[10.63653,51.56223],[10.6568,51.5583],[10.66631,51.5781],[10.63867,51.58412],[10.63821,51.61944],[10.70137,51.64219],[10.67051,51.66691],[10.66306,51.69121],[10.66831,51.70991],[10.64934,51.71855],[10.63171,51.73953],[10.6261,51.75902],[10.5912,51.76899],[10.58044,51.78275],[10.5742,51.81087],[10.57697,51.84299],[10.63233,51.87216],[10.64932,51.8891],[10.64821,51.90824],[10.61331,51.92152],[10.61326,51.93947],[10.64755,51.95362],[10.60623,51.97729],[10.58678,51.98273],[10.56123,52.00407],[10.63897,52.01533],[10.65549,52.02469],[10.64789,52.04172],[10.70394,52.04994],[10.82871,52.04775],[10.87894,52.0592],[10.96441,52.05664],[10.97065,52.08626],[10.94216,52.10309],[10.97688,52.10573],[11.01747,52.12826],[11.04634,52.13694],[11.06043,52.15347],[11.06034,52.17239],[11.01924,52.17809],[11.01365,52.19956],[11.02945,52.21145],[11.07718,52.21868],[11.08624,52.22863],[11.05968,52.24256],[11.05217,52.26736],[11.02907,52.27012],[11.01251,52.29132],[11.03922,52.30167],[10.99255,52.34438],[11.03736,52.34474],[11.06868,52.35548],[11.06654,52.3732],[11.03421,52.38857],[10.98941,52.4203],[10.96226,52.43474],[10.93375,52.46095],[10.94356,52.49235],[10.97484,52.50136],[11.00878,52.49675],[10.95899,52.53555],[10.93758,52.5674],[10.93982,52.58957],[10.97563,52.60682],[10.96425,52.62585],[10.93032,52.61142],[10.90438,52.62747],[10.87776,52.66383],[10.83313,52.70094],[10.82446,52.71797],[10.7967,52.71433],[10.79167,52.7482],[10.75532,52.78483],[10.75695,52.81977],[10.80055,52.85029],[10.83477,52.84748],[10.8661,52.85573],[10.93963,52.85334],[10.9901,52.88819],[10.99257,52.90646],[11.03905,52.9134],[11.06587,52.90945],[11.09868,52.91288],[11.11315,52.89572],[11.15467,52.90187],[11.22065,52.89767],[11.24113,52.87902],[11.29421,52.88713],[11.29541,52.87491],[11.35453,52.89036],[11.37469,52.90024],[11.40658,52.9041],[11.45444,52.9334],[11.50503,52.94103],[11.49234,52.95966],[11.50643,52.99975],[11.52643,53.00826],[11.54338,52.99945],[11.59778,53.03593],[11.56294,53.04221],[11.55191,53.05137],[11.52378,53.04714],[11.4936,53.05465],[11.44838,53.07838],[11.40259,53.07237],[11.35758,53.05594],[11.33887,53.0551],[11.26775,53.10419],[11.26573,53.12198]],[[8.50461,53.22892],[8.5537,53.20781],[8.57848,53.21727],[8.59325,53.18363],[8.62799,53.19837],[8.66383,53.17624],[8.69752,53.1831],[8.72865,53.18022],[8.74125,53.16464],[8.83983,53.15742],[8.84186,53.14823],[8.87438,53.13378],[8.91214,53.13262],[8.93677,53.15117],[8.95663,53.14724],[8.98419,53.12607],[8.95939,53.11017],[8.96358,53.07174],[8.97338,53.05108],[8.96679,53.03685],[8.91583,53.01102],[8.88458,53.02325],[8.82201,53.02127],[8.7783,53.03967],[8.73149,53.03493],[8.7098,53.04602],[8.70915,53.07591],[8.67408,53.08669],[8.65768,53.11849],[8.63107,53.13818],[8.6236,53.16321],[8.53595,53.18653],[8.50471,53.20079],[8.48174,53.22645],[8.50461,53.22892]]]]},"properties":{"id":"DE-NI","name":"Niedersachsen"}}
]}