{"type":"FeatureCollection", "features": [
{"type":"Feature","geometry":{"type":"MultiPolygon","coordinates":[[[[9.44046,51.65039],[9.38631,51.64602],[9.37939,51.66593],[9.39569,51.67399],[9.38692,51.68982],[9.40036,51.70549],[9.37537,51.74361],[9.42977,51.78498],[9.42805,51.81428],[9.44052,51.82493],[9.43331,51.84067],[9.46028,51.85467],[9.4049,51.85559],[9.36287,51.86488],[9.33576,51.85605],[9.34515,51.89634],[9.33215,51.91696],[9.29427,51.91944],[9.27207,51.9323],[9.27758,51.96186],[9.25776,51.97721],[9.22415,51.97294],[9.19862,51.96235],[9.17469,51.98326],[9.19679,51.99692],[9.19735,52.01167],[9.17689,52.03372],[9.17443,52.06043],[9.18805,52.07235],[9.17609,52.08612],[9.13586,52.10584],[9.15934,52.11984],[9.14471,52.13491],[9.10704,52.13239],[9.05337,52.14823],[9.01779,52.13243],[9.01242,52.17791],[9.04535,52.18377],[9.04586,52.21079],[9.06989,52.22679],[9.03297,52.24953],[8.97487,52.26256],[8.96354,52.27903],[8.98528,52.29573],[8.99832,52.32621],[9.01891,52.33099],[9.02736,52.34561],[9.05918,52.34686],[9.08366,52.35479],[9.10208,52.38842],[9.1216,52.40166],[9.12377,52.42155],[9.09453,52.44282],[9.10292,52.45693],[9.13671,52.47555],[9.08769,52.4957],[9.05229,52.50011],[9.03829,52.4799],[9.02295,52.47726],[9.01209,52.45731],[8.99102,52.45265],[8.97799,52.427],[8.92686,52.40136],[8.9031,52.40458],[8.8551,52.38923],[8.78678,52.39871],[8.74609,52.38787],[8.7109,52.40822],[8.71707,52.42512],[8.70333,52.44319],[8.70932,52.47704],[8.69855,52.4867],[8.69865,52.50881],[8.67148,52.51739],[8.65255,52.53144],[8.55742,52.50073],[8.50885,52.51469],[8.45886,52.49167],[8.45429,52.46101],[8.43029,52.44773],[8.4001,52.45093],[8.35969,52.44403],[8.31137,52.45895],[8.30399,52.43431],[8.32204,52.42616],[8.31404,52.40573],[8.3913,52.38369],[8.44261,52.35901],[8.45157,52.33437],[8.46929,52.31339],[8.45875,52.29452],[8.46619,52.26761],[8.4588,52.25818],[8.46109,52.22911],[8.4493,52.20977],[8.46019,52.19595],[8.50789,52.18835],[8.48154,52.15989],[8.45353,52.15539],[8.41288,52.13761],[8.41063,52.11577],[8.38812,52.10803],[8.32392,52.12592],[8.31122,52.11833],[8.26673,52.13228],[8.20891,52.09677],[8.1951,52.07406],[8.15764,52.07615],[8.1035,52.06106],[8.0667,52.06812],[8.01926,52.0623],[7.9811,52.03551],[7.91692,52.05164],[7.88874,52.08349],[7.90174,52.09203],[7.95807,52.10524],[7.97177,52.11598],[8.0078,52.11533],[8.00205,52.15996],[8.00591,52.17604],[7.97433,52.17113],[7.93399,52.17692],[7.90811,52.18986],[7.90575,52.21408],[7.92655,52.22651],[7.92562,52.26281],[7.95647,52.27249],[7.93217,52.28799],[7.94957,52.30588],[7.98724,52.30358],[7.94856,52.33513],[7.94268,52.35936],[7.89177,52.38051],[7.84304,52.36903],[7.80709,52.37143],[7.72545,52.39989],[7.71383,52.401],[7.70234,52.43437],[7.68838,52.45367],[7.66743,52.45607],[7.60423,52.47509],[7.57749,52.447],[7.57097,52.43233],[7.60272,52.42103],[7.58276,52.40367],[7.57044,52.3786],[7.55424,52.36876],[7.52992,52.36988],[7.47941,52.34764],[7.43778,52.33336],[7.41601,52.31197],[7.38648,52.3093],[7.36155,52.28831],[7.31748,52.28027],[7.29789,52.26398],[7.15317,52.26651],[7.12125,52.26108],[7.10189,52.24349],[7.06587,52.24126],[7.01924,52.22504],[6.98511,52.22529],[6.95132,52.18101],[6.91209,52.17718],[6.88198,52.15595],[6.87335,52.1302],[6.85539,52.12043],[6.76063,52.11872],[6.75122,52.08549],[6.73559,52.07468],[6.69465,52.0698],[6.68773,52.0399],[6.71466,52.03989],[6.75264,52.02865],[6.82657,51.99353],[6.82851,51.96407],[6.79864,51.95882],[6.78889,51.92965],[6.72166,51.89617],[6.67451,51.9159],[6.63764,51.90437],[6.58562,51.89391],[6.55611,51.88182],[6.46238,51.85597],[6.45107,51.86531],[6.39082,51.87393],[6.38806,51.86195],[6.40919,51.85233],[6.38954,51.83327],[6.37002,51.83358],[6.34681,51.85065],[6.30656,51.84922],[6.29894,51.8679],[6.21544,51.8678],[6.1959,51.87461],[6.18579,51.89273],[6.15717,51.90522],[6.12552,51.89831],[6.14451,51.86986],[6.16682,51.86097],[6.16641,51.84083],[6.09342,51.85094],[6.06338,51.86544],[6.05527,51.8523],[5.99368,51.83083],[5.96289,51.83679],[5.94503,51.82366],[5.97817,51.79723],[5.99053,51.76624],[5.95202,51.7491],[5.95512,51.73807],[5.99246,51.73858],[6.02908,51.72568],[6.0264,51.70928],[6.03687,51.67283],[6.08804,51.65981],[6.10948,51.64683],[6.09124,51.60591],[6.12128,51.59278],[6.15702,51.56668],[6.17702,51.53867],[6.21208,51.51338],[6.21302,51.4911],[6.2234,51.47494],[6.20522,51.39952],[6.22613,51.36052],[6.18984,51.33935],[6.16862,51.33295],[6.15408,51.30737],[6.12448,51.27458],[6.07266,51.24259],[6.06797,51.22051],[6.07334,51.18297],[6.10009,51.16997],[6.16502,51.19436],[6.1807,51.18643],[6.13881,51.17333],[6.17542,51.15848],[6.11593,51.13907],[6.09187,51.13497],[6.03747,51.09703],[6.00989,51.09102],[5.96985,51.06061],[5.96897,51.04665],[5.93811,51.03514],[5.91317,51.06673],[5.87803,51.03754],[5.87915,51.01755],[5.90552,51.00216],[5.8972,50.97485],[5.95516,50.98841],[5.9682,50.97947],[6.02644,50.98327],[6.01557,50.96272],[6.01816,50.93444],[6.09249,50.91784],[6.07531,50.8934],[6.08819,50.87243],[6.07398,50.84678],[6.04207,50.85126],[6.01595,50.83879],[6.02505,50.81416],[6.00348,50.80131],[5.97486,50.79797],[6.0278,50.77373],[6.02139,50.75311],[6.04048,50.74551],[6.03315,50.73098],[6.07319,50.72095],[6.11925,50.71968],[6.12324,50.7071],[6.16243,50.67138],[6.19713,50.65674],[6.18766,50.64111],[6.21973,50.64121],[6.23151,50.64998],[6.24641,50.64151],[6.2669,50.64153],[6.27398,50.62821],[6.24116,50.5871],[6.23676,50.56625],[6.22579,50.55446],[6.21195,50.55377],[6.197,50.53103],[6.23071,50.49748],[6.26994,50.50451],[6.30908,50.50141],[6.34162,50.48353],[6.34023,50.46259],[6.37762,50.43939],[6.36988,50.40893],[6.34222,50.38001],[6.39832,50.34566],[6.40503,50.32331],[6.40327,50.34655],[6.39187,50.37985],[6.44856,50.37134],[6.46116,50.35903],[6.45867,50.34397],[6.48474,50.33856],[6.53045,50.36935],[6.54318,50.36624],[6.60309,50.38822],[6.62535,50.37488],[6.62356,50.35163],[6.64996,50.34817],[6.66735,50.37197],[6.70603,50.34279],[6.77089,50.36121],[6.78469,50.37475],[6.77048,50.39772],[6.78512,50.42063],[6.7437,50.44092],[6.76463,50.45079],[6.75707,50.46303],[6.76828,50.48428],[6.80094,50.49132],[6.81207,50.47224],[6.85857,50.45327],[6.8767,50.46479],[6.90148,50.46909],[6.90707,50.50264],[6.88855,50.50701],[6.88608,50.52932],[6.909,50.5255],[6.93137,50.53557],[6.92205,50.55428],[6.95138,50.56338],[6.9761,50.55778],[6.9981,50.56505],[7.04919,50.60434],[7.09527,50.58637],[7.11939,50.61231],[7.14785,50.60029],[7.15472,50.61471],[7.21703,50.62807],[7.25658,50.62468],[7.35898,50.64949],[7.35582,50.66523],[7.37206,50.68211],[7.36243,50.70112],[7.37088,50.71523],[7.40705,50.71819],[7.4234,50.70995],[7.47982,50.71825],[7.50194,50.73001],[7.5519,50.74634],[7.58025,50.73814],[7.59162,50.7562],[7.61817,50.77017],[7.65545,50.76787],[7.65894,50.78483],[7.68222,50.79537],[7.66921,50.81862],[7.69943,50.82501],[7.75877,50.87977],[7.75728,50.92016],[7.79281,50.94234],[7.8515,50.92583],[7.83371,50.90835],[7.82926,50.88239],[7.88246,50.87489],[7.90585,50.84811],[7.96698,50.84404],[7.97665,50.82493],[7.96731,50.79825],[7.96886,50.77392],[8.04033,50.72566],[8.03969,50.69738],[8.05966,50.69504],[8.09917,50.70356],[8.10982,50.69801],[8.12069,50.68829],[8.12106,50.68542],[8.12578,50.68581],[8.12622,50.69263],[8.14261,50.69545],[8.16618,50.73248],[8.15183,50.75985],[8.13564,50.76722],[8.12551,50.78836],[8.16581,50.80348],[8.17392,50.81733],[8.23131,50.85064],[8.26967,50.88188],[8.2919,50.87716],[8.30547,50.86112],[8.3692,50.8646],[8.38558,50.87579],[8.38803,50.89193],[8.42673,50.91252],[8.45644,50.91653],[8.44932,50.94108],[8.46228,50.94969],[8.45967,50.96665],[8.49576,50.9881],[8.50141,50.99845],[8.53578,51.02216],[8.5166,51.04322],[8.52757,51.06289],[8.50173,51.07947],[8.55102,51.10276],[8.60146,51.10203],[8.65663,51.0949],[8.69053,51.10916],[8.69434,51.13638],[8.75821,51.17718],[8.7495,51.19773],[8.76819,51.20887],[8.7417,51.21842],[8.7276,51.2501],[8.73659,51.26222],[8.722,51.27374],[8.62834,51.2605],[8.59356,51.2475],[8.57822,51.26748],[8.55635,51.27749],[8.58597,51.29824],[8.60505,51.32369],[8.63779,51.34361],[8.65365,51.33979],[8.67745,51.3718],[8.70054,51.37738],[8.73285,51.37242],[8.80399,51.3908],[8.85402,51.37714],[8.88958,51.39272],[8.9395,51.3895],[8.94811,51.42822],[8.91879,51.43029],[8.91936,51.44913],[8.89038,51.48193],[8.91333,51.49155],[9.01765,51.51824],[9.03929,51.50192],[9.07652,51.50348],[9.09233,51.49439],[9.07719,51.46487],[9.10259,51.4432],[9.1493,51.44202],[9.1851,51.46633],[9.21647,51.45959],[9.21664,51.48117],[9.24209,51.49768],[9.26433,51.49791],[9.28688,51.51548],[9.30832,51.51264],[9.31108,51.53735],[9.37065,51.59406],[9.3371,51.6147],[9.37193,51.62557],[9.42667,51.63081],[9.44046,51.65039]]],[[[6.23793,50.57785],[6.22518,50.59046],[6.2031,50.56929],[6.17441,50.55751],[6.17803,50.54161],[6.19665,50.53617],[6.20962,50.55509],[6.2247,50.55667],[6.23793,50.57785]]],[[[6.25181,50.62695],[6.23152,50.64804],[6.21692,50.63222],[6.25181,50.62695]]]]},"properties":{"id":"DE-NW","name":"Nordrhein-Westfalen"}}
]}