{"type":"FeatureCollection", "features": [
{"type":"Feature","geometry":{"type":"Polygon","coordinates":[[[8.42244,49.58339],[8.40905,49.60504],[8.38199,49.62728],[8.35649,49.67799],[8.35727,49.69214],[8.38152,49.70704],[8.43596,49.72099],[8.47863,49.75823],[8.46955,49.76918],[8.4292,49.76645],[8.4163,49.77387],[8.40608,49.79657],[8.37845,49.82482],[8.3851,49.84822],[8.37456,49.86162],[8.34652,49.87482],[8.34356,49.89287],[8.35344,49.92002],[8.34096,49.95108],[8.32234,49.97359],[8.24456,50.02763],[8.18095,50.03521],[8.12845,50.02398],[8.07957,50.0069],[8.03636,50.00231],[7.9674,49.97777],[7.88726,49.97184],[7.86606,49.98045],[7.85789,50.00713],[7.82936,50.02194],[7.77249,50.05847],[7.80346,50.08458],[7.83719,50.08413],[7.83133,50.0995],[7.84492,50.1235],[7.88472,50.11438],[7.90322,50.12155],[7.93294,50.14388],[7.89238,50.1618],[7.88283,50.18132],[7.91022,50.19349],[7.9208,50.20796],[7.9474,50.21007],[7.95305,50.2204],[8.00106,50.22877],[8.03287,50.22082],[8.05891,50.23441],[8.02559,50.26174],[8.03589,50.27119],[8.07209,50.27315],[8.10679,50.26091],[8.12191,50.27723],[8.10716,50.32157],[8.08221,50.33076],[8.06589,50.36722],[8.0203,50.38614],[8.02105,50.39875],[7.99074,50.39955],[7.98124,50.418],[7.99063,50.44394],[8.01077,50.45269],[7.98767,50.47273],[7.98294,50.51146],[8.02829,50.5445],[8.04935,50.5528],[8.07052,50.538],[8.10536,50.53414],[8.13219,50.55796],[8.15216,50.59367],[8.12796,50.60772],[8.14088,50.63023],[8.11009,50.65725],[8.12552,50.68284],[8.12578,50.68581],[8.12106,50.68542],[8.12069,50.68829],[8.10982,50.69801],[8.09917,50.70356],[8.05966,50.69504],[8.03969,50.69738],[8.04033,50.72566],[7.96886,50.77392],[7.96731,50.79825],[7.97665,50.82493],[7.96698,50.84404],[7.90585,50.84811],[7.88246,50.87489],[7.82926,50.88239],[7.83371,50.90835],[7.8515,50.92583],[7.79281,50.94234],[7.75728,50.92016],[7.75877,50.87977],[7.69943,50.82501],[7.66921,50.81862],[7.68222,50.79537],[7.65894,50.78483],[7.65545,50.76787],[7.61817,50.77017],[7.59162,50.7562],[7.58025,50.73814],[7.5519,50.74634],[7.50194,50.73001],[7.47982,50.71825],[7.4234,50.70995],[7.40705,50.71819],[7.37088,50.71523],[7.36243,50.70112],[7.37206,50.68211],[7.35582,50.66523],[7.35898,50.64949],[7.25658,50.62468],[7.21703,50.62807],[7.15472,50.61471],[7.14785,50.60029],[7.11939,50.61231],[7.09527,50.58637],[7.04919,50.60434],[6.9981,50.56505],[6.9761,50.55778],[6.95138,50.56338],[6.92205,50.55428],[6.93137,50.53557],[6.909,50.5255],[6.88608,50.52932],[6.88855,50.50701],[6.90707,50.50264],[6.90148,50.46909],[6.8767,50.46479],[6.85857,50.45327],[6.81207,50.47224],[6.80094,50.49132],[6.76828,50.48428],[6.75707,50.46303],[6.76463,50.45079],[6.7437,50.44092],[6.78512,50.42063],[6.77048,50.39772],[6.78469,50.37475],[6.77089,50.36121],[6.70603,50.34279],[6.66735,50.37197],[6.64996,50.34817],[6.62356,50.35163],[6.62535,50.37488],[6.60309,50.38822],[6.54318,50.36624],[6.53045,50.36935],[6.48474,50.33856],[6.45867,50.34397],[6.46116,50.35903],[6.44856,50.37134],[6.39187,50.37985],[6.40327,50.34655],[6.40503,50.32331],[6.37052,50.31278],[6.33489,50.31642],[6.32727,50.32454],[6.28586,50.29407],[6.29209,50.27883],[6.27794,50.26643],[6.25873,50.26778],[6.21577,50.25701],[6.19752,50.2381],[6.17569,50.23542],[6.19028,50.18761],[6.18341,50.17815],[6.14689,50.17778],[6.13979,50.16927],[6.15466,50.1419],[6.13882,50.13503],[6.135,50.11332],[6.11968,50.08655],[6.11235,50.06051],[6.14588,50.02273],[6.14528,49.99841],[6.16914,49.98357],[6.16493,49.97055],[6.17779,49.95403],[6.21164,49.95023],[6.22732,49.93659],[6.23364,49.90038],[6.26207,49.88093],[6.311,49.86994],[6.34219,49.84911],[6.36417,49.85077],[6.39743,49.82231],[6.43199,49.81059],[6.4545,49.81154],[6.47085,49.82256],[6.51643,49.80532],[6.50976,49.77416],[6.51566,49.75911],[6.5005,49.75214],[6.50651,49.71637],[6.48037,49.69681],[6.45914,49.69079],[6.42822,49.66687],[6.4408,49.65592],[6.42143,49.62005],[6.39984,49.60272],[6.37493,49.59189],[6.38189,49.58084],[6.35902,49.5703],[6.38005,49.5511],[6.4303,49.54896],[6.47675,49.54167],[6.49929,49.53036],[6.52292,49.52834],[6.53855,49.53945],[6.56396,49.54056],[6.58843,49.51747],[6.63278,49.5419],[6.64595,49.53914],[6.73399,49.56021],[6.74798,49.55791],[6.77816,49.57022],[6.81344,49.592],[6.83542,49.58293],[6.85721,49.60518],[6.87996,49.60618],[6.97768,49.63271],[7.0124,49.62836],[7.02798,49.63944],[7.05908,49.63048],[7.08697,49.60224],[7.1184,49.59598],[7.14931,49.60368],[7.18837,49.57566],[7.21,49.57715],[7.2244,49.56483],[7.2621,49.57361],[7.27486,49.56057],[7.27611,49.53742],[7.29897,49.53138],[7.28094,49.50552],[7.27814,49.48427],[7.29684,49.48355],[7.30109,49.46669],[7.24644,49.44552],[7.26096,49.42362],[7.2863,49.4174],[7.29894,49.39852],[7.28934,49.38881],[7.33136,49.37885],[7.35582,49.37977],[7.36638,49.36341],[7.39335,49.36348],[7.40377,49.34612],[7.3928,49.32826],[7.38543,49.29412],[7.3717,49.28091],[7.34155,49.28146],[7.33908,49.26393],[7.28913,49.23782],[7.30252,49.22204],[7.30574,49.20104],[7.35015,49.16284],[7.36876,49.16146],[7.36657,49.17227],[7.43588,49.17966],[7.45975,49.16282],[7.49398,49.16936],[7.49757,49.13457],[7.51551,49.12096],[7.52868,49.09709],[7.56362,49.08023],[7.60097,49.08323],[7.62931,49.07355],[7.6312,49.05489],[7.67337,49.04509],[7.73143,49.05553],[7.74075,49.04731],[7.76927,49.04758],[7.7944,49.06569],[7.86683,49.03292],[7.88913,49.04904],[7.91311,49.04011],[7.93279,49.05806],[7.9644,49.04288],[7.97479,49.0268],[7.99633,49.02905],[8.06393,49.00553],[8.08768,48.98982],[8.1238,48.98637],[8.1399,48.97845],[8.21513,48.97519],[8.23263,48.96657],[8.27735,48.98994],[8.29737,49.01351],[8.30414,49.04065],[8.32054,49.06496],[8.35809,49.09778],[8.37271,49.15198],[8.36843,49.16805],[8.38502,49.1983],[8.40525,49.22056],[8.38638,49.22833],[8.40069,49.24416],[8.4398,49.26235],[8.45819,49.27911],[8.48226,49.28654],[8.48774,49.30046],[8.4558,49.31421],[8.45552,49.33209],[8.48329,49.34859],[8.50092,49.37636],[8.47822,49.3751],[8.46538,49.38725],[8.49619,49.40214],[8.50824,49.43449],[8.49888,49.44265],[8.45553,49.44376],[8.44432,49.45919],[8.4638,49.4704],[8.44296,49.4927],[8.41473,49.5539],[8.42244,49.58339]]]},"properties":{"id":"DE-RP","name":"Rheinland-Pfalz"}}
]}