{"type":"FeatureCollection", "features": [
{"type":"Feature","geometry":{"type":"MultiPolygon","coordinates":[[[[11.08618,54.53057],[11.06424,54.53506],[11.03116,54.5118],[11.01032,54.48256],[11.00893,54.44167],[11.06319,54.45281],[11.09512,54.44545],[11.1018,54.43157],[11.09514,54.40953],[11.12097,54.40208],[11.17295,54.40148],[11.18687,54.40882],[11.255,54.41134],[11.31266,54.40226],[11.29808,54.43076],[11.27549,54.4569],[11.25262,54.47176],[11.23268,54.50686],[11.19678,54.50906],[11.16548,54.52248],[11.08618,54.53057]]],[[[8.70504,54.55756],[8.64171,54.54562],[8.62605,54.53563],[8.58783,54.52885],[8.59224,54.50868],[8.6207,54.48998],[8.67577,54.49732],[8.69681,54.5175],[8.71087,54.55296],[8.70504,54.55756]]],[[[8.34243,54.69355],[8.31411,54.68755],[8.2941,54.66618],[8.30559,54.65319],[8.36554,54.60927],[8.39715,54.61408],[8.3611,54.64979],[8.34243,54.69355]]],[[[8.56591,54.75186],[8.53418,54.75586],[8.42728,54.74618],[8.41098,54.73708],[8.39498,54.71402],[8.40284,54.70018],[8.45215,54.69268],[8.48487,54.6803],[8.56645,54.67997],[8.57868,54.69263],[8.58869,54.74098],[8.56591,54.75186]]],[[[10.30795,53.4332],[10.33077,53.42497],[10.37543,53.42483],[10.41928,53.40214],[10.50224,53.37354],[10.59505,53.36393],[10.6169,53.38457],[10.61837,53.42537],[10.63231,53.4548],[10.65204,53.46148],[10.69297,53.45514],[10.70166,53.47826],[10.72074,53.47607],[10.77778,53.49518],[10.78643,53.51046],[10.81064,53.51619],[10.83191,53.54258],[10.82326,53.57518],[10.85014,53.56527],[10.90948,53.57145],[10.9238,53.58419],[10.92956,53.62871],[10.95075,53.64583],[10.93863,53.66582],[10.94177,53.68454],[10.92214,53.69947],[10.88642,53.70566],[10.85094,53.70012],[10.81088,53.72007],[10.80592,53.73921],[10.77192,53.74942],[10.75798,53.76359],[10.77235,53.79717],[10.76159,53.8226],[10.74785,53.83336],[10.74771,53.85151],[10.77105,53.87319],[10.8024,53.87708],[10.81893,53.89353],[10.87472,53.91454],[10.91129,53.91523],[10.91102,53.89795],[10.95897,53.91026],[10.93933,53.91933],[10.8951,53.92455],[10.90946,53.94627],[10.90366,53.95682],[10.88659,53.96176],[10.88422,53.97942],[10.86827,53.99175],[10.78725,53.99744],[10.75185,54.03708],[10.76129,54.05965],[10.81466,54.09302],[10.86586,54.08481],[10.89107,54.09443],[10.9551,54.14108],[11.04692,54.17653],[11.0705,54.19286],[11.09378,54.19905],[11.08191,54.25183],[11.08377,54.27928],[11.07192,54.34225],[11.08917,54.35764],[11.12561,54.37361],[11.12794,54.39046],[11.091,54.39189],[11.07337,54.3766],[11.02374,54.36771],[11.01882,54.37642],[10.94945,54.38478],[10.87176,54.35827],[10.82923,54.33002],[10.7895,54.31213],[10.75865,54.30599],[10.70697,54.30504],[10.68463,54.31032],[10.6388,54.34784],[10.59961,54.36373],[10.53987,54.37981],[10.4737,54.39247],[10.38798,54.42645],[10.33985,54.43477],[10.30211,54.43315],[10.29287,54.42196],[10.22606,54.41391],[10.20885,54.39996],[10.19595,54.36602],[10.15414,54.36888],[10.19226,54.39021],[10.18877,54.41108],[10.17184,54.42692],[10.19036,54.45706],[10.13403,54.48434],[10.02098,54.47542],[9.99751,54.46863],[9.92426,54.46229],[9.91837,54.45411],[9.8661,54.44812],[9.86245,54.46965],[9.96466,54.50248],[9.99833,54.52165],[10.02733,54.55312],[10.0261,54.59773],[10.03355,54.62074],[10.03125,54.64723],[10.03602,54.68842],[9.98899,54.71832],[9.97691,54.75684],[9.95723,54.77986],[9.91309,54.79548],[9.8997,54.77279],[9.87456,54.75235],[9.83283,54.76066],[9.79224,54.79763],[9.73994,54.82331],[9.60463,54.85459],[9.62802,54.87975],[9.58441,54.88614],[9.49759,54.84108],[9.42872,54.82711],[9.41113,54.8423],[9.38268,54.8392],[9.3725,54.82217],[9.3421,54.80363],[9.26991,54.81217],[9.25008,54.80972],[9.23576,54.8311],[9.24014,54.84998],[9.14333,54.87302],[9.04824,54.87188],[9.01476,54.88641],[8.94794,54.90256],[8.89204,54.90491],[8.84869,54.89728],[8.8113,54.90592],[8.77634,54.8955],[8.728,54.89271],[8.68035,54.91049],[8.638,54.91125],[8.63766,54.89759],[8.61029,54.88839],[8.51149,54.88421],[8.48649,54.87674],[8.42741,54.8774],[8.38064,54.89202],[8.36209,54.91021],[8.36167,54.95782],[8.35282,54.96786],[8.37057,54.9895],[8.39549,55.00405],[8.44003,55.01587],[8.41883,55.03518],[8.38311,55.03732],[8.2979,54.91066],[8.28784,54.87673],[8.27943,54.75139],[8.30097,54.76376],[8.29205,54.78599],[8.30055,54.81797],[8.29606,54.84239],[8.30695,54.85845],[8.33323,54.87282],[8.36426,54.87591],[8.37792,54.8586],[8.41438,54.84724],[8.45462,54.85738],[8.51018,54.8814],[8.60337,54.88571],[8.61261,54.87847],[8.60776,54.84105],[8.64423,54.81908],[8.65915,54.79541],[8.68471,54.79281],[8.70167,54.77369],[8.69739,54.76036],[8.74109,54.71637],[8.75283,54.68125],[8.78038,54.66613],[8.83195,54.65259],[8.84653,54.62546],[8.88582,54.60894],[8.89297,54.59678],[8.86861,54.56181],[8.87789,54.54546],[8.87145,54.52829],[8.83569,54.50775],[8.80644,54.49834],[8.81925,54.48652],[8.80702,54.47016],[8.84177,54.46062],[8.8934,54.46058],[8.91599,54.47057],[8.94545,54.51243],[8.9836,54.52405],[9.01054,54.49314],[9.0024,54.46367],[8.95895,54.45386],[8.94759,54.4389],[8.91144,54.41774],[8.85579,54.40253],[8.80969,54.40946],[8.74162,54.39875],[8.67255,54.39965],[8.65277,54.38951],[8.65778,54.37428],[8.69104,54.37308],[8.69149,54.35563],[8.644,54.33793],[8.60316,54.34073],[8.60831,54.30879],[8.65114,54.28684],[8.68911,54.27862],[8.73669,54.29345],[8.7917,54.28185],[8.82135,54.29128],[8.84179,54.27846],[8.84389,54.25662],[8.83117,54.23672],[8.83373,54.21446],[8.81973,54.20657],[8.80738,54.17561],[8.82709,54.14362],[8.85787,54.11919],[8.89297,54.13324],[8.9292,54.12925],[8.9477,54.09298],[8.98513,54.06099],[8.97202,54.038],[8.94019,54.03457],[8.92705,54.04165],[8.88144,54.04605],[8.8408,54.03566],[8.83259,54.02393],[8.8561,53.9947],[8.87441,53.98258],[8.9149,53.9249],[8.97026,53.8922],[9.01993,53.88994],[9.05236,53.88122],[9.14256,53.87751],[9.19975,53.8801],[9.24996,53.87513],[9.28973,53.86335],[9.31952,53.85084],[9.36762,53.80859],[9.42259,53.74067],[9.43331,53.73198],[9.50218,53.69681],[9.5278,53.66294],[9.53683,53.63057],[9.55063,53.61601],[9.58786,53.59851],[9.67576,53.56469],[9.7301,53.55758],[9.73696,53.57739],[9.77063,53.61623],[9.81616,53.58622],[9.83671,53.58753],[9.89449,53.62984],[9.90537,53.65219],[9.92081,53.65547],[9.96545,53.64882],[9.99052,53.6509],[9.9987,53.68147],[10.04078,53.68199],[10.06566,53.68899],[10.08184,53.72042],[10.11593,53.71578],[10.1615,53.73336],[10.19164,53.7229],[10.15752,53.70503],[10.14483,53.67975],[10.19606,53.6547],[10.21732,53.62612],[10.18895,53.61301],[10.19576,53.58471],[10.15256,53.5779],[10.15115,53.54502],[10.16464,53.51994],[10.18971,53.51263],[10.2106,53.52005],[10.21861,53.49906],[10.23837,53.48326],[10.26433,53.47514],[10.26929,53.46411],[10.29784,53.45159],[10.30795,53.4332]]]]},"properties":{"id":"DE-SH","name":"Schleswig-Holstein"}}
]}