{"type":"FeatureCollection", "features": [
{"type":"Feature","geometry":{"type":"Polygon","coordinates":[[[11.59778,53.03593],[11.54338,52.99945],[11.52643,53.00826],[11.50643,52.99975],[11.49234,52.95966],[11.50503,52.94103],[11.45444,52.9334],[11.40658,52.9041],[11.37469,52.90024],[11.35453,52.89036],[11.29541,52.87491],[11.29421,52.88713],[11.24113,52.87902],[11.22065,52.89767],[11.15467,52.90187],[11.11315,52.89572],[11.09868,52.91288],[11.06587,52.90945],[11.03905,52.9134],[10.99257,52.90646],[10.9901,52.88819],[10.93963,52.85334],[10.8661,52.85573],[10.83477,52.84748],[10.80055,52.85029],[10.75695,52.81977],[10.75532,52.78483],[10.79167,52.7482],[10.7967,52.71433],[10.82446,52.71797],[10.83313,52.70094],[10.87776,52.66383],[10.90438,52.62747],[10.93032,52.61142],[10.96425,52.62585],[10.97563,52.60682],[10.93982,52.58957],[10.93758,52.5674],[10.95899,52.53555],[11.00878,52.49675],[10.97484,52.50136],[10.94356,52.49235],[10.93375,52.46095],[10.96226,52.43474],[10.98941,52.4203],[11.03421,52.38857],[11.06654,52.3732],[11.06868,52.35548],[11.03736,52.34474],[10.99255,52.34438],[11.03922,52.30167],[11.01251,52.29132],[11.02907,52.27012],[11.05217,52.26736],[11.05968,52.24256],[11.08624,52.22863],[11.07718,52.21868],[11.02945,52.21145],[11.01365,52.19956],[11.01924,52.17809],[11.06034,52.17239],[11.06043,52.15347],[11.04634,52.13694],[11.01747,52.12826],[10.97688,52.10573],[10.94216,52.10309],[10.97065,52.08626],[10.96441,52.05664],[10.87894,52.0592],[10.82871,52.04775],[10.70394,52.04994],[10.64789,52.04172],[10.65549,52.02469],[10.63897,52.01533],[10.56123,52.00407],[10.58678,51.98273],[10.60623,51.97729],[10.64755,51.95362],[10.61326,51.93947],[10.61331,51.92152],[10.64821,51.90824],[10.64932,51.8891],[10.63233,51.87216],[10.57697,51.84299],[10.5742,51.81087],[10.58044,51.78275],[10.5912,51.76899],[10.6261,51.75902],[10.63171,51.73953],[10.64934,51.71855],[10.66831,51.70991],[10.66306,51.69121],[10.67051,51.66691],[10.70137,51.64219],[10.76451,51.64901],[10.81822,51.63903],[10.83373,51.63069],[10.85862,51.6329],[10.8866,51.61211],[10.93706,51.60349],[10.93054,51.59168],[10.89385,51.59864],[10.88205,51.58051],[10.91655,51.54746],[10.94,51.54192],[10.93285,51.52152],[10.93972,51.50073],[10.97294,51.48196],[10.96082,51.47122],[10.9727,51.45367],[10.96673,51.43235],[10.99203,51.41785],[11.01875,51.41705],[11.07148,51.42863],[11.12757,51.41325],[11.15293,51.40164],[11.19241,51.40288],[11.22388,51.41319],[11.25277,51.40065],[11.28498,51.40221],[11.32126,51.41037],[11.3308,51.39027],[11.37832,51.38724],[11.39115,51.37255],[11.39944,51.34484],[11.47523,51.29805],[11.45988,51.29405],[11.44678,51.27112],[11.41997,51.24636],[11.38457,51.24564],[11.36483,51.22136],[11.38982,51.21752],[11.40589,51.2027],[11.43095,51.21248],[11.44902,51.19627],[11.46857,51.19265],[11.47193,51.14818],[11.46336,51.11276],[11.48522,51.10253],[11.54564,51.10245],[11.57166,51.11937],[11.62004,51.10467],[11.65329,51.10971],[11.68917,51.09859],[11.70081,51.0694],[11.72117,51.07102],[11.75325,51.05699],[11.80389,51.04721],[11.88881,51.05584],[11.91539,51.03794],[11.94307,51.03244],[11.97714,51.01645],[11.97424,50.99032],[12.00657,50.99102],[12.01706,50.97657],[12.05536,50.96861],[12.09216,50.97653],[12.11847,50.96815],[12.15835,50.96313],[12.18251,50.97587],[12.21953,50.94228],[12.23872,50.95153],[12.23989,50.97568],[12.26219,50.98916],[12.29175,51.0187],[12.29391,51.03133],[12.26221,51.04961],[12.25849,51.06614],[12.28355,51.09192],[12.23036,51.10361],[12.22459,51.11932],[12.24164,51.1307],[12.19619,51.14191],[12.19715,51.15991],[12.21308,51.1835],[12.1934,51.18531],[12.18959,51.20398],[12.20123,51.21344],[12.18939,51.25762],[12.17368,51.25826],[12.16895,51.29376],[12.14765,51.31997],[12.19435,51.33057],[12.17353,51.41026],[12.18248,51.43238],[12.15721,51.43271],[12.14891,51.46311],[12.17552,51.46968],[12.17571,51.48222],[12.20308,51.48514],[12.19277,51.5313],[12.23135,51.54735],[12.2329,51.56113],[12.29318,51.56056],[12.31938,51.57758],[12.36686,51.58801],[12.42542,51.58213],[12.42733,51.5993],[12.50701,51.60846],[12.53448,51.60609],[12.59549,51.61838],[12.64911,51.62045],[12.68668,51.66199],[12.71684,51.66131],[12.77271,51.64751],[12.79253,51.6655],[12.83181,51.67602],[12.86223,51.67378],[12.86748,51.65651],[12.89517,51.66377],[12.89752,51.64743],[12.9715,51.65025],[12.96682,51.66566],[12.99629,51.66925],[13.02037,51.65407],[13.02347,51.6373],[13.15453,51.68671],[13.1551,51.71079],[13.17954,51.73117],[13.15401,51.74425],[13.16329,51.75494],[13.16301,51.80202],[13.14209,51.82065],[13.12354,51.85459],[13.15091,51.85961],[13.13234,51.88249],[13.07546,51.86885],[13.03924,51.87091],[13.04541,51.90052],[12.98608,51.90411],[12.96057,51.93491],[12.91746,51.93269],[12.85273,51.93501],[12.84415,51.96773],[12.81127,51.96257],[12.77602,51.96512],[12.77655,51.97657],[12.72964,51.98896],[12.6727,52.01185],[12.6486,52.00831],[12.64475,51.99438],[12.6144,51.99172],[12.60302,51.98109],[12.53939,51.98489],[12.53631,52.00288],[12.49883,52.00892],[12.48062,52.03334],[12.46076,52.03472],[12.45,52.01621],[12.43023,52.01831],[12.3896,52.04357],[12.35978,52.0465],[12.32903,52.06963],[12.31582,52.09237],[12.27672,52.10402],[12.26511,52.13066],[12.24532,52.13873],[12.21678,52.17007],[12.26026,52.21645],[12.27883,52.21704],[12.28378,52.23451],[12.26154,52.24609],[12.25094,52.27259],[12.26277,52.29507],[12.30813,52.3447],[12.28381,52.36425],[12.30329,52.39755],[12.27447,52.41606],[12.29699,52.42378],[12.32512,52.46423],[12.31305,52.48971],[12.27845,52.48715],[12.25992,52.50423],[12.25822,52.51789],[12.23612,52.52372],[12.22168,52.50067],[12.1847,52.49578],[12.16729,52.51499],[12.18547,52.52702],[12.17389,52.53869],[12.14181,52.52839],[12.17338,52.58225],[12.17197,52.62595],[12.20354,52.61875],[12.23085,52.62976],[12.23935,52.67174],[12.20392,52.71335],[12.20944,52.7352],[12.22317,52.73975],[12.20596,52.76091],[12.22356,52.78705],[12.24466,52.78722],[12.25754,52.80491],[12.24367,52.82069],[12.23406,52.85938],[12.19265,52.87746],[12.17219,52.8647],[12.13312,52.86578],[12.12021,52.87551],[12.08138,52.87708],[12.05547,52.88895],[12.00612,52.88746],[11.98155,52.87603],[11.93225,52.89158],[11.89734,52.89336],[11.87151,52.90887],[11.82501,52.91577],[11.82952,52.9306],[11.84793,52.94103],[11.8289,52.95727],[11.7863,52.96096],[11.76419,52.98141],[11.73202,52.98857],[11.70257,52.97781],[11.68302,52.98616],[11.66774,53.00968],[11.64575,53.00538],[11.62633,53.01265],[11.6415,53.03285],[11.622,53.0417],[11.59778,53.03593]]]},"properties":{"id":"DE-ST","name":"Sachsen-Anhalt"}}
]}