{"type":"FeatureCollection", "features": [
{"type":"Feature","geometry":{"type":"Polygon","coordinates":[[[6.38005,49.5511],[6.35699,49.53129],[6.36752,49.50273],[6.36708,49.46951],[6.39341,49.46405],[6.42913,49.47624],[6.46461,49.46637],[6.55082,49.42538],[6.54082,49.40125],[6.56359,49.3881],[6.58665,49.38515],[6.58315,49.36842],[6.56566,49.34765],[6.5956,49.33006],[6.58912,49.32206],[6.66011,49.28367],[6.68562,49.24343],[6.69582,49.21527],[6.71974,49.22111],[6.73144,49.20596],[6.71121,49.18834],[6.7386,49.16368],[6.78272,49.16816],[6.83406,49.15108],[6.859,49.17462],[6.85217,49.20001],[6.83799,49.21349],[6.85887,49.22276],[6.89335,49.20915],[6.91871,49.22272],[6.9596,49.20309],[6.97523,49.20945],[6.99948,49.19446],[7.03501,49.19142],[7.02773,49.17013],[7.0465,49.13734],[7.05503,49.11209],[7.10406,49.13839],[7.12578,49.1419],[7.1356,49.1284],[7.15941,49.12047],[7.18361,49.13002],[7.19631,49.12165],[7.24505,49.13011],[7.28236,49.11691],[7.29836,49.11727],[7.31386,49.13718],[7.32985,49.14477],[7.36273,49.14315],[7.36876,49.16146],[7.35015,49.16284],[7.30574,49.20104],[7.30252,49.22204],[7.28913,49.23782],[7.33908,49.26393],[7.34155,49.28146],[7.3717,49.28091],[7.38543,49.29412],[7.3928,49.32826],[7.40377,49.34612],[7.39335,49.36348],[7.36638,49.36341],[7.35582,49.37977],[7.33136,49.37885],[7.28934,49.38881],[7.29894,49.39852],[7.2863,49.4174],[7.26096,49.42362],[7.24644,49.44552],[7.30109,49.46669],[7.29684,49.48355],[7.27814,49.48427],[7.28094,49.50552],[7.29897,49.53138],[7.27611,49.53742],[7.27486,49.56057],[7.2621,49.57361],[7.2244,49.56483],[7.21,49.57715],[7.18837,49.57566],[7.14931,49.60368],[7.1184,49.59598],[7.08697,49.60224],[7.05908,49.63048],[7.02798,49.63944],[7.0124,49.62836],[6.97768,49.63271],[6.87996,49.60618],[6.85721,49.60518],[6.83542,49.58293],[6.81344,49.592],[6.77816,49.57022],[6.74798,49.55791],[6.73399,49.56021],[6.64595,49.53914],[6.63278,49.5419],[6.58843,49.51747],[6.56396,49.54056],[6.53855,49.53945],[6.52292,49.52834],[6.49929,49.53036],[6.47675,49.54167],[6.4303,49.54896],[6.38005,49.5511]]]},"properties":{"id":"DE-SL","name":"Saarland"}}
]}