{"type":"FeatureCollection", "features": [
{"type":"Feature","geometry":{"type":"Polygon","coordinates":[[[12.1009,50.31803],[12.12469,50.3154],[12.14682,50.3218],[12.18445,50.32232],[12.19828,50.30735],[12.20146,50.27278],[12.24704,50.26826],[12.26602,50.2587],[12.23963,50.24617],[12.29388,50.22127],[12.27743,50.19171],[12.31925,50.17192],[12.33822,50.19248],[12.32305,50.20745],[12.33269,50.23426],[12.35684,50.24277],[12.35011,50.25353],[12.37086,50.28527],[12.39426,50.2896],[12.40343,50.32395],[12.43715,50.32756],[12.4418,50.34116],[12.46943,50.35499],[12.51205,50.39726],[12.55844,50.3994],[12.60019,50.40581],[12.61695,50.41561],[12.70761,50.40783],[12.73461,50.4322],[12.79493,50.44945],[12.81938,50.4598],[12.93641,50.41164],[12.98345,50.41972],[13.01987,50.44673],[13.02254,50.48692],[13.04281,50.51138],[13.056,50.50126],[13.10147,50.50292],[13.13267,50.51828],[13.15412,50.50851],[13.19527,50.50326],[13.19469,50.51526],[13.22908,50.54974],[13.22355,50.55829],[13.24844,50.59205],[13.27877,50.59299],[13.29091,50.57502],[13.32368,50.58165],[13.3194,50.60217],[13.36666,50.61844],[13.37548,50.65021],[13.40538,50.63458],[13.41238,50.61841],[13.46477,50.60189],[13.49703,50.63142],[13.52419,50.63926],[13.51281,50.65371],[13.54437,50.67745],[13.52755,50.69902],[13.55633,50.71455],[13.60225,50.71006],[13.62504,50.72285],[13.66431,50.73193],[13.70647,50.71692],[13.72818,50.73365],[13.80733,50.73326],[13.82707,50.72422],[13.85519,50.72711],[13.90275,50.75291],[13.88753,50.77046],[13.90398,50.79397],[13.93918,50.78998],[13.95378,50.80729],[13.99031,50.82001],[14.0229,50.80916],[14.07838,50.81242],[14.08953,50.82585],[14.13287,50.834],[14.16146,50.84754],[14.20103,50.85134],[14.22329,50.85924],[14.23627,50.88257],[14.2675,50.8953],[14.30485,50.88398],[14.3628,50.89765],[14.38764,50.89909],[14.38564,50.91649],[14.40214,50.92407],[14.38732,50.94181],[14.34932,50.94514],[14.31171,50.95376],[14.32973,50.9822],[14.28577,50.977],[14.2629,50.9854],[14.26516,51.00816],[14.29219,51.04654],[14.31692,51.05542],[14.33663,51.03902],[14.36199,51.04543],[14.38476,51.02696],[14.42179,51.01957],[14.45382,51.03589],[14.5787,51.00031],[14.59918,50.98711],[14.59607,50.96281],[14.56066,50.92537],[14.58321,50.91426],[14.65022,50.93153],[14.6529,50.90549],[14.63623,50.89745],[14.61887,50.85771],[14.66479,50.84937],[14.6902,50.838],[14.70871,50.84089],[14.72232,50.82208],[14.74495,50.82945],[14.76644,50.81935],[14.80181,50.82486],[14.81025,50.85081],[14.82495,50.86956],[14.81955,50.88506],[14.86809,50.9179],[14.89296,50.94958],[14.90308,50.97172],[14.93798,51.01147],[14.95381,51.04668],[14.97928,51.07708],[14.9808,51.10879],[14.99491,51.1239],[14.99329,51.16283],[15.00878,51.18233],[15.0076,51.20451],[15.03762,51.2442],[15.03348,51.29393],[15.01201,51.30131],[15.00925,51.3163],[14.97777,51.3417],[14.98374,51.37355],[14.96469,51.38681],[14.95872,51.40975],[14.97422,51.44167],[14.94699,51.47206],[14.85164,51.48956],[14.79597,51.51787],[14.73576,51.52596],[14.72935,51.54974],[14.71124,51.56266],[14.72987,51.58178],[14.70645,51.57646],[14.67401,51.55065],[14.6396,51.55429],[14.60989,51.55015],[14.59903,51.57175],[14.56964,51.58119],[14.54749,51.56362],[14.51545,51.55423],[14.49986,51.5594],[14.45407,51.55637],[14.44131,51.54461],[14.40944,51.53721],[14.38716,51.54177],[14.36344,51.52454],[14.32736,51.50736],[14.32292,51.51943],[14.27401,51.53213],[14.22893,51.53284],[14.21302,51.53981],[14.17514,51.53912],[14.13957,51.54399],[14.1078,51.52176],[14.09567,51.49872],[14.07382,51.49267],[14.07259,51.47209],[14.03874,51.47991],[14.06284,51.44551],[14.04304,51.43924],[14.04459,51.41875],[13.99735,51.38524],[13.97021,51.37584],[13.96171,51.39714],[13.90999,51.37897],[13.88307,51.37512],[13.86325,51.38176],[13.73911,51.3612],[13.68276,51.36762],[13.59406,51.36936],[13.58765,51.38183],[13.55082,51.37925],[13.52486,51.38427],[13.52122,51.40206],[13.46328,51.41175],[13.46553,51.42177],[13.42793,51.42895],[13.40105,51.45417],[13.37714,51.43332],[13.35835,51.43397],[13.31363,51.42318],[13.28667,51.41138],[13.28635,51.39929],[13.25607,51.39209],[13.21355,51.39725],[13.19339,51.43578],[13.20308,51.45873],[13.18292,51.47134],[13.18705,51.48575],[13.20704,51.50494],[13.20796,51.52435],[13.19006,51.53959],[13.18557,51.55808],[13.16083,51.55897],[13.14104,51.57117],[13.16177,51.59215],[13.12103,51.61889],[13.09384,51.60588],[13.05103,51.64768],[13.02347,51.6373],[13.02037,51.65407],[12.99629,51.66925],[12.96682,51.66566],[12.9715,51.65025],[12.89752,51.64743],[12.89517,51.66377],[12.86748,51.65651],[12.86223,51.67378],[12.83181,51.67602],[12.79253,51.6655],[12.77271,51.64751],[12.71684,51.66131],[12.68668,51.66199],[12.64911,51.62045],[12.59549,51.61838],[12.53448,51.60609],[12.50701,51.60846],[12.42733,51.5993],[12.42542,51.58213],[12.36686,51.58801],[12.31938,51.57758],[12.29318,51.56056],[12.2329,51.56113],[12.23135,51.54735],[12.19277,51.5313],[12.20308,51.48514],[12.17571,51.48222],[12.17552,51.46968],[12.14891,51.46311],[12.15721,51.43271],[12.18248,51.43238],[12.17353,51.41026],[12.19435,51.33057],[12.14765,51.31997],[12.16895,51.29376],[12.17368,51.25826],[12.18939,51.25762],[12.20123,51.21344],[12.18959,51.20398],[12.1934,51.18531],[12.21308,51.1835],[12.19715,51.15991],[12.19619,51.14191],[12.24164,51.1307],[12.22459,51.11932],[12.23036,51.10361],[12.28355,51.09192],[12.3316,51.10378],[12.35658,51.09434],[12.37532,51.07711],[12.39296,51.08412],[12.44981,51.07872],[12.46947,51.06422],[12.49636,51.06625],[12.50858,51.05306],[12.50933,51.02545],[12.53477,51.01563],[12.5509,50.99829],[12.58102,50.98924],[12.61643,50.98528],[12.63011,50.9425],[12.65412,50.91906],[12.64012,50.90307],[12.6062,50.90584],[12.48667,50.8939],[12.45925,50.88045],[12.44825,50.85617],[12.42021,50.83959],[12.40612,50.85052],[12.36489,50.84654],[12.34758,50.82363],[12.28607,50.81187],[12.25309,50.81809],[12.24284,50.80906],[12.25315,50.78883],[12.28764,50.78964],[12.28405,50.77347],[12.26392,50.76046],[12.24069,50.76724],[12.2267,50.74159],[12.23791,50.73303],[12.26476,50.73755],[12.27071,50.72518],[12.25338,50.7157],[12.27476,50.68612],[12.32205,50.68143],[12.29889,50.65168],[12.26429,50.64339],[12.23281,50.62707],[12.20755,50.6366],[12.18819,50.62312],[12.14643,50.62598],[12.14722,50.6061],[12.1149,50.59698],[12.13519,50.58213],[12.11577,50.56695],[12.10152,50.57894],[12.07812,50.57659],[12.07664,50.55801],[12.05207,50.55096],[12.01754,50.56784],[12.03563,50.58137],[12.00476,50.61382],[11.92357,50.58571],[11.93368,50.56852],[11.91393,50.55507],[11.88521,50.55194],[11.87146,50.53982],[11.88822,50.51668],[11.91846,50.51698],[11.94381,50.50561],[11.96423,50.48696],[11.94649,50.47936],[11.91903,50.45432],[11.895,50.44946],[11.89964,50.43525],[11.91932,50.42473],[11.94565,50.41628],[11.98066,50.38783],[11.98228,50.34988],[12.00824,50.3457],[12.03216,50.33007],[12.06422,50.33304],[12.09242,50.3289],[12.1009,50.31803]]]},"properties":{"id":"DE-SN","name":"Sachsen"}}
]}