{"type":"FeatureCollection", "features": [
{"type":"Feature","geometry":{"type":"Polygon","coordinates":[[[11.91932,50.42473],[11.89964,50.43525],[11.895,50.44946],[11.91903,50.45432],[11.94649,50.47936],[11.96423,50.48696],[11.94381,50.50561],[11.91846,50.51698],[11.88822,50.51668],[11.87146,50.53982],[11.88521,50.55194],[11.91393,50.55507],[11.93368,50.56852],[11.92357,50.58571],[12.00476,50.61382],[12.03563,50.58137],[12.01754,50.56784],[12.05207,50.55096],[12.07664,50.55801],[12.07812,50.57659],[12.10152,50.57894],[12.11577,50.56695],[12.13519,50.58213],[12.1149,50.59698],[12.14722,50.6061],[12.14643,50.62598],[12.18819,50.62312],[12.20755,50.6366],[12.23281,50.62707],[12.26429,50.64339],[12.29889,50.65168],[12.32205,50.68143],[12.27476,50.68612],[12.25338,50.7157],[12.27071,50.72518],[12.26476,50.73755],[12.23791,50.73303],[12.2267,50.74159],[12.24069,50.76724],[12.26392,50.76046],[12.28405,50.77347],[12.28764,50.78964],[12.25315,50.78883],[12.24284,50.80906],[12.25309,50.81809],[12.28607,50.81187],[12.34758,50.82363],[12.36489,50.84654],[12.40612,50.85052],[12.42021,50.83959],[12.44825,50.85617],[12.45925,50.88045],[12.48667,50.8939],[12.6062,50.90584],[12.64012,50.90307],[12.65412,50.91906],[12.63011,50.9425],[12.61643,50.98528],[12.58102,50.98924],[12.5509,50.99829],[12.53477,51.01563],[12.50933,51.02545],[12.50858,51.05306],[12.49636,51.06625],[12.46947,51.06422],[12.44981,51.07872],[12.39296,51.08412],[12.37532,51.07711],[12.35658,51.09434],[12.3316,51.10378],[12.28355,51.09192],[12.25849,51.06614],[12.26221,51.04961],[12.29391,51.03133],[12.29175,51.0187],[12.26219,50.98916],[12.23989,50.97568],[12.23872,50.95153],[12.21953,50.94228],[12.18251,50.97587],[12.15835,50.96313],[12.11847,50.96815],[12.09216,50.97653],[12.05536,50.96861],[12.01706,50.97657],[12.00657,50.99102],[11.97424,50.99032],[11.97714,51.01645],[11.94307,51.03244],[11.91539,51.03794],[11.88881,51.05584],[11.80389,51.04721],[11.75325,51.05699],[11.72117,51.07102],[11.70081,51.0694],[11.68917,51.09859],[11.65329,51.10971],[11.62004,51.10467],[11.57166,51.11937],[11.54564,51.10245],[11.48522,51.10253],[11.46336,51.11276],[11.47193,51.14818],[11.46857,51.19265],[11.44902,51.19627],[11.43095,51.21248],[11.40589,51.2027],[11.38982,51.21752],[11.36483,51.22136],[11.38457,51.24564],[11.41997,51.24636],[11.44678,51.27112],[11.45988,51.29405],[11.47523,51.29805],[11.39944,51.34484],[11.39115,51.37255],[11.37832,51.38724],[11.3308,51.39027],[11.32126,51.41037],[11.28498,51.40221],[11.25277,51.40065],[11.22388,51.41319],[11.19241,51.40288],[11.15293,51.40164],[11.12757,51.41325],[11.07148,51.42863],[11.01875,51.41705],[10.99203,51.41785],[10.96673,51.43235],[10.9727,51.45367],[10.96082,51.47122],[10.97294,51.48196],[10.93972,51.50073],[10.93285,51.52152],[10.94,51.54192],[10.91655,51.54746],[10.88205,51.58051],[10.89385,51.59864],[10.93054,51.59168],[10.93706,51.60349],[10.8866,51.61211],[10.85862,51.6329],[10.83373,51.63069],[10.81822,51.63903],[10.76451,51.64901],[10.70137,51.64219],[10.63821,51.61944],[10.63867,51.58412],[10.66631,51.5781],[10.6568,51.5583],[10.63653,51.56223],[10.61204,51.57923],[10.56027,51.55707],[10.50958,51.55679],[10.4957,51.57279],[10.4292,51.59253],[10.4063,51.5865],[10.37733,51.58871],[10.37862,51.56271],[10.36766,51.54304],[10.34228,51.5195],[10.30124,51.50756],[10.29967,51.4939],[10.24468,51.48374],[10.23317,51.47085],[10.20572,51.48724],[10.19019,51.48066],[10.17431,51.44626],[10.15215,51.44714],[10.11693,51.43023],[10.08011,51.43456],[10.05144,51.43032],[9.9874,51.39792],[9.96594,51.39548],[9.92834,51.3753],[9.92994,51.33997],[9.94917,51.31821],[9.93936,51.30741],[9.96985,51.30027],[9.98345,51.28334],[10.00433,51.28698],[10.05992,51.27587],[10.04655,51.2645],[10.0676,51.2489],[10.06709,51.22779],[10.09028,51.22667],[10.11317,51.21521],[10.14284,51.21722],[10.14979,51.20619],[10.17749,51.2096],[10.22019,51.18574],[10.22985,51.17491],[10.20732,51.16492],[10.20935,51.11817],[10.19996,51.11297],[10.16874,51.15327],[10.13082,51.13519],[10.17549,51.10691],[10.14469,51.08481],[10.15519,51.07042],[10.14647,51.05507],[10.18157,51.04801],[10.21519,51.02642],[10.19079,50.99907],[10.14688,50.99382],[10.12084,51.0117],[10.09427,51.00736],[10.05364,51.01315],[10.02767,51.00646],[10.01947,50.98071],[10.04095,50.96753],[10.05362,50.93978],[9.99101,50.94357],[9.95009,50.94225],[9.95714,50.9226],[9.98449,50.90699],[10.00366,50.92155],[10.02467,50.91447],[10.05598,50.87977],[10.02428,50.86723],[10.02681,50.84128],[9.99465,50.82576],[9.97682,50.83327],[9.95225,50.82137],[9.94407,50.79421],[9.95213,50.77329],[9.93961,50.75592],[9.93516,50.72412],[9.91184,50.7087],[9.92026,50.69782],[9.89468,50.68372],[9.87955,50.66645],[9.87855,50.63478],[9.9221,50.63451],[9.94593,50.62683],[9.9689,50.64126],[9.94971,50.65587],[10.00199,50.6766],[10.04893,50.67393],[10.06999,50.65588],[10.08296,50.63371],[10.03719,50.61293],[10.0488,50.59862],[10.04636,50.57125],[10.05692,50.55468],[10.03969,50.53259],[10.04134,50.51647],[10.08984,50.54481],[10.10709,50.56373],[10.14037,50.54285],[10.15957,50.54979],[10.20387,50.5547],[10.22164,50.53872],[10.23185,50.51322],[10.25622,50.51281],[10.30657,50.49208],[10.33058,50.49428],[10.37071,50.43176],[10.40094,50.41903],[10.38774,50.39823],[10.42374,50.39253],[10.4495,50.40305],[10.46366,50.37601],[10.52363,50.35476],[10.54441,50.36451],[10.56179,50.3371],[10.60055,50.33369],[10.59232,50.31137],[10.60532,50.29354],[10.59348,50.26955],[10.61205,50.22414],[10.66367,50.22154],[10.68671,50.22591],[10.69575,50.2118],[10.71665,50.20482],[10.73122,50.21265],[10.72624,50.24089],[10.76963,50.24084],[10.80056,50.25144],[10.82405,50.23753],[10.85195,50.2516],[10.84636,50.27509],[10.80392,50.27975],[10.79421,50.29538],[10.77073,50.29267],[10.74185,50.31591],[10.7154,50.32118],[10.72877,50.34463],[10.78588,50.38538],[10.80425,50.37911],[10.83044,50.39262],[10.86184,50.38767],[10.87275,50.39679],[10.89885,50.38471],[10.93763,50.39191],[10.9825,50.35179],[10.99349,50.36547],[11.03265,50.3603],[11.04299,50.34472],[11.07357,50.35365],[11.08974,50.36589],[11.1153,50.36701],[11.1592,50.33039],[11.13175,50.30809],[11.14592,50.28496],[11.18371,50.2809],[11.19785,50.29186],[11.24755,50.26776],[11.27034,50.30675],[11.26144,50.31901],[11.26623,50.352],[11.28425,50.36031],[11.27087,50.3942],[11.2632,50.44289],[11.24513,50.4708],[11.25729,50.48182],[11.32314,50.49116],[11.32136,50.50857],[11.34699,50.51161],[11.36979,50.52324],[11.38762,50.51565],[11.42389,50.51606],[11.44095,50.49996],[11.42249,50.48903],[11.42063,50.44337],[11.45125,50.43103],[11.48157,50.43162],[11.48812,50.41584],[11.47874,50.40122],[11.51891,50.39567],[11.51985,50.37427],[11.56492,50.38717],[11.59431,50.4026],[11.6246,50.38687],[11.64949,50.39224],[11.72712,50.40044],[11.75603,50.4158],[11.79735,50.41732],[11.82427,50.38976],[11.86581,50.40067],[11.88542,50.41585],[11.91932,50.42473]]]},"properties":{"id":"DE-TH","name":"Thüringen"}}
]}